License,Type of licenses,Name,Contact,Address,"City,State,Zip",County,Phone,ExpirationDate,Website
13680,Equine Stables Licenses,Savannah Carriage Tours,Nichole Myers,407D Harmon Street,"Savannah, GA      31401",CHATHAM,912-443-9333,1/21/2026,
40487,Live Plant Licenses,JAMES KERBY,,51 SHORE AVE. (View Mapquest or view GoogleMap),"SAVANNAH, GA  31406",CHATHAM,,12/31/2025,
11571,Equine Stables Licenses,Carriage Tours of Savannah,Cara Marshall,802 Wheaton St,"Savannah, GA      31401",CHATHAM,9127568043,5/30/2026,
35313,Live Plant Licenses,,,311 EAST GWINNETT ST (View Mapquest or view GoogleMap),"SAVANNAH, GA",CHATHAM,,12/31/2026,
42545,Live Plant Licenses,Danny Ray Roberts,,5901 Ogeechee Road (View Mapquest or view GoogleMap),"Savannah, GA  31419",Chatham,,12/31/2025,
42053,Live Plant Licenses,Richard Skeen,,8108 Abercorn Street (View Mapquest or view GoogleMap),"Savannah, GA  31406",CHATHAM,,12/31/2025,
42622,Live Plant Licenses,Jason Flannagan,,12350 Mercy Blvd (View Mapquest or view GoogleMap),"Savannah, GA  31419",CHATHAM,,12/31/2025,
12228,Equine Stables Licenses,Red Gate Campground and RV Resort,JOHN DAVID SMITH JR.,136 Red Gate Farm Trl,"Savannah, GA      31405",CHATHAM,9123132381,12/29/2025,
34727,Live Plant Licenses,,,14010 ABERCORN ST (View Mapquest or view GoogleMap),"SAVANNAH, GA",CHATHAM,,12/31/2026,
33902,Live Plant Licenses,,,4725 WATERS AVE (View Mapquest or view GoogleMap),"SAVANNAH, GA",CHATHAM,,12/31/2025,
31855,Live Plant Licenses,,,1955 E. MONTGOMERY CROSSROADS (View Mapquest or view GoogleMap),"SAVANNAH, GA",CHATHAM,,12/31/2025,
31869,Live Plant Licenses,JOHN GLENN,,489-A BEAULIEU AVE (View Mapquest or view GoogleMap),"SAVANNAH, GA",CHATHAM,,12/31/2026,
36736,Live Plant Licenses,DAVID BOWLES,,706 MALL BLVD (View Mapquest or view GoogleMap),"SAVANNAH, GA  31406",CHATHAM,,12/31/2026,
34676,Live Plant Licenses,,,1040 KING GEORGE BLVD (View Mapquest or view GoogleMap),"SAVANNAH, GA",CHATHAM,,12/31/2026,
35010,Live Plant Licenses,,,1975 EAST MONTGOMERY (View Mapquest or view GoogleMap),"SAVANNAH, GA",CHATHAM,,12/31/2025,
35404,Live Plant Licenses,,,495 JOHNNY MERCER BLVD (View Mapquest or view GoogleMap),"SAVANNAH, GA",CHATHAM,,12/31/2026,
32799,Live Plant Licenses,,,11505 ABERCORN ST (View Mapquest or view GoogleMap),"SAVANNAH, GA",CHATHAM,,12/31/2026,
34752,Live Plant Licenses,,,1907 E VICTORY DRIVE (View Mapquest or view GoogleMap),"SAVANNAH, GA",CHATHAM,,12/31/2025,
37599,Live Plant Licenses,,,4600 HABERSHAM STREET (View Mapquest or view GoogleMap),"SAVANNAH, GA  31405",CHATHAM,847-368-6687,12/31/2026,
31063,Live Plant Licenses,JACOB CRESWELL,,"1815 E. VICTORY AVENUE, SUITE 101 (View Mapquest or view GoogleMap)","SAVANNAH, GA  31404",CHATHAM,512-499-6739,12/31/2026,
40109,Live Plant Licenses,Emily Hinners,,726 E 51St St (View Mapquest or view GoogleMap),"Savannah, GA  31405",Chatham,,12/31/2025,www.castandgrey.com
40839,Live Plant Licenses,MARK J. HADDEN,,2601 NORWOOD AVE. (View Mapquest or view GoogleMap),"SAVANNAH, GA  31406",CHATHAM,,12/31/2025,
33923,Live Plant Licenses,,,301 MONTGOMERY CROSS RD (View Mapquest or view GoogleMap),"SAVANNAH, GA",CHATHAM,,12/31/2025,
38194,Live Plant Licenses,Mr. Kareem Andrews,,1106 NE 36 St (View Mapquest or view GoogleMap),"Savannah, Ga  31404",CHATHAM,,12/31/2025,www.bestlandscapservices.com
39809,Live Plant Licenses,Amira Brown,,108 East DeRenne Ave. (View Mapquest or view GoogleMap),"Savannah, GA  31405",CHATHAM,(12) 234-0910,12/31/2025,
37460,Live Plant Licenses,,,7400 Abercorn Ste 601 (View Mapquest or view GoogleMap),"Savannah, GA  31406",CHATHAM,,12/31/2026,
35986,Live Plant Licenses,JULIE DICAMILLO,,39 ABERCORN ST (View Mapquest or view GoogleMap),"SAVANNAH, GA",CHATHAM,,12/31/2026,
38512,Live Plant Licenses,CHARLIE JONES,,1 DIAMOND CAUSEWAY STE 21-194 (View Mapquest or view GoogleMap),"SAVANNAH, GA  31406",CHATHAM,,12/31/2026,
33909,Live Plant Licenses,,,150 JOHNNY MERCER BLVD (View Mapquest or view GoogleMap),"SAVANNAH, GA",CHATHAM,,12/31/2025,
42692,Live Plant Licenses,Dr. Shawn Hearn,,400 Pennsylvania ave (View Mapquest or view GoogleMap),"Savannah, GA  31416",CHATHAM,,12/31/2025,https://savannahhighschoolgardeningandartclub.com/
41600,Live Plant Licenses,Joshua Beckler,,704 columbus dr. (View Mapquest or view GoogleMap),"Savannah GA 31405, GA  31405",CHATHAM,,12/31/2025,becklerdesignstudio.com
31109,Live Plant Licenses,,,"1821 E. VICTORY DRIVE, BLDG. B. (View Mapquest or view GoogleMap)","SAVANNAH, GA  31404",CHATHAM,912-356-1076,12/31/2026,
33883,Live Plant Licenses,Denise Flis,,5720 OGEECHEE RD (View Mapquest or view GoogleMap),"SAVANNAH, GA",CHATHAM,,12/31/2026,
32292,Live Plant Licenses,ANNE CHANG,,8471 WATERS AVE (View Mapquest or view GoogleMap),"SAVANNAH, GA  31406",CHATHAM,,12/31/2025,
42969,Live Plant Licenses,ANTHONY DEBRECENY,,5 W YORK ST. (View Mapquest or view GoogleMap),"SAVANNAH, GA  31401",CHATHAM,,12/31/2025,CURRENTLY IN PROCESS
41137,Live Plant Licenses,Steve Cooler,,205 Burton Rd (View Mapquest or view GoogleMap),"Savannah , Ga  31405",CHATHAM,,12/31/2025,Satsumas of Savannah.com
41310,Live Plant Licenses,Alex Henry,,702 Mall Blvd (View Mapquest or view GoogleMap),"Savannah, GA  31406",CHATHAM,,12/31/2025,https://www.sproutsavannah.net/
36239,Live Plant Licenses,,,11701 ABERCORN ST (View Mapquest or view GoogleMap),"SAVANNAH, GA",CHATHAM,,12/31/2025,
33908,Live Plant Licenses,,,12012 ABERCORN ST (View Mapquest or view GoogleMap),"SAVANNAH, GA",CHATHAM,,12/31/2025,
33156,Live Plant Licenses,,,318 MALL BLVD (View Mapquest or view GoogleMap),"SAVANNAH, GA",CHATHAM,,12/31/2026,
35435,Live Plant Licenses,JOHN DAVIS,,2430 ABERCORN ST (View Mapquest or view GoogleMap),"SAVANNAH, GA",CHATHAM,,12/31/2026,
36734,Live Plant Licenses,SCOTT HINSON,,414 WHITAKER ST (View Mapquest or view GoogleMap),"SAVANNAH, GA  31401",CHATHAM,,12/31/2025,
38573,Live Plant Licenses,JAMES OLIVER,,170 WHITEMARSH ISLAND RD. (View Mapquest or view GoogleMap),"SAVANNAH, GA  31410",CHATHAM,,12/31/2025,
41020,Live Plant Licenses,Kevin Blackston,,2 Windswept Lane (View Mapquest or view GoogleMap),"Savannah , Ga  31411",CHATHAM,,12/31/2025,Seabreezelandscape.com
39615,Live Plant Licenses,RANDY WEST,,5698 OGEECHEE RD. (View Mapquest or view GoogleMap),"SAVANNAH, GA  31410",CHATHAM,912-897-7805,12/31/2025,
40457,Live Plant Licenses,Robert Romanelli,,170 Green Island Road (View Mapquest or view GoogleMap),"Savannah, GA  31411",Chatham,,12/31/2026,not available yet
41426,Live Plant Licenses,Emily Luhm,,3 Barksdale Dr (View Mapquest or view GoogleMap),"Savannah, GA  31419",CHATHAM,,12/31/2025,
33903,Live Plant Licenses,,,2055 EAST VICTORY DR (View Mapquest or view GoogleMap),"SAVANNAH, GA  31404",CHATHAM,,12/31/2025,
36077,Live Plant Licenses,MIKE BASHLER,,5657 OGEECHEE RD (View Mapquest or view GoogleMap),"SAVANNAH, GA",CHATHAM,912-233-2231,12/31/2026,
37428,Live Plant Licenses,,,8108 ABERCORN ST. (View Mapquest or view GoogleMap),"SAVANNAH, GA  31406",CHATHAM,,12/31/2026,
42790,Live Plant Licenses,Leigh Anna Dayton and Vivian Hui,,"1900 East Victory Drive, STE A00 (View Mapquest or view GoogleMap)","Savannah, GA  31404",CHATHAM,,12/31/2025,
43089,Live Plant Licenses,Katherine Schneider,,11 Hidden Lagoon Court (View Mapquest or view GoogleMap),"Savannah, GA  31419",Chatham,,12/31/2026,
32040,Live Plant Licenses,ALLAN BRADHAM,,703 EAST MONTGOMERY CROSS RD (View Mapquest or view GoogleMap),"SAVANNAH, GA",CHATHAM,,12/31/2025,
31845,Live Plant Licenses,,,11114 ABERCORN ST (View Mapquest or view GoogleMap),"SAVANNAH, GA",CHATHAM,,12/31/2025,
37139,Live Plant Licenses,Jay Ulrich,,7 East 61st St (View Mapquest or view GoogleMap),"Savannah, GA  31405",chatham,,12/31/2025,
30286,Live Plant Licenses,MIKE JONES,,4607 HABERSHAM STREET (View Mapquest or view GoogleMap),"SAVANNAH, GA  31405",CHATHAM,912-356-5409,12/31/2026,
33900,Live Plant Licenses,,,712 STEPHENSON AVE (View Mapquest or view GoogleMap),"SAVANNAH, GA",CHATHAM,,12/31/2025,
33055,Live Plant Licenses,,,4717 HWY 80 EAST UNIT B (View Mapquest or view GoogleMap),"SAVANNAH, GA",CHATHAM,,12/31/2025,
41473,Live Plant Licenses,,,19 Walthour Cove (View Mapquest or view GoogleMap),"Savannah, GA  31410",Chatham,,12/31/2025,
35182,Live Plant Licenses,,,8914 WHITE BLUFF RD (View Mapquest or view GoogleMap),"SAVANNAH, GA",CHATHAM,,12/31/2026,
33911,Live Plant Licenses,,,119 BULL ST (View Mapquest or view GoogleMap),"SAVANNAH, GA",CHATHAM,,12/31/2025,
40759,Live Plant Licenses,Sebrell Smith,,8419 Ferguson Avenue (View Mapquest or view GoogleMap),"Savannah, GA  31406",CHATHAM,,12/31/2025,www.sandflyflowershop.com
37026,Live Plant Licenses,TAKEISHA JAMES,,10530 ABERCORN ST (View Mapquest or view GoogleMap),"SAVANNAH, GA  31419",CHATHAM,,12/31/2025,
41406,Live Plant Licenses,Melissa Oxendine,,172 Enclave Blvd (View Mapquest or view GoogleMap),"Savannah, GA  31419",CHATHAM,,12/31/2025,
38419,Live Plant Licenses,Leigh Anna Dayton,,7805 Abercorn St Ste 14B (View Mapquest or view GoogleMap),"Savannah, GA  31406",CHATHAM,844-839-8330,12/31/2025,
36066,Live Plant Licenses,MARK HADDEN,,7402 SKIDAWAY RD (View Mapquest or view GoogleMap),"SAVANNAH, GA",CHATHAM,912-691-1002,12/31/2026,
33502,Live Plant Licenses,KRISTIE HENRY,,1901 EAST VICTORY DRIVE (View Mapquest or view GoogleMap),"SAVANNAH, GA",CHATHAM,770-433-8211,12/31/2025,
41469,Live Plant Licenses,,,12 Old Barn Road (View Mapquest or view GoogleMap),"Savannah, Ga  31419",CHATHAM,,12/31/2025,
39103,Live Plant Licenses,MELISSA OWENS or LUIS SIMON,,1722 E President Street (View Mapquest or view GoogleMap),"SAVANNAH, GA  31404",CHATHAM,912-330-1722,12/31/2025,www.simonlandscape.com
36002,Live Plant Licenses,,,7 DIAMOND CAUSEWAY (View Mapquest or view GoogleMap),"SAVANNAH, GA",CHATHAM,,12/31/2026,
43024,Live Plant Licenses,Eileen Ruth Noneman,,107 Halifax Rd (View Mapquest or view GoogleMap),"Savannah, GA  31410",CHATHAM,,12/31/2025,
40123,Live Plant Licenses,HEATHER WRIGHT,,209 SHIPYARD RD. (View Mapquest or view GoogleMap),"SAVANNAH, GA  31406",CHATHAM,,12/31/2025,
33462,Live Plant Licenses,,,14065 ABERCORN ST (View Mapquest or view GoogleMap),"SAVANNAH, GA",CHATHAM,,12/31/2025,
36213,Live Plant Licenses,RANDY WEST,,318 JOHNNY MERCER BLVD (View Mapquest or view GoogleMap),"SAVANNAH, GA",CHATHAM,912-897-7805,12/31/2025,
42619,Live Plant Licenses,Elizabeth North,,118 E 46th St (View Mapquest or view GoogleMap),"Savannah, GA  31405",CHATHAM,,12/31/2025,
30018,Live Plant Licenses,KURT OELSCHIG,,2705 GREGORY ST (View Mapquest or view GoogleMap),"SAVANNAH, GA",CHATHAM,912-236-3101,12/31/2026,WWW.OELSCHIGS.COM
39415,Live Plant Licenses,Jake Henry,,303 Martin Luther King Jr. Blvd. (View Mapquest or view GoogleMap),"Savannah, GA  31401",CHATHAM,,12/31/2026,savannahtree.com
35783,Live Plant Licenses,,,6000 OGEECHEE ROAD (View Mapquest or view GoogleMap),"SAVANNAH, GA",CHATHAM,,12/31/2025,
42606,Live Plant Licenses,Jennifer Grayson,,401 Whitaker St (View Mapquest or view GoogleMap),"Savannah, GA  31401",Chatham,,12/31/2025,www.onefishstore.com
33427,Live Plant Licenses,JEFF JACKSON,,700 E DERENNE AVE (View Mapquest or view GoogleMap),"SAVANNAH, GA",CHATHAM,,12/31/2026,
32182,Live Plant Licenses,KENNETH LEE,,1900 E VICTORY DR (View Mapquest or view GoogleMap),"SAVANNAH, GA",CHATHAM,,12/31/2026,
35959,Live Plant Licenses,BRENDA M SORRELLS,,559 MENDEL AVENUE (View Mapquest or view GoogleMap),"SAVANNAH, GA",CHATHAM,912-921-4577,12/31/2025,
31956,Live Plant Licenses,OSCAR CARLSTEDT,,515 BARNARD ST (View Mapquest or view GoogleMap),"SAVANNAH, GA",CHATHAM,904-354-2829,12/31/2026,
40020,Live Plant Licenses,Phillip Glenn Brist or Carolyn Jennelle,,8 Brevard Court (View Mapquest or view GoogleMap),"Savannah, GA  31410",CHATHAM,,12/31/2026,
41528,Live Plant Licenses,ANDRE NIEDERBERGER,,1903 Hawthorne St. (View Mapquest or view GoogleMap),"Savannah, GA  31404",CHATHAM,,12/31/2026,WWW.RAVENALALANDSCAPE.COM
30384,Live Plant Licenses,KATE TITUS,,5 ABERCORN PLAZA ROAD (View Mapquest or view GoogleMap),"SAVANNAH, GA  31406",CHATHAM,508-390-4799,12/31/2026,
42135,Live Plant Licenses,Matt Zaloumis,,1736 Wilmington Island Road (View Mapquest or view GoogleMap),"Savannah, GA  31410",CHATHAM,,12/31/2026,
39140,Live Plant Licenses,DIANE POLK,,6808 LAROCHE AVE. #14 (View Mapquest or view GoogleMap),"SAVANNAH, GA  31406",CHATHAM,,12/31/2025,
43022,Live Plant Licenses,ANTHONY DEBRECENY,,621 DRAYTON ST. (View Mapquest or view GoogleMap),"SAVANNAH, GA  31401",CHATHAM,,12/31/2025,https://forsythpark.thecollinsquarter.com/
36551,Live Plant Licenses,Kerry Shay,,2142 E 43rd St (View Mapquest or view GoogleMap),"Savannah, GA  31404",Chatham,,12/31/2025,www.SavannahVictoryGardens.com
34527,Live Plant Licenses,,,1403 ABERCORN ST (View Mapquest or view GoogleMap),"SAVANNAH, GA  31401",CHATHAM,,12/31/2025,
36165,Live Plant Licenses,,,5690 OGEECHEE RD (View Mapquest or view GoogleMap),"SAVANNAH, GA",CHATHAM,,12/31/2025,
35993,Live Plant Licenses,,,125 JOHNNY MERCER BLVD (View Mapquest or view GoogleMap),"SAVANNAH, GA",CHATHAM,,12/31/2026,
34602,Live Plant Licenses,,,5701 OGEECHEE RD (View Mapquest or view GoogleMap),"SAVANNAH, GA",CHATHAM,,12/31/2026,
33920,Live Plant Licenses,,,7360 SKIDAWAY RD (View Mapquest or view GoogleMap),"SAVANNAH, GA",CHATHAM,,12/31/2025,
41819,Live Plant Licenses,,,1651 E. Victory Drive NE (View Mapquest or view GoogleMap),"Savannah, GA  31404",CHATHAM,,12/31/2025,
35300,Live Plant Licenses,,,5500 ABERCORN ST SUITE 2 (View Mapquest or view GoogleMap),"SAVANNAH, GA",CHATHAM,,12/31/2025,
34677,Live Plant Licenses,,,2208 E DE RENNE AVE (View Mapquest or view GoogleMap),"SAVANNAH, GA",CHATHAM,,12/31/2026,
36443,Live Plant Licenses,HOLLY WEISS,,5353 REYNOLDS STREET (View Mapquest or view GoogleMap),"SAVANNAH, GA",CHATHAM,912-819-5889,12/31/2026,
35337,Live Plant Licenses,,,4725 EAST HWY 80 (View Mapquest or view GoogleMap),"SAVANNAH, GA",CHATHAM,,12/31/2025,
33924,Live Plant Licenses,,,5401 ABERCORN STREET (View Mapquest or view GoogleMap),"SAVANNAH, GA  31405",CHATHAM,,12/31/2025,
38656,Live Plant Licenses,Amy Zipperer,,3005 E. Victory Drive (View Mapquest or view GoogleMap),"Savannah, GA  31404",CHATHAM,,12/31/2026,
38677,Live Plant Licenses,CHARLES DANIEL,,108 DAISY COURT (View Mapquest or view GoogleMap),"SAVANNAH, GA  31404",CHATHAM,,12/31/2026,
42248,Live Plant Licenses,Deanna Charles,,7400 Abercorn Street (View Mapquest or view GoogleMap),"Savannah, GA  31406",CHATHAM,717-651-1376,12/31/2026,www.ollies.us
31295,Live Plant Licenses,,,2109 E. VICTORY DRIVE (View Mapquest or view GoogleMap),"SAVANNAH, GA  31404",CHATHAM,912-354-2921,12/31/2026,
35517,Live Plant Licenses,,,11180 ABERCORN ST (View Mapquest or view GoogleMap),"SAVANNAH, GA",CHATHAM,,12/31/2025,
40834,Live Plant Licenses,Vera Vairo,,2 Duck Bill Chase (View Mapquest or view GoogleMap),"Savannah, GA  31419",CHATHAM,,12/31/2026,
38681,Live Plant Licenses,Michael Neal,,15015 Abercorn St (View Mapquest or view GoogleMap),"Savannah, GA  31419",CHATHAM,,12/31/2026,www.cobiaclarkenursery.com
36590,Live Plant Licenses,MIKE NEAL,,15015 ABERCORN ST. (View Mapquest or view GoogleMap),"SAVANNAH, GA  31419",CHATHAM,,12/31/2025,
35031,Live Plant Licenses,MIKE BASHLOR,,4605 GARRARD AVE (View Mapquest or view GoogleMap),"SAVANNAH, GA",CHATHAM,,12/31/2026,
30964,Live Plant Licenses,Stella Mathews,,101 Winchester Drive (View Mapquest or view GoogleMap),"Savannah, GA  31410",CHATHAM,,12/31/2025,
36414,Live Plant Licenses,,,101 TELFAIR RD (View Mapquest or view GoogleMap),"SAVANNAH, GA",CHATHAM,757-463-2848,12/31/2026,
32533,Live Plant Licenses,,,11132 ABERCORN ST (View Mapquest or view GoogleMap),"SAVANNAH, GA",CHATHAM,,12/31/2026,
39346,Live Plant Licenses,JOEL F. ROSAL,,300 W. BROUGHTON ST. (View Mapquest or view GoogleMap),"SAVANNAH, GA  31401",CHATHAM,912-999-3334,12/31/2026,
331131,Animal Shelters Licenses,The Humane Society For Greater Savannah,Sean Griffin,7215 Sallie Mood Dr,"Savannah , GA      31406",CHATHAM,9123549515,12/31/2025,
39388,Live Plant Licenses,Angela Campbell,,14070 Abercorn St (View Mapquest or view GoogleMap),"Savannah, GA  31401",CHATHAM,,12/31/2025,
337643,Animal Shelters Licenses,Chatham County Animal Services,Dr. Charles Harper DVM,7211 Sallie Mood Dr,"Savannah , GA      31406",CHATHAM,9126526575,1/31/2026,
39404,Live Plant Licenses,GLADYS WISE,,51 JOHNNY MERCER BLVD (View Mapquest or view GoogleMap),"SAVANNAH, GA  31410",CHATHAM,,12/31/2025,
3400323,Animal Shelters Licenses,Islands Feral Cat Project,Linda Olson,2 Governors Ct,"Savannah , GA      31410",CHATHAM,9127773289,2/28/2026,
30062,Live Plant Licenses,MITCH JONES,,3310 OGEECHEE RD (View Mapquest or view GoogleMap),"SAVANNAH, GA  31405",CHATHAM,912-358-0514,12/31/2026,
35143,Live Plant Licenses,,,155 JOHNNY MERCER BLVD (View Mapquest or view GoogleMap),"SAVANNAH, GA",CHATHAM,,12/31/2025,
3400021,Animal Shelters Licenses,"Red Clay Animal Rescue, Inc.",Emily Pointer,715 Washington Ave,"Savannah , GA      31405",CHATHAM,774-287-9915,10/31/2026,
33102917,Animal Shelters Licenses,GRRR GA Rescue Rehabilitation Relocation,MARGARET LYNN SKINNER,6609 La Roche Ave,"Savannah , GA      31406",CHATHAM,9126569792,9/30/2026,
33103695,Animal Shelters Licenses,F.A.C.T.S,DIANE ABOLT,110 Olde Towne Rd,"Savannah , GA      31410",CHATHAM,912-897-4438,2/28/2026,
8720,Seed Dealers Licenses,"DOLLAR TREE STORES, INC. #08059",DONNA R. GRAVES,1920 EAST GWINNETT ST.,"SAVANNAH, GA      31404",CHATHAM,757-698-7103,7/31/2027,
33105772,Animal Shelters Licenses,ONE LOVE ANIMAL RESCUE,KARRIE BULSKI,118 Candleberry Ln,"Savannah , GA      31406",CHATHAM,912-596-2955,12/31/2026,
3400322,Animal Shelters Licenses,Renegade Paws Rescue,,2357 Ogeechee Rd,"Savannah , GA      31401",CHATHAM,9126656046,5/31/2026,
1307,Seed Dealers Licenses,WAL-MART STORES EAST #0635,,6000 OGEECHEE RD.,"SAVANNAH, GA      31419",CHATHAM,,7/31/2027,
33103030,Animal Shelters Licenses,"COASTAL PET RESCUE, INC",LISA SCARBROUGH,7430 Thomas Ave,"Savannah , GA      31406",CHATHAM,912-228-3538,10/31/2026,
2196,Seed Dealers Licenses,"GEORGIA CVS PHARMACY, LLC #4187",JOANNE P. AMITRANO,119 BULL ST.,"SAVANNAH, GA      31401",CHATHAM,,7/31/2027,
33102131,Animal Shelters Licenses,SAVE A LIFE,Melissa Mauldin,112 Edgewood Rd,"Savannah , GA      31404",CHATHAM,9124120057,8/31/2026,
2126,Seed Dealers Licenses,"GEORGIA CVS PHARMACY, LLC #7228",JOANNE P. AMITRANO,7360 SKIDAWAY RD.,"SAVANNAH, GA      31406",CHATHAM,,7/31/2027,
5650,Seed Dealers Licenses,"FOOD LION, LLC #2682",LAURA TUBBS,1040 KING GEORGE BLVD.,"SAVANNAH, GA      31419",CHATHAM,912-920-2114,7/31/2027,
7551,Seed Dealers Licenses,WHOLE FOODS MARKET,JACOB CRESWELL,"1815 EAST VICTORY DRIVE, STE. 101","SAVANNAH, GA      31404",CHATHAM,912-358-5829,7/31/2027,
4463,Seed Dealers Licenses,WALGREEN COMPANY #02171,TONI FRANKLIN,700 E. DERENNE AVENUE,"SAVANNAH, GA      31505",CHATHAM,847-527-4402,7/31/2027,
8739,Seed Dealers Licenses,WALGREEN CO. DBA WALGREENS #21192,TODD HECKMAN,300 W. BROUGHTON ST.,"SAVANNAH, GA      31401",CHATHAM,912-999-3333,7/31/2027,
7770,Seed Dealers Licenses,Dollar General #15520,,3005 Ogeechee Rd,"Savannah, GA      31405",,,7/31/2027,
4940,Seed Dealers Licenses,KROGER #979,DENISE FLIS,1900 E VICTORY DR,"SAVANNAH, GA      31404",CHATHAM,,7/31/2027,
9966,Seed Dealers Licenses,"Ross Dress For Less,Inc #2711",Leigh Anna Dayton and Vivian Hui,"1900 East Victory Drive, STE A00","Savannah, GA      31404",CHATHAM,925-965-4400,7/31/2027,
1534,Seed Dealers Licenses,"FAMILY DOLLAR STORES, LLC. #0356",,3308 OGEECHEE ROAD,"SAVANNAH, GA      31405-2902",CHATHAM,,7/31/2027,
6492,Seed Dealers Licenses,KROGER #645,DENISE FLIS,5720 OGEECHEE RD.,"SAVANNAH, GA      31405",CHATHAM,,7/31/2027,
7325,Seed Dealers Licenses,WALGREEN COMPANY #15611,SHAWN GOFF,2109 EAST VICTORY DRIVE,"SAVANNAH, GA      31404",CHATHAM,912-354-2603,7/31/2027,
5203,Seed Dealers Licenses,DOLLAR TREE #0372,,7805 ABERCORN ST EXT CHATHAM PLAZA,"SAVANNAH, GA      31406",CHATHAM,757-321-5000,7/31/2027,
5244,Seed Dealers Licenses,DOLLAR TREE #1152,,403 HWY 80 WESTSIDE S/C,"SAVANNAH, GA      31408",CHATHAM,757-321-5000,7/31/2027,
8435,Seed Dealers Licenses,DOLLAR GENERAL #15936,JESSICA HEALEY,3111 SKIDAWAY RD.,"SAVANNAH, GA      31404",CHATHAM,508-285-5800,7/31/2027,
6753,Seed Dealers Licenses,"WAL-MART STORES EAST, LP",,14030 ABERCORN STREET,"SAVANNAH, GA      31419",CHATHAM,,7/31/2027,
1715,Seed Dealers Licenses,"FOOD LION, LLC #1181",LAURA TUBBS,8914 WHITE BLUFF ROAD,"SAVANNAH, GA      31406",CHATHAM,912-925-0755,7/31/2027,
5748,Seed Dealers Licenses,CVS GEORGIA PHARMACY LLC,JOANNE P. AMITRANO,5690 OGEECHEE RD.,"SAVANNAH, GA      31405",CHATHAM,,7/31/2027,
4171,Seed Dealers Licenses,"BASS PRO OUTDOOR WORLD, LLC",JAMES A. HAGLE,14045 ABERCORN STREET,"SAVANNAH, GA      31419",CHATHAM,912-961-4200,7/31/2027,
7843,Seed Dealers Licenses,WAL-MART #4530,TAKEISHA JAMES,10530 ABERCORN ST,"SAVANNAH, GA      31419",,479-277-8354,7/31/2027,
9107,Seed Dealers Licenses,"DOLLAR TREE STORES, INC. #08960",DONNA R. GRAVES,10402 ABERCORN STREET,"SAVANNAH, GA      31419",CHATHAM,757-698-7103,7/31/2027,
7006,Seed Dealers Licenses,"FAMILY DOLLAR STORE OF GA, LLC. # 9019",CHRISTAL POWELL,610 MARTIN LUTHER KING BLVD,"SAVANNAH, GA      31401",CHATHAM,704-847-6961,7/31/2027,
8028,Seed Dealers Licenses,MARSHALLS OF MA. #702,KRISTIN ADAMS,8108 ABERCORN ST,"SAVANNAH, GA      31406",CHATHAM,774-308-5854,7/31/2027,
2202,Seed Dealers Licenses,"GEORGIA CVS PHARMACY, LLC #4229",JOANNE P. AMITRANO,12012 ABERCORN ST.,"SAVANNAH, GA      31419",CHATHAM,,7/31/2027,
7979,Seed Dealers Licenses,"THE TJX COMPANIES, INC. # 365",KRISTIN ADAMS,7400 ABERCORN SUITE 601,"SAVANNAH, GA      31406",CHATHAM,774-308-5854,7/31/2027,
6524,Seed Dealers Licenses,WALGREEN COMPANY #10635,TONI FRANKLIN,5701 OGEECHEE RD.,"SAVANNAH, GA      31405",CHATHAM,847-527-4402,7/31/2027,
6506,Seed Dealers Licenses,"FOOD LION, LLC #2150",LAURA TUBBS,2208 E. DERENNE AVE.,"SAVANNAH, GA      31406",CHATHAM,912-356-1274,7/31/2027,
8934,Seed Dealers Licenses,TRACTOR SUPPLY COMPANY #2545,JESSIE RICE,6083 OGEECHEE RD.,"SAVANNAH, GA      31419",CHATHAM,615-440-4952,7/31/2027,
7005,Seed Dealers Licenses,"FAMILY DOLLAR STORE OF GA, LLC. # 8738",CHRISTAL POWELL,3201 MONTGOMERY AVENUE,"SAVANNAH, GA      31405",CHATHAM,704-847-6961,7/31/2027,
3252,Seed Dealers Licenses,"BIG LOTS STORES, INC. #1590",DORIS GREATHOUSE,13051 ABERCORN RD.,"SAVANNAH, GA      31419",CHATHAM,,7/31/2027,
6017,Seed Dealers Licenses,PETSMART INC. #221,,11132 ABERCORN STREET,"SAVANNAH, GA      31419",CHATHAM,623-587-2949,7/31/2027,
1305,Seed Dealers Licenses,WAL-MART STORES EAST #0606,,4725 EAST HWY 80,"SAVANNAH, GA      31410",CHATHAM,,7/31/2027,
3332,Seed Dealers Licenses,WALGREEN COMPANY #06098,VANDANA/TONI FRANKLIN,125 JOHNNY MERCER BLVD.,"SAVANNAH, GA      31410",CHATHAM,847-527-4402,7/31/2027,
9723,Seed Dealers Licenses,"Ollie's Bargain Outlet, Inc.",Deanna Charles,7400 Abercorn Street,"Savannah, GA      31405",CHATHAM,717-657-2300,7/31/2027,
9017,Seed Dealers Licenses,DOLLAR GENERAL STORE #20159,JESSICA HEALEY,6719 WATERS AVE.,"SAVANNAH, GA      31406",CHATHAM,508-285-5800,7/31/2027,
4845,Seed Dealers Licenses,KROGER #418,DENISE FLIS,311 EAST GWINNETT ST,"SAVANNAH, GA      31401",CHATHAM,,7/31/2027,
8479,Seed Dealers Licenses,DOLLAR GENERAL #17036,JESSICA HEALEY,418 JOHNNY MERCER BLVD.,"SAVANNAH, GA      31410",CHATHAM,508-285-5800,7/31/2027,
1554,Seed Dealers Licenses,"FAMILY DOLLAR STORES, LLC. #0426",,60 E. DERENNE AVENUE,"SAVANNAH, GA      31405-6712",CHATHAM,,7/31/2027,
1245,Seed Dealers Licenses,"SAM'S EAST, INC.",,1975 EAST MONTGOMERY CROSSROADS,"SAVANNAH, GA      31406",CHATHAM,,7/31/2027,
4883,Seed Dealers Licenses,KROGER #460,DENISE FLIS,7 DIAMOND CAUSEWAY,"SAVANNAH, GA      31406",CHATHAM,,7/31/2027,
5211,Seed Dealers Licenses,DOLLAR TREE #0466,,318 JOHNNY MERCER BLVD.,"SAVANNAH, GA      31410",CHATHAM,757-321-5000,7/31/2027,
8127,Seed Dealers Licenses,FAMILY DOLLAR #31865,ZOE BARNETTE,"42 W. MONTGOMERY CROSSROAD, STE. D","SAVANNAH, GA",CHATHAM,757-698-7088,7/31/2027,
9632,Seed Dealers Licenses,ALDI Inc. (GA) #84,,1651 E. Victory Drive NE,"Savannah, GA      31404",CHATHAM,706-708-0369,7/31/2027,
4599,Seed Dealers Licenses,HOME DEPOT #0170,,1901 EAST VICTORY DR,"SAVANNAH, GA      31404",CHATHAM,912-352-3562,7/31/2027,
9923,Seed Dealers Licenses,Dollar Tree #10172,Ellen Jerzy,14086 Abercorn Street,"Savannah, GA      31419",,(757)321-5402,7/31/2027,
8744,Seed Dealers Licenses,"Aldi, Inc #88",Angela Campbell,14070 Abercorn Street,"Savannah , GA      31401",,706-387-7700 ext 149,7/31/2027,
2192,Seed Dealers Licenses,"GEORGIA CVS PHARMACY, LLC #3979",JOANNE P. AMITRANO,4717-C EAST HWY. 80,"SAVANNAH, GA      31410",CHATHAM,,7/31/2027,
2209,Seed Dealers Licenses,"GEORGIA CVS PHARMACY, LLC #4257",JOANNE P. AMITRANO,712 STEPHENSON AVE.,"SAVANNAH, GA      31405",CHATHAM,,7/31/2027,
2362,Seed Dealers Licenses,"GEORGIA CVS PHARMACY, LLC #5520",JOANNE P. AMITRANO,5401 ABERCORN STREET,"SAVANNAH, GA      31405",CHATHAM,,7/31/2027,
652,Seed Dealers Licenses,HOME DEPOT #0122,,11180 ABERCORN ST.,"SAVANNAH, GA      31419",CHATHAM,912-921-0158,7/31/2027,
504,Seed Dealers Licenses,ECONOMY FEED & SEED,JACQUELYN CRIBBS,307 CAROLAN STREET,"SAVANNAH, GA      31415",CHATHAM,912-233-9862,7/31/2027,
4502,Seed Dealers Licenses,TARGET STORE #1910,TAMEKA MILLER,14045 ABERCORN STREET,"SAVANNAH, GA      31419",CHATHAM,,7/31/2027,
8734,Seed Dealers Licenses,HERB CREEK LANDSCAPE SUPPLY,BROOKE HENDRIX,3005 E. VICTORY DRIVE,"SAVANNAH, GA      31404",CHATHAM,912-356-1575,7/31/2027,
8334,Seed Dealers Licenses,WALGREENS #19629,LAURA MILOWSKI,4600 HABERSHAM ST.,"SAVANNAH, GA      31405",CHATHAM,847-527-4516,7/31/2027,
5242,Seed Dealers Licenses,DOLLAR TREE #1150,,1915 EAST VICTORY DR VICTORY SQUARE,"SAVANNAH, GA      31404",CHATHAM,757-321-5000,7/31/2027,
1304,Seed Dealers Licenses,WAL-MART STORES EAST #0605,,1955 E. MONTGOMERY CROSSROADS,"SAVANNAH, GA      31406",CHATHAM,,7/31/2027,
2203,Seed Dealers Licenses,"GEORGIA CVS PHARMACY, LLC #4230",JOANNE P. AMITRANO,150 JOHNNY MERCER BLVD.,"SAVANNAH, GA      31410",CHATHAM,,7/31/2027,
5833,Seed Dealers Licenses,TARGET STORE #2331,TAMEKA MILLER,1907 E. VICTORY DR.,"SAVANNAH, GA      31404",CHATHAM,,7/31/2027,
2212,Seed Dealers Licenses,"CVS PHARMACY, LLC #4261",THERESE FLUETTE,2055 EAST VICTORY DRIVE,"SAVANNAH, GA      31404",CHATHAM,912-236-2465,7/31/2027,
794,Seed Dealers Licenses,"LOWE'S HOME CENTERS, LLC #0403",CAROLYN ELLER,11114 ABERCORN STREET,"SAVANNAH, GA      31419",CHATHAM,,7/31/2027,
1522,Seed Dealers Licenses,"FAMILY DOLLAR STORES, LLC. #0315",,702 WHEATON STREET,"SAVANNAH, GA      31401-5122",CHATHAM,,7/31/2027,
8212,Seed Dealers Licenses,"ROSS DRESS FOR LESS, INC. #0813",LEIGH ANNA DAYTON,7805 ABERCORN ST STE 14B,"SAVANNAH, GA      31406",CHATHAM,912 352 1419,7/31/2027,
2605,Seed Dealers Licenses,DOLLAR GENERAL #4485,"PLANTATION PRODUCTS, INC",1180 KING GEORGE BLVD. SUITE A-1,"SAVANNAH, GA      31419-9546",CHATHAM,912-920-8068,7/31/2027,
2211,Seed Dealers Licenses,"GEORGIA CVS PHARMACY, LLC #4260",JOANNE P. AMITRANO,4725 WATERS AVE.,"SAVANNAH, GA      31404",CHATHAM,,7/31/2027,
7034,Seed Dealers Licenses,DOLLAR GENERAL #12117,,4628 OGEECHEE ROAD,"SAVANNAH, GA      31405",,,7/31/2027,
6204,Seed Dealers Licenses,"FAMILY DOLLAR STORES, LLC #8034",,4601 SKIDAWAY RD.,"SAVANNAH, GA      31404-5900",CHATHAM,,7/31/2027,
2352,Seed Dealers Licenses,"GEORGIA CVS PHARMACY, LLC #5351",JOANNE P. AMITRANO,301 MONTGOMERY CROSS ROADS,"SAVANNAH, GA      31406",CHATHAM,,7/31/2027,
7702,Seed Dealers Licenses,DOLLAR GENERAL #13629,,1920 E PRESIDENTS ST,"SAVANNAH, GA      31404",,,7/31/2027,
9354,Seed Dealers Licenses,"DOLLAR TREE STORES, INC. #09282",DONNA R. GRAVES,4731 WATERS AVE,"SAVANNAH, GA      31404",CHATHAM,757-698-7103,7/31/2027,
9933,Seed Dealers Licenses,Dollar Tree #8166,Ellen Jerzy or Harry Spencer,7360 Skidaway Rd #B,"Savannah, GA      31406",CHATHAM,(757)321-5402,7/31/2027,
7649,Seed Dealers Licenses,DOLLAR TREE #6615,MEGAN CHAMBERS,800 HABERSHAM STREET,"SAVANNAH, GA      31401",CHATHAM,757-321-5000,7/31/2027,
7046,Seed Dealers Licenses,DOLLAR GENERAL #12313,,43 W MONTGOMERY XRDS SPC,"SAVANNAH, GA      31406",,,7/31/2027,
7277,Seed Dealers Licenses,"PETSMART, INC. #2351",,1851 E. VICTORY DRIVE BLDG. B,"SAVANNAH, GA      31404",CHATHAM,623-587-2949,7/31/2027,
4920,Seed Dealers Licenses,KROGER #609,DENISE FLIS,495 JOHNNY MERCER BLVD,"SAVANNAH, GA      31410",CHATHAM,,7/31/2027,
7558,Seed Dealers Licenses,"FAMILY DOLLAR STORES OF GA, LLC. # 8382",,7360 SKIDAWAY ROAD,"SAVANNAH, GA      31406",CHATHAM,704-708-1874,7/31/2027,
7737,Seed Dealers Licenses,DOLLAR GENERAL #13714,,2110 WEST BAY ST,"SAVANNAH, GA      31415",,,7/31/2027,
7072,Seed Dealers Licenses,DOLLAR GENERAL #12727,,11975 APACHE AVENUE,"SAVANNAH, GA      31419",,,7/31/2027,
9437,Seed Dealers Licenses,"HOBBY LOBBY STORES, INC. #612",SHERRI CAIN,11140 ABERCORN ST.,"SAVANNAH, GA      31419",CHATHAM,912-920-5759,7/31/2027,
3211,Seed Dealers Licenses,WALGREEN COMPANY #05368,TONI FRANKLIN,11509 ABERCORN ST.,"SAVANNAH, GA      31419",CHATHAM,847-527-4402,7/31/2027,
8733,Seed Dealers Licenses,HERB CREEK LANDSCAPE SUPPLY,BROOKE HENDRIX,7402 SKIDAWAY ROAD,"SAVANNAH, GA      31406",CHATHAM,912-691-0108,7/31/2027,
9670,Seed Dealers Licenses,Petco #2561,Richard Skeen,8108 Abercorn Street,"Savannah, GA      31406",,858-453-7845,7/31/2027,
8385,Seed Dealers Licenses,DOLLAR TREE #00809,Kyle Teague,5911 OGEECHEE ROAD,"SAVANNAH , GA      31419",CHATHAM,(757)321-5000,7/31/2027,
13232,Commercial Feed Licenses,Savannah Pet Sitters LLC,Erica Deeb,402 East Bay Street,"Savannah, GA      31401",CHATHAM,478-447-4222,12/31/2025,
12871,Commercial Feed Licenses,Munchies By Moe Joe,David Kirchinger,106 Ristona Drive,"Savannah, GA      31419",CHATHAM,727-692-9542,12/31/2025,
13670,Commercial Feed Licenses,Capone's Barkery,Lori Cafiero,"10725 Abercorn Street, Apt. 168","Savannah, GA      31419",CHATHAM,848-992-3631,12/31/2025,
13337,Commercial Feed Licenses,Zoe's Gourmet Treats LLC,Terri Breyman,27 Black Hawk Trail,"Savannah, GA      31411",CHATHAM,912-349-5986,12/31/2025,
13851,Commercial Feed Licenses,The Belle & Her Hound,Alvina Michelle Dixon,"812 1/2 W 44th Street, Upper","Savannah, GA      31405",,912-610-0001,12/31/2025,
11909,Egg Candlers Licenses,JONATHAN POPE,,2046 E DERENNE AVE,"SAVANNAH , GA      31406",CHATHAM,3058045261,,
14186,Egg Candlers Licenses,PERRY G. BOYD,,5315 GARRARD AVE,"SAVANNAH , GA      31405",,,,
14558,Egg Candlers Licenses,ELIZABETH ROSS,,3 RICHMOND DR,"SAVANNAH , GA      31406",,,,
13914,Egg Candlers Licenses,CLARENCE LUXEUS,,11400 WHITE BLUFF RD APT. #19,"SAVANNAH , GA      31419",,,,
14567,Egg Candlers Licenses,REBECCA MURPHY,,13619 COFFEE BLUFF RD,"SAVANNAH , GA      31419",,,,
11276,Egg Candlers Licenses,Kira King,,2404 Norwood Avenue,"Savannah , GA      31406",CHATHAM,9128562463,,
11585,Egg Candlers Licenses,Lisa Vickery,,224 Andover Dr.,"Savannah , GA      31405",CHATHAM,912-508-1412,,
14310,Egg Candlers Licenses,ALVINA M. DIXON,,812 1/2 W. 44TH STREET,"SAVANNAH , GA      31405",,,,
13655,Egg Candlers Licenses,TAYLOR HANKINSON,,2612 DOGWOOD AVE D6,"SAVANNAH , GA      31404",,,,
15206,Egg Candlers Licenses,TIFFANY STEWART,,132 BRIGHTWOOD DRIVE,"SAVANNAH , GA      31406",,,,
12626,Egg Candlers Licenses,WILLIAM CONYERS,,641 NORTHBROOK RD,"SAVANNAH , GA      31419",,,,
11602,Egg Candlers Licenses,MARLA PERRY,,58 MERRYDELL DR,"SAVANNAH , GA      31419",CHATHAM,9126600139,,
11898,Egg Candlers Licenses,AUSTIN KENT,,120 E 55TH ST,"SAVANNAH , GA      31405",CHATHAM,,,
13695,Egg Candlers Licenses,DAMEYN RADTKE,,115 BOBSTAY CT,"SAVANNAH , GA      31410",CHATHAM,262-951-8434,,
13694,Egg Candlers Licenses,THERESA RADTKE,,115 BOBSTAY CT,"SAVANNAH , GA      31410",CHATHAM,804-381-1944,,
14165,Egg Candlers Licenses,LILY BURNSED,,1324 FORT ARGYL RD,"SAVANNAH , GA      31419",,,,
10437,Certified Public Weighers Licenses,"CTI Foundation Terminal, Inc",Michelle Harden,7 Foundation Drive,"Savannah , GA      31408",,912-236-1331/912-443-6858,6/30/2026,
14301,Egg Candlers Licenses,CYNTHIA MULLINS,,1950 TURNER ROCK RD,"SAVANNAH , GA      31410",,,,
15689,Egg Candlers Licenses,SAMANTHA COOK,,26 MERRYDALE DR,"SAVANNAH , GA      31419",,912-777-9003,,
11736,Egg Candlers Licenses,Heather seibert,,287 Center Drive,"Savannah , GA      31406",CHATHAM,2512820277,,
12189,Egg Candlers Licenses,MORGAN WALLDEN,,507 E 62ND ST,"SAVANNAH , GA      31405",CHATHAM,912-272-3738,,
10375,Certified Public Weighers Licenses,Martin Marietta,Michelle Zerbe,4140 Ogeechee Road,"Savannah , GA      31404",,(912) 231-8130,6/30/2026,
10151,Certified Public Weighers Licenses,Colonial Terminals,Terri Keldie,101 North Lathrop Avenue,"Savannah , GA      31402",,(912) 443-6994/912-236-1331,6/30/2026,
10200,Certified Public Weighers Licenses,East Coast Terminal,Sally Penney,136 Marine Terminal Drive,"Savannah , GA      31402",,(912) 236-1531,6/30/2026,
10954,Certified Public Weighers Licenses,NANT RENEWABLES,MALLORY GUERRERO,"100 SEA POINT BLVD, BLDG 5","SAVANNAH , GA      31404",,"256-776-7313, ext 403",6/30/2026,
10232,Certified Public Weighers Licenses,Fountain Moving & Storage,Kevin Arpin,3507 Edwin Avenue,"Savannah , GA      31405",,(912) 233-1153,6/30/2026,
10125,Certified Public Weighers Licenses,Reeves Construction Company,,18 Foundation Drive,"Savannah , GA      31408",,(912) 964-7446,6/30/2026,
10478,Certified Public Weighers Licenses,Pilot Travel Center # 072,,1504 Dean Forrest Rd.,"Savannah , GA      31408",,(865) 588-7488,6/30/2026,
10240,Certified Public Weighers Licenses,Fuji Vegetable Oil Inc.,JEAN CINCOTTI,120 Brampton Road,"Savannah , GA      31408",,(912) 508-0178,6/30/2026,
10431,Certified Public Weighers Licenses,Nilson Van & Storage,,5003 Liberty Parkway,"Savannah , GA      31405",,912-233-4764,6/30/2026,
20000,Pesticide Contractors Licenses,Green Partners Turf Solutions,"Chase Kersey,",349 Bush Road,"Savannah, GA      31419",Chatham,(912)414-3060,12/31/2023,
20024,Pesticide Contractors Licenses,Orkin LLC,",",23 Bryce Industrial Dr,"Savannah, GA      31405",FULTON,901-487-3564,12/31/2025,
3701915,Pet Dealers Licenses,"Petco Animal Supplies Stores, Inc",Isela Villarreal,8108 Abercorn Street,"Savannah, GA      31406",CHATHAM,2102019096,7/31/2026,
3662742,Pet Dealers Licenses,PETSMART #221,PETSMART INC.,11132 Abercorn St,"Savannah, GA      31419",CHATHAM,623-587-2949,8/31/2026,
21870,,Sherwin-Williams,Joe Koppleman,1851 Chatham Pkwy,"Savannah , GA      31405",CHATHAM,904-252-4533,12/31/2026,
3696110,Pet Dealers Licenses,"EXOTIC AQUATICS, INC.","EXOTIC AQUATICS, INC.",559 Mendel Ave,"Savannah, GA      31406",CHATHAM,912-352-9388,3/31/2026,
3700808,Pet Dealers Licenses,Coral Ridge LLC,Rob Folkers,105 Dogwood Ave,"Savannah, GA      31410",CHATHAM,9125474528,1/31/2026,
3701157,Pet Dealers Licenses,Inked Lady Morphs,Katrina Pacentrilli & Rosemary Etling,103 Glen Oaks Dr,"Savannah, GA      31405",CHATHAM,6092469536,7/31/2026,
3701389,Pet Dealers Licenses,Mordecai,Lillie Mordecai,921 Googe St,"Savannah, GA      31415",CHATHAM,9126615232,3/31/2026,
3501092,Kennels Licenses,Top Dog Grooming Spa,Jason Lewis,5663B ogeechee Rd,"Savannah , GA      31405",CHATHAM,9122338810,3/31/2026,
3501786,Kennels Licenses,"Club Fido and Friends, LLC",Ashley Lowden,107 Horizon Park Drive Suite A,"Savannah , GA      31405",CHATHAM,912-201-3713,2/28/2026,
3501469,Kennels Licenses,BEST FRIENDS PET CARE - DBA STARBARKS,Magaly Galarza,101 Little Neck Road,"Savannah , GA      31419",CHATHAM,2037505200,4/30/2026,
3698556,Pet Dealers Licenses,PET SUPERMARKET #292,PET SUPERMARKET INC.,7805 Abercorn St Ste 17,"Savannah, GA      31406",CHATHAM,9123539392,3/31/2026,
36105808,Pet Dealers Licenses,PETSMART INC. #2351,PETSMART,1821 E Victory Dr,"Savannah, GA      31404",CHATHAM,623-587-2949,12/31/2026,
3702221,Pet Dealers Licenses,Guardian Exotics,Amber Neagley,110 Zipperer Drive,"savannah, GA      31419",CHATHAM,912-677-3888,2/28/2026,
34105096,Kennels Licenses,LOVING TOUCH PET SALON,SALLIE BOND,2101 Shell Rd # A,"Savannah , GA      31404",CHATHAM,912-232-4723,11/30/2025,
3501470,Kennels Licenses,BEST FRIENDS PET CARE - DBA THE HIPSTER,Magaly Galarza,1 Diamond Causeway,"Savannah , GA      31406",CHATHAM,2037505200,4/30/2026,
3500450,Kennels Licenses,Animal Kingdom Pet Resort,Terra Williams,362 Fort Argyle Rd,"Savannah , GA      31419",CHATHAM,912-445-5524,6/30/2026,
3457655,Kennels Licenses,SHADY PINES KENNELS,WILLIAM J. NELSON,1607 Grove Point Rd,"Savannah , GA      31419",CHATHAM,9123510915,2/28/2026,
3501916,Kennels Licenses,2615 Skidaway Rd LLC,Paul Shadel,2615 Skidaway Rd,"Savannah , GA      31404",CHATHAM,862-219-8065,7/31/2026,
34106198,Kennels Licenses,"Barkie Bow Wow LLC,",STEPHANIE GRAY,205 E Montgomery Xrd Ste E,"Savannah , GA      31406",CHATHAM,9129271422,5/31/2026,
34105837,Kennels Licenses,PETSMART INC. #2351,PETSMART,1821 E Victory Dr,"Savannah , GA      31404",CHATHAM,623-587-2949,12/31/2025,
3501581,Kennels Licenses,"OLIVER BENTLEYS, LLC",Eric Zimmerman,409 East York Street,"Savannah , GA      31401",CHATHAM,9122011688,9/30/2026,
3501060,Kennels Licenses,Renegade Paws Rescue,Jennifer Taylor,2357 Ogeechee Rd,"Savannah , GA      31401",CHATHAM,9126656046,1/31/2026,
3501117,Kennels Licenses,Fur The Love Of Dogs GA,Scott Griffith,310 Montgomery Crossroad Suite 14,"Savannah , GA      31406",CHATHAM,9122598835,3/31/2026,
3501745,Kennels Licenses,The Belle & Her Hound Grooming,Alvina M Dixon,812 1/2 West 44th Street Upper,"Savannah , GA      31405",CHATHAM,912-610-0001,2/28/2026,
3502027,Kennels Licenses,CHARLIE GROOMS SAV LLC,CHARLIE or MICHAEL FISH,5500 WHITE BLUFF RD STE B,"Savannah , GA      31405",CHATHAM,9123287602,10/31/2026,
3501471,Kennels Licenses,BEST FRIENDS PET CARE - DBA THE HIPSTER,Magaly Galarza,115 Echols Avenue,"Savannah , GA      31406",CHATHAM,2037505200,4/30/2026,
3500133,Kennels Licenses,VON TRAPP ANIMAL LODGE,Betsy von Trapp,6500 WATERS AVE,"Savannah , GA      31406",CHATHAM,9126602589,3/31/2026,
3501571,Kennels Licenses,Pet Pros DBA Bentley's Pet Stuff,Nick Honer,4717 Hwy 80 East,"Savannah , GA      31410",CHATHAM,425-402-8833,9/30/2026,
3501727,Kennels Licenses,Islands Pet Centre,mary B preston,7906 johnny Mercer Blvd suite 4,"Savannah , GA      31410",CHATHAM,912-704-3413,1/31/2026,
3500798,Kennels Licenses,"StarMutts, LLC dba Woof Gang Bakery of S",David W Pence,8507 Ferguson Ave,"Savannah , GA      31406",CHATHAM,9127043017,1/31/2026,
3501570,Kennels Licenses,Pet Pros DBA Bentley's Pet Stuff,Nick Honer,4501 Habersham Street,"Savannah , GA      31405",CHATHAM,425-402-8833,9/30/2026,
3500816,Kennels Licenses,Doggie Styling,Brenda Doulin,1212 Trafford Ln,"Savannah , GA      31410",CHATHAM,9126313060,3/31/2026,
3501587,Kennels Licenses,Gumps Grooming A Southern Canine Spa LLC,Katelyn McDonnell,821 King George Blvd Suite F,"Savannah , GA      31419",CHATHAM,2035206317,8/31/2026,
34106482,Kennels Licenses,GOOD PUP COMPANY DBA DOGTOPIA OF THUNDERBOLT,KELLY D WOLFSHEIMER,2391 DOWNING AVENUE,"SAVANNAH , GA      31404",CHATHAM,9122174229,10/31/2026,
34106474,Kennels Licenses,"STARMUTTS, LLC DBA WOOF GANG BAKERY OF SAVANNAH",DAVID PENCE,1601 BULL STREET,"SAVANNAH , GA      31401",CHATHAM,7703376993,4/30/2026,
3500013,Kennels Licenses,Dapper Dan's Dog Grooming LLC,Daniel Bates,5500 White Bluff Rd,"Savannah , GA      31405",CHATHAM,9122374447,3/31/2026,
3501808,Kennels Licenses,Furry Land of Savannah Inc,Michael Hylton,1236 Dean Forest Rd.,"Savannah , GA      31405",CHATHAM,217-816-5155 or 912-690-7876,3/31/2026,
34104300,Kennels Licenses,PETSMART INC. #221,PETSMART INC.,11132 Abercorn St,"Savannah , GA      31419",CHATHAM,623-587-2949,3/31/2026,
3501535,Kennels Licenses,The Savannah Groom Room,Jenna Clemens,912 E. 72nd St.,"Savannah , GA      31405",CHATHAM,9123413992,7/31/2026,
3500819,Kennels Licenses,Bark and Bubbles,Daniel H Merritt,216 Johnny Mercer Blvd,"Savannah , GA      31410",CHATHAM,2036675983,3/31/2026,
3495188,Kennels Licenses,ANIMAL HOUSE AT LIVE OAK,THE ANIMAL HOUSE AT LIVE OAK,7429 Thomas Ave,"Savannah , GA      31406",CHATHAM,9123521365,11/30/2025,
3501504,Kennels Licenses,"Petco Animal Supplies Stores, Inc",Isela Villarreal,8108 Abercorn Street,"Savannah , GA      31406",CHATHAM,2102019096,7/31/2026,
20010069,Cotton Warehouses Licenses,Consultative Sales Professionals,William Albanese,300 TELFAIR RD Suite B,"SAVANNAH , GA      31415",CHATHAM,561-353-7429,6/30/2026,
1091,Fertilizer Licenses,MicroSource LLC,Sara Schulze,"c/o MacroSource LLC 5 Skidaway Village Walk, Ste. 201","Savannah, GA      31411",CHATHAM,912-436-3318,6/30/2026,
0676,Fertilizer Licenses,MacroSource LLC,Sara Schulze,"5 Skidaway Vlg.Wk., Ste. 201","Savannah, GA      31411",CHATHAM,912-436-3318,6/30/2026,
1374,Fertilizer Licenses,True Earth LLC,Claude Galipeau,11128 Rimes Avenue,"Savannah, GA      31419",CHATHAM,912-507-7712,6/30/2026,
12282,Poultry Dealers and Markets Licenses,Tractor Supply Company #2545,Michael Morelli,6083 Ogeechee Road,"Savannah, GA      31419",,615-440-4600,8/31/2026,
100214,Feral Swine Transporter Permit Licenses,Herschel Wise,Herschel Wise,326 Bush Rd,"Savannah, GA      31419",CHATHAM,912-656-6560,12/31/2026,
1475443,Food Establishment Licenses,DONNA'S DELICIOUS DELITES,MARY KENNEDY,4711 MONTGOMERY ST,"SAVANNAH, GA     31405",CHATHAM,(912) 691-2253,6/30/2024,
5512609,Food Establishment Licenses,BAY STOP,BINIT AMIN,1028 W. BAY ST,"SAVANNAH, GA     31415",CHATHAM,(407) 484-6396,6/30/2026,
90652,Food Establishment Licenses,SEAFOOD LICIOUS INC,VINCENT TANG,4435 SKIDAWAY RD,"SAVANNAH, GA     31404",CHATHAM,(912) 356-9988,6/30/2023,
1972649,Food Establishment Licenses,VICTORY BP,BHUM PATHAK,1603 E VICTORY DR,"SAVANNAH, GA     31404",CHATHAM,(912) 691-0639,6/30/2026,
4956393,Food Establishment Licenses,"NHS U.S., LLC",,11 ARTLEY RD,"SAVANNAH, GA     31408",CHATHAM,(912) 330-7955,6/30/2026,
4919885,Food Establishment Licenses,THE LUNCH TRUCK,JOHN HEERY,31 JAMESWOOD AVE,"SAVANNAH, GA     31406",CHATHAM,(912) 484-3499,6/30/2025,
38425,Food Establishment Licenses,THE GAS PUMP,Ankao Lin,1934 MILLS B LANE BLVD,"SAVANNAH, GA     31405",CHATHAM,(912) 234-8307,6/30/2024,
5512319,Food Establishment Licenses,NOURIA 7406 WATERS AVE,TONY EL-NEMR,7406 WATERS AVE,"SAVANNAH, GA     31406",CHATHAM,(912) 352-7153,6/30/2026,
2530421,Food Establishment Licenses,"CUSTOM CAKES, INC.",MINETTE RUSHING,354 A ISLAND RD,"SAVANNAH, GA     31406",CHATHAM,(912) 356-0072,6/30/2026,
2042395,Food Establishment Licenses,"PUBLIX SUPER MARKET, INC. #1489",TODD JONES,6 WESTRIDGE RD,"SAVANNAH, GA     31411",CHATHAM,(912) 598-3130,6/30/2026,
1900406,Food Establishment Licenses,MILAN FOOD MART,HIREN PATEL,2401 MONTGOMERY ST,"SAVANNAH, GA     31401",CHATHAM,(912) 233-2807,6/30/2026,
35126,Food Establishment Licenses,CIRCLE K STORES INC. #2705346,TOM HARMAN,2404 DEAN FOREST RD,"SAVANNAH, GA     31408",CHATHAM,(912) 966-0568,6/30/2026,
5310649,Food Establishment Licenses,DOLLAR TREE #09282,BOB SASSER,4731 WATERS AVE.,"SAVANNAH, GA     31404",CHATHAM,(912) 446-4745,6/30/2026,
3260403,Food Establishment Licenses,ASIA MARKET,HEE SUN KIM,117 E MONTGOMERY XRD,"SAVANNAH, GA     31406",CHATHAM,(912) 961-0170,6/30/2026,
5511964,Food Establishment Licenses,MI TIERRA SUPERMARKET,MAHESH PATEL,4305 MONTGOMERY ST,"SAVANNAH, GA     31405",CHATHAM,(912) 484-1883,6/30/2026,
1973064,Food Establishment Licenses,GULF STATES COLD STORAGE CO,JOHN CRISP,106 ELI WHITNEY BLVD,"SAVANNAH, GA     31408",CHATHAM,(912) 508-0739,6/30/2024,
3239494,Food Establishment Licenses,UNCLE BEN'S JR. MEAT MARKET,EDILMA MARTIN LOPEZ,1119 E MONTGOMERY CROSS RD,"SAVANNAH, GA     31406",CHATHAM,(912) 920-2525,6/30/2026,
5204333,Food Establishment Licenses,LA FAVORITA LATIN GROCERY,ANGEL LARES,1550 DEAN FOREST RD STE H,"SAVANNAH, GA     31408",CHATHAM,(912) 349-3468,6/30/2025,
5511098,Food Establishment Licenses,SAVANNAH OYSTER COMPANY,HARLEY KRINSKY,230 E POINT DR,"SAVANNAH, GA     31410",CHATHAM,(706) 338-9611,6/30/2026,
3530816,Food Establishment Licenses,MURPHY EXPRESS #8829,DAVID WOOD,14080 ABERCORN ST,"SAVANNAH, GA     31419",CHATHAM,(912) 920-0606,6/30/2026,
4322572,Food Establishment Licenses,SUNOCO FOOD MART,BHARTIBEN PATEL,7361 SKIDAWAY RD,"SAVANNAH, GA     31406",CHATHAM,912-354-2989,6/30/2026,
4256844,Food Establishment Licenses,QUICKSTOP #204,DIPEN PATEL,2 E GATEWAY BLVD,"SAVANNAH, GA     31419",CHATHAM,912-349-0075,6/30/2026,
4645401,Food Establishment Licenses,SUSHI WITH GUSTO,MATT WILKES,5525 ABERCORN ST,"SAVANNAH, GA     31405",CHATHAM,(704) 926-2200,6/30/2026,
71687,Food Establishment Licenses,PARKER'S #19,GREGORY PARKER,222 DRAYTON ST,"SAVANNAH, GA     31401",CHATHAM,(912) 233-1000,6/30/2026,
4920130,Food Establishment Licenses,GARDEN CITY TEXACO,HIMANSU PATEL,511 W US HWY 80 UNIT A,"SAVANNAH, GA     31408",CHATHAM,,6/30/2026,
1321427,Food Establishment Licenses,DOLLAR TREE STORE #466,BOB SASSER,318 JOHNNY MERCER BLVD,"SAVANNAH, GA     31410",CHATHAM,(912) 712-7215,6/30/2026,
4322414,Food Establishment Licenses,QUICK STOP #100,PRITESH PATEL,108 SHIPYARD RD,"SAVANNAH, GA     31406",CHATHAM,912-208-0127,6/30/2026,
4322995,Food Establishment Licenses,"FIVE BELOW, INC (6062)",JOEL ANDERSON,7400 ABERCORN ST STE 507,"SAVANNAH, GA     31406",CHATHAM,(215) 546-7909 ext. 2784,6/30/2026,
5106329,Food Establishment Licenses,COLONIAL CHEMICAL SOLUTIONS,CLAYTON CHESHIRE,400 TELFAIR RD,"SAVANNAH, GA     31415",CHATHAM,(912) 236-1331,6/30/2026,
28479,Food Establishment Licenses,NATIONAL DISTRIBUTING INC,JAY DAVIS,1414 MILLS B LANE BLVD,"SAVANNAH, GA     31405",CHATHAM,(912) 232-2201,6/30/2024,
4371194,Food Establishment Licenses,ALDI #88,CHARLES YOUNGSTROM,14070 ABERCORN ST,"SAVANNAH, GA     31419",CHATHAM,(912) 438-8052,6/30/2026,
85486,Food Establishment Licenses,STAPLES THE OFFICE SUPERSTORE,MICHAEL MILES,11605 ABERCORN ST STE 100,"SAVANNAH, GA     31419",CHATHAM,(912) 927-0169,6/30/2026,
2994453,Food Establishment Licenses,QUICK MART,DILIP PATEL,4906 PAULSEN ST,"SAVANNAH, GA     31405",CHATHAM,(912) 354-2270,6/30/2026,
2994448,Food Establishment Licenses,J & J FOOD MART,DEVIKA PATEL,848 STALEY AVE,"SAVANNAH, GA     31405",CHATHAM,(912) 354-8507,6/30/2026,
41978,Food Establishment Licenses,RAM FOOD MART,GIRISH PATEL,1101 E MONTGOMERY CROSSROADS,"SAVANNAH, GA     31406",CHATHAM,(912) 961-0019,6/30/2026,
70869,Food Establishment Licenses,CVS PHARMACY #4229,THOMAS MOFFATT,12012 ABERCORN ST,"SAVANNAH, GA     31419",CHATHAM,(912) 920-0963,6/30/2026,
1975419,Food Establishment Licenses,GREAT AMERICAN COOKIES,DARRYL LIGHT,7804 ABERCORN ST,"SAVANNAH, GA     31406",CHATHAM,(912) 355-7927,6/30/2024,
4766761,Food Establishment Licenses,GATEWAY MARATHON,BIJALKUMAR PATEL,2 W GATEWAY BLVD,"SAVANNAH, GA     31419",CHATHAM,760-267-1724,6/30/2025,
41975,Food Establishment Licenses,NANCYS SEAFOOD,JOSEPH HO,1302 W BAY ST,"SAVANNAH, GA     31415",CHATHAM,(912) 232-4442,6/30/2026,
5511758,Food Establishment Licenses,JIM'S QUICK STOP,AVINASH PATEL,922 PENNSYLVANIA AVE,"SAVANNAH, GA     31404",CHATHAM,(912) 349-0733,6/30/2026,
5105579,Food Establishment Licenses,PENNEY OPCO LLC #2060,DAVID BULLINGTON,7804 ABERCORN ST,"SAVANNAH, GA     31406",CHATHAM,(912) 355-4000,6/30/2026,
5510685,Food Establishment Licenses,NATURALS2GO,HEATH FALZARANO,133 SOUTHERN BLVD,"SAVANNAH, GA     31405",CHATHAM,(912) 223-6954,6/30/2026,
5310542,Food Establishment Licenses,CIRCLE K STORES INC #2707265,TOM HARMAN,930 CHATHAM PKWY,"SAVANNAH, GA     31415",CHATHAM,(912) 744-0980,6/30/2026,
33537,Food Establishment Licenses,JOHNNY HARRIS BAR B QUE SAUCE,PHIL DONALDSON,2801 WICKLOW ST,"SAVANNAH, GA     31404",CHATHAM,(912) 354-8828,6/30/2023,
1756415,Food Establishment Licenses,SHREEJI CONVENIENCE MART,SUREKHABEN PATEL,10325 ABERCORN ST,"SAVANNAH, GA     31406",CHATHAM,,6/30/2026,
68607,Food Establishment Licenses,VYOM,VIRENDRA PATEL,5920 OGEECHEE RD,"SAVANNAH, GA     31419",CHATHAM,(912) 925-7011,6/30/2026,
2968404,Food Establishment Licenses,FRIENDSHIP COFFEE COMPANY,GAY FORTSON,205 JOHNNY MERCER BLVD UNIT I,"SAVANNAH, GA     31410",CHATHAM,(912) 631-9544,6/30/2026,
4987130,Food Establishment Licenses,LOUVENIA'S FOOD,JASON / MICHELLE WALKER,11 GATEWAY BLVD S,"SAVANNAH, GA     31419",CHATHAM,(912) 657-4153,6/30/2024,
2943405,Food Establishment Licenses,SHELL FOOD MART,JAYESH PATEL,1 E GATEWAY BLVD,"SAVANNAH, GA     31419",CHATHAM,(912) 925-3526,6/30/2025,
3452408,Food Establishment Licenses,GIGI'S CUPCAKES,XIAORU SHI,5521 ABERCORN ST STE 100,"SAVANNAH, GA     31405",CHATHAM,(912) 349-2778,6/30/2026,
4162584,Food Establishment Licenses,TIENDA MEXICANA JUQULITA,MARICELA BRUNO,221 EXECUTIVE CIRCLE,"SAVANNAH, GA     31406",CHATHAM,(912) 921-7040,6/30/2026,
3240286,Food Establishment Licenses,PARKER'S #62,GREGORY PARKER,2175 BENTON BLVD,"SAVANNAH, GA     31407",CHATHAM,(912) 349-0091,6/30/2026,
5451453,Food Establishment Licenses,RAY'S BUTCHER SHOP,SURINDERPAL SINGH,3707 MONTGOMERY ST,"SAVANNAH, GA     31405",CHATHAM,(912) 234-7951,6/30/2026,
34396,Food Establishment Licenses,PILOT TRAVEL CENTER #072,"JAMES HASLAM, III",1504 DEAN FOREST RD,"SAVANNAH, GA     31408",CHATHAM,(912) 964-5280,6/30/2026,
4955536,Food Establishment Licenses,WHAT CHEFS WANT!,MOLLIE & RON TURNIER,633 E 33 RD ST,"SAVANNAH, GA     31401",CHATHAM,(912) 966-5297,6/30/2026,
1369460,Food Establishment Licenses,FAMILY DOLLAR STORE #8034,HOWARD LEVINE,4601 SKIDAWAY RD,"SAVANNAH, GA     31404",CHATHAM,(912) 645-9573,6/30/2026,
1491814,Food Establishment Licenses,BYRD COOKIE COMPANY FACTORY STORE,STEPHANIE LINDLEY,213 W JULIAN ST,"SAVANNAH, GA     31401",CHATHAM,(912) 233-8816,6/30/2026,
39725,Food Establishment Licenses,SAVANNAH CONVENIENCE INC,Gary Allen,6827 WATERS AVE,"SAVANNAH, GA     31406",CHATHAM,(912) 354-3294,6/30/2025,
1382273,Food Establishment Licenses,WALMART SUPERCENTER #4556,TIM SKINNER,14030 ABERCORN ST,"SAVANNAH, GA     31419",CHATHAM,(912) 927-8000,6/30/2026,
2994424,Food Establishment Licenses,JAY AMBE FOOD MART,DEVENDRA PATEL,2511 SKIDAWAY RD,"SAVANNAH, GA     31404",CHATHAM,540-816-9062,6/30/2026,
5874253,Food Establishment Licenses,"ROSS DRESS FOR LESS, INC #2711",TODD SCHAFFLER,"1900 EAST VICTORY DR, STE AOO","SAVANNAH, GA     31404",CHATHAM,(912) 238-4433,6/30/2026,
29263,Food Establishment Licenses,BUDGET FOOD STORE,ZIAD ABDALLAH,1028 W BAY ST,"SAVANNAH, GA     31415",CHATHAM,(912) 233-1613,6/30/2025,
26982,Food Establishment Licenses,FAMILY DOLLAR STORE #426,HOWARD LEVINE,60 E DeRENNE AVE,"SAVANNAH, GA     31405",CHATHAM,(912) 354-8241,6/30/2026,
80648,Food Establishment Licenses,HOMEGOODS INC #197,,5 ABERCORN PLAZA STE A,"SAVANNAH, GA     31406",CHATHAM,(912) 925-2225,6/30/2026,
4876977,Food Establishment Licenses,CREAM TEA COMPANY,BRITTNE' SHEEAN,1000 EISENHOWER DR STE J,"SAVANNAH, GA     31406",CHATHAM,(805) 712-7406,6/30/2024,
1756420,Food Establishment Licenses,SAVANNAH MALL SHELL,BHARTI PATEL,14001 ABERCORN ST,"SAVANNAH, GA     31419",CHATHAM,(912) 920-0842,6/30/2025,
99924,Food Establishment Licenses,TARGET STORE T-2331,ROBERT ULRICH,1907 E VICTORY DR,"SAVANNAH, GA     31404",CHATHAM,(912) 644-1600,6/30/2026,
1491542,Food Establishment Licenses,DOLLAR GENERAL STORE #13714,TODD VASOS,2110 W BAY ST,"SAVANNAH, GA     31415",CHATHAM,(912) 373-8947,6/30/2026,
4766813,Food Establishment Licenses,CHEERS BEER & WINE LLC,MALAYSHA HALL,6606 WATERS AVE,"SAVANNAH, GA     31406",CHATHAM,(912) 441-7587,6/30/2022,
5511165,Food Establishment Licenses,SAVANNAH SOUTHSIDE SEAFOOD MARKET,ANA YUGSI,12328 LARGO DR.,"SAVANNAH, GA     31419",CHATHAM,(912) 358-0532,6/30/2026,
5311055,Food Establishment Licenses,DIAMOND FOOD MART,VANDANA RAMTEKE,3017 BULL ST,"SAVANNAH, GA     31405",CHATHAM,(912) 236-0778,6/30/2026,
4323271,Food Establishment Licenses,SAVANNAH COFFEE ROASTERS,LORI COLLINS,215 W LIBERTY ST,"SAVANNAH, GA     31401",CHATHAM,(912) 352-2994,6/30/2026,
5608675,Food Establishment Licenses,THE STORE,KAREN DICKERSON,1803 WATERS AVE,"SAVANNAH, GA     31404",CHATHAM,(404) 783-1954,6/30/2026,
3452425,Food Establishment Licenses,CHU'S MARKET,DIPESH PATEL,1407 MONTGOMERY ST,"SAVANNAH, GA     31401",CHATHAM,(912) 232-3462,6/30/2025,
97795,Food Establishment Licenses,CHU'S CONVENIENCE MART #114,RICHARD PRUDEN,12006 MIDDLEGROUND RD,"SAVANNAH, GA     31419",CHATHAM,(912) 964-4055,6/30/2026,
3531105,Food Establishment Licenses,PARKER'S #64,GREGORY PARKER,1601 DEAN FOREST RD,"SAVANNAH, GA     31408",CHATHAM,(912) 966-1686,6/30/2026,
2994466,Food Establishment Licenses,"US FOODS OF GA, LLC",ASHRAF ABDALLAH,1315 AUGUSTA AVE,"SAVANNAH, GA     31415",CHATHAM,(912) 232-6690,6/30/2026,
4322622,Food Establishment Licenses,EAGLE MARKET #1,TARAK PATEL,3014 SKIDAWAY RD,"SAVANNAH, GA     31404",CHATHAM,912-856-0931,6/30/2026,
4919907,Food Establishment Licenses,CHEF DARIN'S KITCHEN TABLE,DARIN SEHNERT,2514 ABERCORN ST UNIT 140,"SAVANNAH, GA     31401",CHATHAM,(912) 662-6882,6/30/2026,
4370616,Food Establishment Licenses,REDDY ICE,,431 HARMON ST,"SAVANNAH, GA     31401",CHATHAM,214-272-4202,6/30/2026,
2530455,Food Establishment Licenses,OGEECHEE CONVENIENCE,MITUL PATEL,6001 OGEECHEE RD,"SAVANNAH, GA     31419",CHATHAM,(912) 925-4305,6/30/2026,
2042334,Food Establishment Licenses,ALIVE MINI MARKET,JOYCE GRIGGS,707 HARMON ST,"SAVANNAH, GA     31401",CHATHAM,(912) 376-1279,6/30/2024,
4109439,Food Establishment Licenses,WINCHESTER GARDENS LLC,STELLA MATHEWS,140 JOHNNY MERCER BLVD #15,"SAVANNAH, GA     31410",CHATHAM,912-398-6662,6/30/2026,
5608891,Food Establishment Licenses,QUICK STOP #92,BHAVESH PATEL,1450 W BAY ST,"SAVANNAH, GA     31415",CHATHAM,(912) 231-3763,6/30/2026,
4987192,Food Establishment Licenses,OMG CANDY STORE,RAY DALY,21 E BROUGHTON ST,"SAVANNAH, GA     31401",CHATHAM,(912) 999-8974,6/30/2026,
4896836,Food Establishment Licenses,PUMP N GO,ASHWIN PATEL,5663 OGEECHEE RD,"SAVANNAH, GA     31405",CHATHAM,(912) 417-2091,6/30/2026,
526816,Food Establishment Licenses,PUBLIX SUPER MARKET #1186,WILLIAM CRENSHAW,11701 ABERCORN ST,"SAVANNAH, GA     31419",CHATHAM,(912) 925-4112,6/30/2026,
1972825,Food Establishment Licenses,GENJI SAVANNAH,TAKESHI YAMAKAWA,1815 E VICTORY DR,"SAVANNAH, GA     31401",CHATHAM,(912) 358-5829,6/30/2026,
2795529,Food Establishment Licenses,WALMART #4530 FUEL KIOSK,TIM SKINNER,10530 ABERCORN ST,"SAVANNAH, GA     31419",CHATHAM,(912) 712-7007,6/30/2026,
4956082,Food Establishment Licenses,VICTORIAN MARKET,ALPA PATEL,1004 ABERCORN ST,"SAVANNAH, GA     31401",CHATHAM,(912) 349-5882,6/30/2026,
97532,Food Establishment Licenses,DOLLAR TREE DISTRIBUTION INC,BOB SASSER,151 CROSSROADS PARKWAY,"SAVANNAH, GA     31407",CHATHAM,(912) 965-1994,6/30/2026,
93612,Food Establishment Licenses,BRAVO FOODSERVICE INC,VERONICA JAIME,1550 W BAY ST,"SAVANNAH, GA     31415",CHATHAM,(912) 238-0907,6/30/2026,
93612,Food Establishment Licenses,BRAVO FOODSERVICE INC,VERONICA JAIME,1550 W BAY ST,"SAVANNAH, GA     31415",CHATHAM,(912) 238-0907,12/31/2024,
83276,Food Establishment Licenses,THE KROGER COMPANY STORE #460,DAVE DILLON,7 DIAMOND CAUSEWAY,"SAVANNAH, GA     31406",CHATHAM,(912) 353-4345,6/30/2026,
4877358,Food Establishment Licenses,JAMZ THRIFTY STORE,LEATRISE ADAMS,325 STALEY AVE,"SAVANNAH, GA     31405",CHATHAM,(912) 414-3074,6/30/2025,
32007,Food Establishment Licenses,7 11 MINIT STORE & GIFT SHOP,REKHA PATEL,3700 WATERS AVE,"SAVANNAH, GA     31404",CHATHAM,(912) 355-5663,6/30/2026,
4920236,Food Establishment Licenses,PARKER'S #88,GREGORY PARKER,21 E DERENNE AVE,"SAVANNAH, GA     31405",CHATHAM,(912) 721-7597,6/30/2026,
4986697,Food Establishment Licenses,JASMINE FOOD MART,DIPESHKUMAR PATEL,9602 WHITE BLUFF RD,"SAVANNAH, GA     31406",CHATHAM,(912) 495-7080,6/30/2026,
27052,Food Establishment Licenses,AKSHAR ENTERPRISE INC,BHUPENDRA PATEL,5402 LA ROCHE AVE,"SAVANNAH, GA     31406",CHATHAM,(912) 353-9001,6/30/2026,
2562416,Food Establishment Licenses,BRADLEY CORNER,DAVESH PATEL,1102 BRADLEY BLVD STE B,"SAVANNAH, GA     31419",CHATHAM,(912) 925-0999,6/30/2025,
31441,Food Establishment Licenses,PARKER'S #13,GREGORY PARKER,2004 BEECH ST,"SAVANNAH, GA     31404",CHATHAM,(912) 236-5774,6/30/2026,
4459931,Food Establishment Licenses,RSK ENTERPRISES OF SAVANNAH,ROBERT KELLY,8507 A FERGUSON AVE,"SAVANNAH, GA     31406",CHATHAM,912-656-5591,6/30/2023,
1409266,Food Establishment Licenses,STAPLES THE OFFICE SUPERSTORE,MICHAEL MILES,1915 E VICTORY SQUARE DR,"SAVANNAH, GA     31404",,(508) 253-5000,6/30/2026,
3452413,Food Establishment Licenses,PUMP N GO,MOSHMIBEN PATEL,2320 OGEECHEE RD,"SAVANNAH, GA     31415",CHATHAM,(912) 712-3603,6/30/2026,
26411,Food Establishment Licenses,RIVER STREET SWEETS,PAM STRICKLAND,13 E RIVER ST,"SAVANNAH, GA     31401",CHATHAM,(912) 234-4608,6/30/2026,
4410025,Food Establishment Licenses,TOP STOP,PARTH PATEL,401 E MONTGOMERY CROSSROAD,"SAVANNAH, GA     31406",CHATHAM,912-920-3155,6/30/2026,
4823436,Food Establishment Licenses,MARSHALLS #0702,RICHARD SHERR,8108 ABERCORN ST,"SAVANNAH, GA     31406",CHATHAM,(912) 927-4384,6/30/2026,
4576411,Food Establishment Licenses,MINI MART,MRUGESH PATEL,5208 WATERS AVE,"SAVANNAH, GA     31404",CHATHAM,267-407-2719,6/30/2023,
4876912,Food Establishment Licenses,FUJISAN SUSHI,KEITH MAEDA,1975 E MONTGOMERY CROSSROADS,"SAVANNAH, GA     31406",CHATHAM,(912) 352-3330,6/30/2026,
4108408,Food Establishment Licenses,SAVANNAH MART,MEHUL PATEL,1300 E DERENNE AVE,"SAVANNAH, GA     31404",CHATHAM,912-354-6505,6/30/2024,
5311299,Food Establishment Licenses,"L & M SAUCE WORKS, LLC",LYNDA PHILLIPS,1000 EISENHOWER DRIVE,"SAVANNAH, GA     31406",CHATHAM,(678) 283-3819,6/30/2026,
66972,Food Establishment Licenses,SAVANNAH'S CANDY KITCHEN,STAN STRICKLAND,242 E LATHROP AVE,"SAVANNAH, GA     31415",CHATHAM,(912) 232-2639,6/30/2026,
5609356,Food Establishment Licenses,TYBEE OYSTER COMPANY,ALEXANDER SOLOMON,6705 JOHNNY MERCER BLVD,"SAVANNAH, GA     31410",CHATHAM,(912) 521-4430,7/31/2026,
59882,Food Establishment Licenses,PUBLIX SUPER MARKET #521,TODD JONES,4717 B EAST HWY 80,"SAVANNAH, GA     31410",CHATHAM,(912) 897-8111,6/30/2026,
5174968,Food Establishment Licenses,CITY LINE GAS,DHRUVIKABEN PATEL,225 S COASTAL HWY,"SAVANNAH, GA     31407",CHATHAM,(912) 335-1820,6/30/2026,
5608676,Food Establishment Licenses,PANADERIA JAZMIN DEL 17,MARIO GARCIA AVILA,4928 OGEECHE RD STE B,"SAVANNAH, GA     31405",CHATHAM,(912) 777-5007,6/30/2026,
42540,Food Establishment Licenses,SUNOCO GAS STATION,JAYANTI PATEL,12424 WHITE BLUFF RD,"SAVANNAH, GA     31419",CHATHAM,(912) 920-8556,6/30/2026,
1449410,Food Establishment Licenses,FOOD LION #2150,SCOTT GENTRY,2208 E DERENNE AVE,"SAVANNAH, GA     31406",CHATHAM,(912) 356-1274,6/30/2026,
33990,Food Establishment Licenses,JONES RED & WHITE,JAMES JONES,4607 HABERSHAM ST,"SAVANNAH, GA     31405",CHATHAM,(912) 352-2370,6/30/2026,
5106283,Food Establishment Licenses,WATERS MARKET,ALKESH PATEL,4402 WATERS AVE,"SAVANNAH, GA     31404",CHATHAM,(951) 292-1645,6/30/2026,
4347414,Food Establishment Licenses,EBENEZER DISCOUNT GROCERY,JEREMY MILES,309 MAIN ST STE B,"SAVANNAH, GA     31408",CHATHAM,(912) 777-7869,6/30/2026,
30339,Food Establishment Licenses,GAS AND MORE,JITENDRA PATEL,4700 US HIGHWAY 80 E,"SAVANNAH, GA     31410",CHATHAM,(912) 898-4578,6/30/2026,
91900,Food Establishment Licenses,TARGET STORE T-1910,ROBERT ULRICH,14065 ABERCORN ST,"SAVANNAH, GA     31419",CHATHAM,(912) 925-2667,6/30/2026,
4162479,Food Establishment Licenses,DOLLAR TREE #00809,BOB SASSER,5911 OGEECHEE RD,"SAVANNAH, GA     31419",CHATHAM,(912) 226-5425,6/30/2026,
6028888,Food Establishment Licenses,YUMMI SUSHI @KROGER #418,,311 E. GWINNETT ST,"SAVANNAH, GA     31410",CHATHAM,(972) 402-9498,6/30/2026,
528105,Food Establishment Licenses,AFC SUSHI @KROGER #609,,495 JOHNNY MERCER BLVD,"SAVANNAH, GA     31410",CHATHAM,(912) 987-3532,6/30/2026,
4824365,Food Establishment Licenses,ISREALLY HUMMUS,ASSAF GLEIZNER,1000 EISENHOWER DR STE D,"SAVANNAH, GA     31406",CHATHAM,(914) 419-5099,6/30/2026,
88634,Food Establishment Licenses,BASS PRO SHOPS OUTDOOR WORLD,JIM HAGALE,14045 ABERCORN ST,"SAVANNAH, GA     31419",CHATHAM,(912) 961-4200,6/30/2026,
1972672,Food Establishment Licenses,CAPITAL BEE COMPANY,THOMAS HINELY,2700 GREGORY ST STE 230,"SAVANNAH, GA     31404",CHATHAM,(912) 663-1079,6/30/2025,
5510481,Food Establishment Licenses,FOOD MART,JAYANTKUMAR PATEL,1816 MONTGOMERY ST,"SAVANNAH, GA     31401",CHATHAM,(508) 250-5617,6/30/2026,
2994437,Food Establishment Licenses,PENNY SAVER #1,MAHER SAMMOUR,2205 WATERS AVE,"SAVANNAH, GA     31404",CHATHAM,(912) 236-5006,6/30/2026,
38673,Food Establishment Licenses,RUSSOS SEAFOOD INC,"CHARLES RUSSO, JR.",201 E 40TH ST,"SAVANNAH, GA     31401",CHATHAM,(912) 234-5196,6/30/2023,
38673,Food Establishment Licenses,RUSSOS SEAFOOD INC,"CHARLES RUSSO, JR.",201 E 40TH ST,"SAVANNAH, GA     31401",CHATHAM,(912) 234-5196,12/31/2023,
38673,Food Establishment Licenses,RUSSOS SEAFOOD INC,"CHARLES RUSSO, JR.",201 E 40TH ST,"SAVANNAH, GA     31401",CHATHAM,(912) 234-5196,7/31/2026,
5608801,Food Establishment Licenses,GARCIA FAMILIA AGUA FRESCA,BRITTANY FELDMAN,324 W BOLTON ST,"SAVANNAH, GA     31401",CHATHAM,(912) 659-8172,6/30/2026,
4162906,Food Establishment Licenses,THE FORAGE GENERAL STORE,MICHAEL BAUCCIO,1 W VICTORY DR,"SAVANNAH , GA     31405",CHATHAM,912-346-0714,6/30/2026,
1408816,Food Establishment Licenses,"ROYAL CUP, INC","WILLIAM SMITH, JR.",8 MALL TERRACE UNIT A-4,"SAVANNAH, GA     31406",CHATHAM,(912) 356-1073,6/30/2024,
52357,Food Establishment Licenses,DAVIS PRODUCE & PLANTS,RANDY DAVIS,7755 HIGHWAY 80 EAST,"SAVANNAH, GA     31410",CHATHAM,(912) 897-5513,6/30/2023,
68173,Food Establishment Licenses,JAY RAM,VIRENDRAKUMAR PATEL,3207 WATERS AVE,"SAVANNAH, GA     31404",CHATHAM,(912) 355-4882,6/30/2026,
5874615,Food Establishment Licenses,BHOLE DISCOUNT CORNER,KETAN PATEL,104 TIBET AVE,"SAVANNAH, GA     31406",CHATHAM,(912) 661-5359,6/30/2026,
4897393,Food Establishment Licenses,SAVANNAH SQUARE POPS,JUDD WIGGINS,344 MLK JR. BLVD,"SAVANNAH, GA     31401",CHATHAM,(912) 999-7078,6/30/2026,
82736,Food Establishment Licenses,SHIV DISCOUNT CORNER INC,RASHMIKANT PATEL,44 ABERCORN ST,"SAVANNAH, GA     31401",CHATHAM,(912) 844-5542,6/30/2026,
4495648,Food Establishment Licenses,"MURPHY USA, INC",GREG SMITH,6004 OGEECHEE RD,"SAVANNAH, GA     31419",CHATHAM,(870) 875-7595,6/30/2026,
4896812,Food Establishment Licenses,SAVANNAH TEA ROOM,ANASTASIA & ELIZABETH MCDONALD,14 E MACON ST,"SAVANNAH, GA     31401",CHATHAM,(912) 656-6430,6/30/2026,
4766631,Food Establishment Licenses,SWEET SOIREES BY NICOLE,NICOLE JOHNSON,6610 WATERS AVE,"SAVANNAH, GA     31406",CHATHAM,912-272-9947,6/30/2026,
6203736,Food Establishment Licenses,WILDLIGHT HONEY,ALEC BRUNS,1000 EISENHOWER DR STE J,"SAVANNAH, GA     31406",CHATHAM,(678) 847-7349,6/30/2026,
2795472,Food Establishment Licenses,WALMART #4530,TIM SKINNER,10530 ABERCORN ST,"SAVANNAH, GA     31419",CHATHAM,(912) 712-7007,6/30/2026,
5512169,Food Establishment Licenses,NOURIA 3024 EAST VICTORY DRIVE,TONY EL-NEMR,3024 EAST VICTORY DR,"SAVANNAH, GA     31404",CHATHAM,(912) 298-0699,6/30/2026,
6029265,Food Establishment Licenses,MARATHON STATION,KUSUMBEN PATEL,3717 OGEECHEE RD,"SAVANNAH, GA     31405",CHATHAM,(912) 238-1280,6/30/2026,
4577423,Food Establishment Licenses,HIGHLAND SHELL,BIJAL PATEL,485 JIMMY DELOACH PKWY,"SAVANNAH, GA     31407",CHATHAM,912-335-2934,6/30/2026,
1475422,Food Establishment Licenses,ONE STOP SHOP,VINAY PATEL,2100 MONTGOMERY ST,"SAVANNAH, GA     31401",CHATHAM,(912) 234-2150,6/30/2026,
5874237,Food Establishment Licenses,DOLLAR TREE #8166,BOB SASSER,7360 SKIDAWAY RD #B,"SAVANNAH, GA     31406",CHATHAM,(912) 581-2861,6/30/2026,
5511802,Food Establishment Licenses,NICK'S FOOD MART,NAYANKUMAR PATEL,902 PENNSYLVANIA AVE,"SAVANNAH, GA     31404",CHATHAM,(912) 232-8239,6/30/2025,
3446136,Food Establishment Licenses,LE MACARON FRENCH PASTRIES,REGINALD THOMPSON,204 W BROUGHTON ST,"SAVANNAH, GA     31401",CHATHAM,(912) 712-5094,6/30/2026,
30258,Food Establishment Licenses,ASHIRVAD INC,MANISHA PATEL,825 TIBET AVE,"SAVANNAH, GA     31406",CHATHAM,(912) 925-5767,6/30/2024,
5451964,Food Establishment Licenses,OGEECHEE SHELL,KRUNAL DHIMMAR,3618 OGEECHEE RD,"SAVANNAH, GA     31405",CHATHAM,(912) 233-8307,6/30/2026,
98259,Food Establishment Licenses,FOOD LION #2682,SCOTT GENTRY,1040 KING GEORGE BLVD,"SAVANNAH, GA     31419",CHATHAM,(912) 920-2114,6/30/2026,
1369542,Food Establishment Licenses,WALGREENS #10635,,5701 OGEECHEE RD,"SAVANNAH, GA     31405",CHATHAM,(912) 232-8512,6/30/2026,
2530500,Food Establishment Licenses,THE MATE FACTOR,BRIAN FENSTER,401 E HALL ST,"SAVANNAH, GA     31401",CHATHAM,828-292-3529,6/30/2024,
81590,Food Establishment Licenses,"ROLLING FRITO LAY SALES, LP",,12 SOUTHERN OAKS DR,"SAVANNAH, GA     31405",CHATHAM,(863) 608-2476,6/30/2026,
4823977,Food Establishment Licenses,HALITO HERBS,TYLER PLANTE,1000 EISENHOWER DR STE J,"SAVANNAH, GA     31406",CHATHAM,(912) 339-5103,6/30/2023,
4460202,Food Establishment Licenses,"SEA ISLAND PRODUCE, INC",Richard Harris,101 TELFAIR RD,"SAVANNAH, GA     31415",CHATHAM,(912) 544-1130,6/30/2026,
3446052,Food Establishment Licenses,FAMILY DOLLAR #31865,HOWARD LEVINE,42 W MONTGOMERY CROSSROAD STE D,"SAVANNAH, GA     31406",CHATHAM,(912) 303-8605,6/30/2026,
3531343,Food Establishment Licenses,WATSON'S SEAFOOD,MISOOK YU,750 PENNSYLVANIA AVE,"SAVANNAH, GA     31404",CHATHAM,(912) 777-2009,6/30/2026,
4577444,Food Establishment Licenses,DIAMOND FOOD MART INC,MEHUL PATEL,3019 BULL ST,"SAVANNAH, GA     31405",CHATHAM,(912) 236-0778,6/30/2024,
1491583,Food Establishment Licenses,FAMILY DOLLAR STORE #8738,HOWARD LEVINE,3201 MONTGOMERY AVE,"SAVANNAH, GA     31405",MECKLENBURG,(912) 232-0694,6/30/2026,
2530476,Food Establishment Licenses,DISCOUNT CORNER II,VINITKUMAR PATEL,1521 E ANDERSON ST,"SAVANNAH, GA     31404",CHATHAM,(912) 233-1002,6/30/2026,
4460335,Food Establishment Licenses,HOTTIE COFFEE LLC,LORIE ELLIS,116 SUNSHINE AVE LOT 76,"SAVANNAH, GA     31405",CHATHAM,386-682-0693,6/30/2024,
3452424,Food Establishment Licenses,HIGHLAND PARK BP,RAJESH KUMAR PATEL,1900 BENTON BLVD STE 103,"SAVANNAH, GA     31407",CHATHAM,(912) 348-3639,6/30/2026,
1475402,Food Establishment Licenses,"DS SERVICES OF AMERICA, INC",TOM HARRINGTON,167 KNOWLTON WAY STE 111,"SAVANNAH, GA     31407",CHATHAM,(770) 933-1400,6/30/2026,
1335431,Food Establishment Licenses,CHEN JACKIES SEAFOOD MARKET,HUI LIN CHEN,1117 E MONTGOMERY CROSSROADS,"SAVANNAH, GA     31406",CHATHAM,(912) 927-2266,6/30/2026,
4495505,Food Establishment Licenses,PARKER'S #82,GREGORY PARKER,1930 MONTGOMERY CROSSROAD,"SAVANNAH, GA     31407",CHATHAM,(912) 663-0707,6/30/2026,
43262,Food Establishment Licenses,TROLLEY STOP GIFTS,GREG WHIPPLE,217 W SAINT JULIAN ST,"SAVANNAH, GA     31401",CHATHAM,(305) 293-6866,6/30/2023,
528057,Food Establishment Licenses,AFC SUSHI @PUBLIX #456,,155 JOHNNY MERCER BLVD,"SAVANNAH, GA     31410",CHATHAM,(912) 987-8100,6/30/2026,
4955623,Food Establishment Licenses,CRUMBL SANDFLY,MILO LEAKEHE,1932 E MONTGOMERY CROSS ROAD STE 100,"SAVANNAH, GA     31406",CHATHAM,(912) 581-2669,6/30/2026,
1756419,Food Establishment Licenses,DELESSEPS QUICK STOP,NIRALI PATEL,2022 DELESSEPS AVE,"SAVANNAH, GA     31404",CHATHAM,(912) 355-5421,6/30/2026,
70355,Food Establishment Licenses,CHU'S CONVENIENCE MART #119,RICHARD PRUDEN,2 W DERENNE AVE,"SAVANNAH, GA     31405",CHATHAM,(912) 354-7338,6/30/2026,
3239762,Food Establishment Licenses,CIRCLE K STORE #2701869,BRIAN HANNASCH,5520 HIGHWAY 21,"SAVANNAH, GA     31408",CHATHAM,(912) 964-0777,6/30/2026,
4987020,Food Establishment Licenses,GX (GAS EXPRESS) MARKET,NASHADH PATEL,8900 WHITE BLUFF RD,"SAVANNAH, GA     31406",CHATHAM,(731) 332-2315,6/30/2026,
32008,Food Establishment Licenses,CVS PHARMACY #4260,THOMAS MOFFATT,4725 WATERS AVE,"SAVANNAH, GA     31404",PROVIDENCE,(912) 355-7113,6/30/2026,
4370904,Food Establishment Licenses,DOLLAR TREE #08059,BOB SASSER,1920 EAST GWINNETT ST,"SAVANNAH, GA     31404",CHATHAM,(912) 712-7557,6/30/2026,
5874112,Food Establishment Licenses,THEODORA FOTOPOULOU LLC,THEODORA FOTOPOULOU,5002 PAULSEN ST UNIT 108,"SAVANNAH, GA     31406",CHATHAM,(912) 228-9182,6/30/2025,
4986742,Food Establishment Licenses,"MDMACARONS, INC",AMY/LAURA SHIPPY/HALE,5002 PAULSEN ST # 108,"SAVANNAH, GA     31405",CHATHAM,(912) 596-6339,6/30/2026,
31828,Food Establishment Licenses,CVS PHARMACY #7228,THOMAS MOFFATT,7360 SKIDAWAY RD,"SAVANNAH, GA     31406",CHATHAM,(912) 356-0453,6/30/2026,
2490440,Food Establishment Licenses,COASTAL EMPIRE BEER CO.,CHRIS/KEVIN HABORAK,79 ROSS RD,"SAVANNAH, GA     31405",CHATHAM,(912) 224-2277,6/30/2024,
3240358,Food Establishment Licenses,WHAT'S FOR DINNER,JENNIFER & DAVID WEIKERT,8509 FERGUSON AVE,"SAVANNAH, GA     31406",CHATHAM,(912) 323-2023,6/30/2026,
68361,Food Establishment Licenses,CIRCLE K STORE #2705160,TOM HARMAN,1006 KING GEORGE BLVD,"SAVANNAH, GA     31419",CHATHAM,(912) 961-0500,6/30/2026,
59147,Food Establishment Licenses,HANDYLAND GATEWAY EXXON,FRANKLIN TODD,8 S GATEWAY BLVD,"SAVANNAH, GA     31419",CHATHAM,(912) 921-0033,6/30/2026,
2472401,Food Establishment Licenses,READEE'S BEES,READ NICHOLS,806 WHIPPOORWILL RD,"SAVANNAH, GA     31410",CHATHAM,850-293-1126,6/30/2026,
2673405,Food Establishment Licenses,PARKWAY SHELL,RAJESH PATEL,4 PARK OF COMMERCE WAY,"SAVANNAH, GA     31405",CHATHAM,(912) 224-1964,6/30/2026,
51624,Food Establishment Licenses,RAY COFFEE SERVICE,CHARLES RAY,2645 CAUSTON BLUFF RD,"SAVANNAH, GA     31404",CHATHAM,(912) 236-2742,6/30/2026,
36439,Food Establishment Licenses,CVS PHARMACY #4230,THOMAS MOFFATT,150 JOHNNY MERCER BLVD,"SAVANNAH, GA     31410",PROVIDENCE,(912) 897-3220,6/30/2026,
4920095,Food Establishment Licenses,CREATION GARDENS/WHAT CHEFS WANT SAVANNAH,RON AND MOLLIE TURNIER,701 US HIGHWAY 80 BLDG 51 & 52,"SAVANNAH, GA     31408",CHATHAM,(850) 525-5060,6/30/2024,
5874024,Food Establishment Licenses,SUPREME PRODUCE @KROGER #418,DOROTHY NGUYEN,311 E. GWINNETT ST,"SAVANNAH, GA     31401",CHATHAM,(972) 402-9498,6/30/2026,
2796202,Food Establishment Licenses,WEST BAY HOP IN,PRATIVA KHADKA,2419 W BAY ST STE A,"SAVANNAH, GA     31415",CHATHAM,(912) 349-4160,6/30/2026,
34538,Food Establishment Licenses,CVS PHARMACY #4187,THOMAS MOFFATT,119 BULL ST,"SAVANNAH, GA     31401",PROVIDENCE,(912) 238-1494,6/30/2026,
4917407,Food Establishment Licenses,PATRICIA'S SWEETZ,PATRICIA JACKSON,103 WEST TAHOE DR,"SAVANNAH, GA     31405",CHATHAM,(912) 412-7306,6/30/2026,
4410237,Food Establishment Licenses,BURLINGTON #520,SHOBNA DAGA,7400 ABERCORN ST,"SAVANNAH, GA     31406",CHATHAM,(609) 387-7800,6/30/2026,
5204293,Food Establishment Licenses,EARTHFED,DANIEL SPINELLI,1102 BULL ST,"SAVANNAH, GA     31401",CHATHAM,(718) 702-5492,6/30/2026,
41262,Food Establishment Licenses,SAVANNAH CANDY KITCHEN,STAN STRICKLAND,225 E RIVER ST,"SAVANNAH, GA     31401",CHATHAM,(912) 233-8411,6/30/2026,
5873725,Food Establishment Licenses,SUPREME PRODUCE @KROGER #645,DOROTHY NGUYEN,5720 OGEEECHEE RD,"SAVANNAH, GA     31405",CHATHAM,(972) 402-9498,6/30/2026,
1975414,Food Establishment Licenses,SHOP & GO 2,BHAVINI PATEL,11204 WHITE BLUFF RD,"SAVANNAH, GA     31419",CHATHAM,(912) 920-3444,6/30/2025,
88412,Food Establishment Licenses,SHIV DISCOUNT CORNER #2,NIKHIL PATEL,2801 MONTGOMERY ST,"SAVANNAH, GA     31405",CHATHAM,(912) 443-9166,6/30/2026,
2794442,Food Establishment Licenses,DOLLAR GENERAL STORE #15520,TODD VASOS,3005 OGEECHEE RD,"SAVANNAH, GA     31405",CHATHAM,,6/30/2026,
98331,Food Establishment Licenses,MARY'S CRAB HOUSE,MARY WARREN,241 QUACCO RD,"SAVANNAH, GA     31419",CHATHAM,(912) 925-5948,12/31/2022,
2041488,Food Establishment Licenses,THE KROGER COMPANY STORE #697,DAVE DILLON,318 MALL BLVD,"SAVANNAH, GA     31406",CHATHAM,(912) 200-9158,6/30/2026,
43608,Food Establishment Licenses,CHU'S CONVENIENCE MART #106,RICHARD PRUDEN,2606 US HIGHWAY 80,"SAVANNAH, GA     31408",CHATHAM,(912) 964-4055,6/30/2026,
5204284,Food Establishment Licenses,PARKER'S KITCHEN #100,GREGORY PARKER,1750 GROVE POINT RD,"SAVANNAH, GA     31419",CHATHAM,(912) 721-7581,6/30/2026,
5106337,Food Establishment Licenses,SAVANNAH BEE COMPANY LLC,THOMAS DENNARD III,313 STILES AVE,"SAVANNAH, GA     31415",CHATHAM,(912) 503-2966,6/30/2026,
5510462,Food Establishment Licenses,"HEIDI'S HOMEMADE, LLC",HEIDI BRISTOL,5002 PAULSEN ST. #109,"SAVANNAH, GA     31405",CHATHAM,(912) 856-0898,6/30/2026,
4576403,Food Establishment Licenses,MIKE'S TIME SAVER,BOBBY SINGH,3713 MONTGOMERY ST,"SAVANNAH, GA     31405",CHATHAM,(912) 232-2618,6/30/2026,
4416403,Food Establishment Licenses,BRIGHTER DAY,KRISTIN RUSSELL,1102 BULL ST,"SAVANNAH, GA     31401",CHATHAM,912-236-4703,6/30/2026,
4876986,Food Establishment Licenses,JUSTIN'S B & S,MARY HORTON,324 W BOLTON ST,"SAVANNAH, GA     31401",CHATHAM,(843) 592-2267,6/30/2026,
30256,Food Establishment Licenses,SAVANNAH COCA COLA BOTTLING CO,CLAUDE NIELSEN,102 COLEMAN BLVD,"SAVANNAH, GA     31408",CHATHAM,(912) 748-0033,6/30/2026,
1972494,Food Establishment Licenses,CVS PHARMACY #5520,THOMAS MOFFATT,5401 ABERCORN ST,"SAVANNAH, GA     31405",PROVIDENCE,(912) 356-3170,6/30/2026,
32784,Food Establishment Licenses,VILLAGE STATION,DOUGLAS GOLDSTEIN,10 MEETING ST,"SAVANNAH, GA     31411",CHATHAM,(912) 598-0874,6/30/2026,
4920345,Food Establishment Licenses,AVOM FOOD MART,PARTH PATEL,1402 STILES AVE,"SAVANNAH, GA     31415",CHATHAM,(912) 228-4715,6/30/2026,
528075,Food Establishment Licenses,AFC SUSHI @KROGER #645A,,5720 OGEECHEE RD,"SAVANNAH, GA     31405",CHATHAM,,6/30/2026,
4920257,Food Establishment Licenses,LOVINGLY BAKED GOODS,KATRINA ROBINSON,238 EISENHOWER DR,"SAVANNAH, GA     31406",CHATHAM,(912) 604-2537,6/30/2026,
2994429,Food Establishment Licenses,HARGOBIND CORP,BOBBY SINGH,502 W BAY ST,"SAVANNAH, GA     31401",CHATHAM,(912) 234-0588,6/30/2026,
4459654,Food Establishment Licenses,BMD CONVENIENCE STORE,SUDHRIKUMAR PATEL,3830 OGEECHEE RD,"SAVANNAH, GA     31405",CHATHAM,912-224-5561,6/30/2026,
1972650,Food Establishment Licenses,DOWNTOWN CHEVRON,SATISHBHAI PATEL,147 MLK JR BLVD,"SAVANNAH, GA     31401",CHATHAM,(912) 232-2400,6/30/2026,
2530428,Food Establishment Licenses,MAISON de MACARONS,LAURA HALE,42 ABERCORN ST,"SAVANNAH, GA     31401",CHATHAM,912-303-0969,6/30/2023,
1475436,Food Establishment Licenses,QUICK STOP #109,MAYUR PATEL,4407 HABERSHAM ST,"SAVANNAH, GA     31405",CHATHAM,(912) 353-7712,6/30/2026,
4577428,Food Establishment Licenses,SALT TABLE,DAVID LEGASSE,190 W BRYAN ST,"SAVANNAH, GA     31401",CHATHAM,912-988-1154,6/30/2026,
4496127,Food Establishment Licenses,ACE CONVENIENCE STORE,TYRA FRAYALL,11410 ABERCORN ST,"SAVANNAH, GA     31419",CHATHAM,912-217-7102,6/30/2023,
5105955,Food Establishment Licenses,STAR BEANS COFFEE ROASTERS,ESTHER MALDONADO,4307 OGEECHEE RD STE 203,"SAVANNAH, GA     31405",CHATHAM,(912) 429-5557,6/30/2026,
5512215,Food Establishment Licenses,PORTCITY LOGISTICS,ERIC HOWELL,2450 DEAN FOREST RD,"SAVANNAH, GA     31408",CHATHAM,(912) 298-7150,6/30/2026,
4876848,Food Establishment Licenses,QUACCO FOOD MART,ANKIT AMIN,10 QUACCO RD UNIT D,"SAVANNAH, GA     31419",CHATHAM,(407) 314-6848,6/30/2026,
4577439,Food Establishment Licenses,UNFORGETTABLE BAKERY,BELINDA BAPTISTE,238 EISENHOWER DR,"SAVANNAH, GA     31406",CHATHAM,(912) 355-6160,6/30/2026,
5874018,Food Establishment Licenses,YUMMI SUSHI @KROGER #697,,318 MALL BLVD STE 100,"SAVANNAH, GA     31406",CHATHAM,(972) 402-9498,6/30/2026,
4956329,Food Establishment Licenses,RIVER STREET SWEETS,PAM STRICKLAND,32 E BROUGHTON ST,"SAVANNAH, GA     31401",CHATHAM,(912) 349-3884,6/30/2026,
4323013,Food Establishment Licenses,DOLLAR GENERAL STORE #20159,TODD VASOS,6719 WATERS AVE,"SAVANNAH, GA     31406",CHATHAM,(912) 354-2592,6/30/2026,
1321415,Food Establishment Licenses,MS. POLLY'S CAKE GIANTS,WANDA BECKETT,2325 OGEECHEE RD,"SAVANNAH, GA     31415",CHATHAM,(912) 660-6973,6/30/2026,
4094490,Food Establishment Licenses,AL MADINNEH HALAL MEAT & GROCERY MART,ROMAL SAHAK,7064 HODGSON MEMORIAL DR,"SAVANNAH, GA     31406",CHATHAM,912-999-8888,6/30/2026,
4496307,Food Establishment Licenses,OM FOOD MART,ZINALBEN PATEL,8408 WHITE BLUFF RD,"SAVANNAH, GA     31406",CHATHAM,386-801-7526,6/30/2026,
5511593,Food Establishment Licenses,PAPA MURPHY'S PIZZA GA005,ALBERT HANK & ADAM LEHR,201 JOHNNY MERCER BLVD,"SAVANNAH, GA     31410",CHATHAM,(360) 449-4015,6/30/2026,
1491613,Food Establishment Licenses,FAMILY DOLLAR STORE #9019,HOWARD LEVINE,610 MARTIN LUTHER KING BLVD,"SAVANNAH, GA     31401",CHATHAM,(912) 944-4374,6/30/2026,
2042356,Food Establishment Licenses,AFC SUSHI @ PUBLIX #1489,JEFFERY SEILER,6 WESTRIDGE RD,"SAVANNAH, GA     31411",CHATHAM,,6/30/2026,
4347404,Food Establishment Licenses,VICTORY STATION,VANDANA PATEL,1102 E VICTORY DR,"SAVANNAH, GA     31419",CHATHAM,(912) 236-7242,6/30/2026,
55564,Food Establishment Licenses,CVS PHARMACY #5351,THOMAS MOFFATT,301 W MONTGOMERY CROSSROADS,"SAVANNAH, GA     31406",CHATHAM,(912) 920-2911,6/30/2026,
4896752,Food Establishment Licenses,MARINE CONTAINER SOUTH LLC,JOSEPH NOONAN,137 PROSPERITY D DR STE 300,"SAVANNAH, GA     31408",CHATHAM,(732) 977-4674,6/30/2024,
528052,Food Establishment Licenses,AFC SUSHI @PUBLIX #522,JEFFERY SEILER,5500 ABERCORN ST,"SAVANNAH, GA     31405",LOS ANGELES,(912) 353-1260,6/30/2026,
78757,Food Establishment Licenses,WARREN'S SEAFOOD,AUDREY WARREN,560 FORT ARGYLE RD,"SAVANNAH, GA     31419",CHATHAM,(912) 921-0455,6/30/2026,
3112446,Food Establishment Licenses,SALT TABLE,CAROL SELLERS,400 AIRWAYS AVE,"SAVANNAH, GA     31408",CHATHAM,(912) 988-1059,6/30/2026,
3260404,Food Establishment Licenses,BKUSHI LLC,ILESH PATEL,2102 BONA BELLA AVE,"SAVANNAH, GA     31406",CHATHAM,(912) 356-5723,6/30/2024,
4986709,Food Establishment Licenses,LUCKY'S,SARVESH SHARMA & PARVIN PATEL,10004 ABERCORN ST,"SAVANNAH, GA     31406",CHATHAM,(912) 920-3000,6/30/2026,
5511080,Food Establishment Licenses,JUNCIA CARIBBEAN MARKET,KENCIA GEDEON,1711 E VICTORY DR,"SAVANNAH, GA     31404",CHATHAM,(407) 433-3893,6/30/2026,
2530475,Food Establishment Licenses,BLUE RIDGE JERKY,GREGORY KLUKKERT,502 E RIVER ST,"SAVANNAH, GA     31401",CHATHAM,8647234900,6/30/2024,
5511602,Food Establishment Licenses,PAPA MURPHY'S PIZZA GA009,ALBERT HANK & ADAM LEHR,830 E DERENNE AVE,"SAVANNAH, GA     31405",CHATHAM,(360) 449-4015,6/30/2026,
1321426,Food Establishment Licenses,"MAJ ICE COMPANY, LLC",MARY ANN GOODGAME,200 JOHNNY MERCER RD,"SAVANNAH, GA     31410",CHATHAM,(912) 897-1700,6/30/2026,
3531192,Food Establishment Licenses,PUMP N GO,SUHILKUMAR PATEL,801 HARMON ST,"SAVANNAH, GA     31401",CHATHAM,(912) 777-4405,6/30/2026,
28043,Food Establishment Licenses,SHOP N GO,KRISHNAL PATEL,728 W OGLETHORPE AVE,"SAVANNAH, GA     31401",CHATHAM,(912) 220-2005,6/30/2026,
4108404,Food Establishment Licenses,JIM'S QUICK STOP,MITABEN PATEL,922 PENNSYLVANIA AVE,"SAVANNAH, GA     31404",CHATHAM,(912) 349-0733,6/30/2025,
5874217,Food Establishment Licenses,NOURIA 9801 FERGUSON AVE.,TONY EL-NEMR,9801 FERGUSON AVE,"SAVANNAH, GA     31406",CHATHAM,(912) 774-0001,6/30/2026,
5204398,Food Establishment Licenses,ENSON MARKET,CHANGJIANG LIU,5501 ABERCORN ST.,"SAVANNAH, GA     31405",CHATHAM,(337) 888-5555,6/30/2026,
27201,Food Establishment Licenses,CHUS CONVENIENCE MART #103,RICHARD PRUDEN,7726 JOHNNY MERCER BLVD,"SAVANNAH, GA     31410",CHATHAM,(912) 897-7795,6/30/2026,
2796350,Food Establishment Licenses,DOLLAR GENERAL STORE #17036,TODD VASOS,418 JOHNNY MERCER BLVD,"SAVANNAH, GA     31410",CHATHAM,(912) 250-4301,6/30/2026,
1321403,Food Establishment Licenses,FAMILY DOLLAR STORE #315,HOWARD LEVINE,702 WHEATON ST,"SAVANNAH, GA     31401",CHATHAM,(912) 645-9570,6/30/2026,
37638,Food Establishment Licenses,FUJI VEGETABLE OIL INC,,120 BRAMPTON RD,"SAVANNAH, GA     31408",CHATHAM,(912) 966-5900 ext. 5200,6/30/2026,
5874023,Food Establishment Licenses,SUPREME PRODUCE @KROGER #609,DOROTHY NGUYEN,495 JOHNNY MERCER BLVD,"SAVANNAH, GA     31410",CHATHAM,(972) 402-9498,6/30/2026,
79841,Food Establishment Licenses,WALGREENS #5368,G. WASSON,11505 ABERCORN ST,"SAVANNAH, GA     31419",CHATHAM,(912) 927-6667,6/30/2026,
5311086,Food Establishment Licenses,GATEWAY SUNOCO,ANJALI PATEL,3 GATEWAY BLVD W,"SAVANNAH, GA     31419",CHATHAM,(912) 961-6257,6/30/2026,
31954,Food Establishment Licenses,FAMILY DOLLAR STORE #356,HOWARD LEVINE,3308 OGEECHEE RD,"SAVANNAH, GA     31405",CHATHAM,(912) 508-0340,6/30/2026,
32704,Food Establishment Licenses,CIRCLE K STORES INC. #2701862,BRIAN HANNASCH,2 QUACCO RD,"SAVANNAH, GA     31419",CHATHAM,(912) 925-3134,6/30/2026,
60145,Food Establishment Licenses,BYRD COOKIE COMPANY,STEPHANIE LINDLEY,6700 WATERS AVE,"SAVANNAH, GA     31406",CHATHAM,(912) 355-1716,6/30/2026,
4095315,Food Establishment Licenses,GUS MART 4,JAMES MORGAN,11935 ABERCORN ST,"SAVANNAH, GA     31419",CHATHAM,912-536-6283,6/30/2023,
56422,Food Establishment Licenses,DOLLAR TREE STORE #372,BOB SASSER,7805 ABERCORN ST STE C8,"SAVANNAH, GA     31406",CHATHAM,(912) 231-5415,6/30/2026,
81831,Food Establishment Licenses,TJ MAXX #365,,7400 ABERCORN ST STE 601,"SAVANNAH, GA     31406",CHATHAM,(912) 352-4550,6/30/2026,
60097,Food Establishment Licenses,WALMART #606,TIM SKINNER,4725 E HIGHWAY 80,"SAVANNAH, GA     31410",CHATHAM,(912) 898-1391,6/30/2026,
4920079,Food Establishment Licenses,PROVISIONS,NICOLE KRECICKI,101 W LIBERTY ST,"SAVANNAH, GA     31401",CHATHAM,(704) 307-3238,6/30/2026,
2530420,Food Establishment Licenses,PERC COFFEE ROASTERS,PHILIP BROWN,1802 E BROAD ST,"SAVANNAH, GA     31401",CHATHAM,,6/30/2026,
4767363,Food Establishment Licenses,COOL SPRINGS CATTLE COMPANY,CHRIS ZIPPERER,211 LEE BLVD,"SAVANNAH, GA     31405",CHATHAM,(912) 660-6011,5/28/2026,
4256814,Food Establishment Licenses,PORT MART,YOMIKABEN PATEL,101 NORTH COASTAL HWY,"SAVANNAH, GA     31407",CHATHAM,(912) 335-7319,6/30/2026,
4459800,Food Establishment Licenses,BYRD COOKIE COMPANY,STEPHANIE LINDLEY,300 W RIVER ST STE 6,"SAVANNAH, GA     31401",CHATHAM,(912) 355-1716,6/30/2026,
30468,Food Establishment Licenses,PO JOS STOP N GO,JOSEY SHEPPARD,1302 W GWINNETT ST,"SAVANNAH, GA     31415",CHATHAM,(912) 238-1932,6/30/2024,
83376,Food Establishment Licenses,SHOP N GO #2,KRISHNAL PATEL,1402 E BROAD ST,"SAVANNAH, GA     31401",CHATHAM,(912) 236-8947,6/30/2026,
5105616,Food Establishment Licenses,SPACIOUS SKIES CAMPGROUNDS-SAVANNAH OAKS,ERIC & ALI RASMUSSAN,805 FORT ARGYLE RD,"SAVANNAH, GA     31419",CHATHAM,(912) 748-4000,6/30/2026,
4576416,Food Establishment Licenses,ASHER & RYE,ERIKA SNAYD,348 WHITAKER ST,"SAVANNAH, GA     31401",CHATHAM,912-236-3022,6/30/2026,
3530711,Food Establishment Licenses,CAPITAL BEE COMPANY,THOMAS HINELY,421 E BROUGHTON ST,"SAVANNAH, GA     31401",CHATHAM,(912) 335-7263,6/30/2025,
4370805,Food Establishment Licenses,STOGGIES,MEGHA PATEL,329 E MONTGOMERY CROSSROAD,"SAVANNAH, GA     31407",CHATHAM,(912) 925-2407,6/30/2022,
1492113,Food Establishment Licenses,"AIRWAYS AMOCO, INC.",MITTAL PATEL,291 CROSSROADS PKWY,"SAVANNAH, GA     31408",CHATHAM,912-964-2244,6/30/2026,
79452,Food Establishment Licenses,SAVANNAH SWEETS INC,KEVIN MEYERS,97 OGLETHORPE MALL,"SAVANNAH, GA     31406",CHATHAM,(912) 355-3539,6/30/2023,
5608771,Food Establishment Licenses,"SHIVATVA, LLC",KAMINI PATEL,2109 W. BAY ST. UNIT A,"SAVANNAH, GA     31415",CHATHAM,(757) 561-5609,6/30/2026,
5106020,Food Establishment Licenses,FARGO CONVENIENCE STORE,PRAVINABEN PATEL,3500 OGEECHEE RD,"SAVANNAH, GA     31405",CHATHAM,(912) 532-9791,6/30/2026,
99736,Food Establishment Licenses,CVS PHARMACY #6369,THOMAS MOFFATT,5690 OGEECHEE RD,"SAVANNAH, GA     31405",CHATHAM,(912) 234-5575,6/30/2026,
92108,Food Establishment Licenses,"LINDA'S SEAFOOD, INC.",XIAO YAN LIN,1241 WHEATON ST,"SAVANNAH, GA     31401",CHATHAM,(912) 233-1202,6/30/2026,
1970443,Food Establishment Licenses,"HANUMANTA FOOD MART, INC",YOMIKA PATEL,1516 MONTGOMERY ST,"SAVANNAH, GA     31401",CHATHAM,(912) 349-2070,6/30/2026,
4955418,Food Establishment Licenses,SMART SHOP,ANKIT AMIN,1114 ABERCORN ST,"SAVANNAH, GA     31401",CHATHAM,(912) 712-3378,6/30/2026,
5311193,Food Establishment Licenses,POPSHELF STORE #25535,TODD VASOS,8108 ABERCORN ST,"SAVANNAH, GA     31406",CHATHAM,(912) 680-3601,6/30/2026,
4094568,Food Establishment Licenses,TWO TIDES BREWING COMPANY,JAMES MASSEY,12 W 41ST ST,"SAVANNAH, GA     31401",CHATHAM,(912) 665-0374,6/30/2024,
6028894,Food Establishment Licenses,YUMMI SUSHI @KROGER #979,,1900 E. VICTORY DR. STE 12,"SAVANNAH, GA     31404",CHATHAM,(972) 402-9498,6/30/2026,
4789283,Food Establishment Licenses,FRANK'S CORNER,DHARMESH KUMAR PATEL,3701 BULL ST,"SAVANNAH, GA     31405",CHATHAM,(912) 232-5001,6/30/2026,
4371114,Food Establishment Licenses,ABERCORN BP,PRAVIN PATEL,7204 ABERCORN ST,"SAVANNAH, GA     31406",CHATHAM,912-352-9888,6/30/2026,
5511696,Food Establishment Licenses,NOURIA 210 JOHNNY MERCER BOULEVARD,TONY EL-NEMR,210 JOHNNY MERCER BOULEVARD,"SAVANNAH, GA     31410",CHATHAM,(912) 897-4196,6/30/2026,
4257065,Food Establishment Licenses,DISCOUNT CORNER 5,DAMINI PATEL,1170 E DERENNE AVE,"SAVANNAH, GA     31406",CHATHAM,(912) 200-3456,6/30/2024,
5510456,Food Establishment Licenses,ALDI INC (GA) #84,SHAUN O'KEEFE,1651 E. VICTORY DR.,"SAVANNAH, GA     31404",CHATHAM,(706) 708-0369,6/30/2026,
4876626,Food Establishment Licenses,TOP STOP 1,PARTH PATEL,5548 OGEECHEE RD STE A,"SAVANNAH, GA     31405",CHATHAM,(912) 238-3200,6/30/2024,
83265,Food Establishment Licenses,BO BO'S SEAFOOD,CHUN ZHENG,2800 MONTGOMERY ST,"SAVANNAH, GA     31405",CHATHAM,(912) 232-5757,6/30/2026,
4496053,Food Establishment Licenses,HAN SUSHI,HAN SHEIN,4607 HABERSHAM ST,"SAVANNAH, GA     31405",CHATHAM,912-547-0159,6/30/2026,
4576405,Food Establishment Licenses,SAVANNAH MART,CHIRUG PATEL,2810 SKIDAWAY RD,"SAVANNAH, GA     31404",CHATHAM,912-481-2684,6/30/2026,
4347415,Food Establishment Licenses,BEEF JERKY EXPERIENCE,JOHN/IRENE JAMESON,305 W ST. JULIAN ST,"SAVANNAH, GA     31401",CHATHAM,850-322-5636,6/30/2024,
4371108,Food Establishment Licenses,PUMP N GO,KRUSHIL PATEL,201 E MONTGOMERY CROSSROAD STE A,"SAVANNAH, GA     31419",CHATHAM,912-335-7482,6/30/2026,
83168,Food Establishment Licenses,THE MIDTOWN DELI,SERGEY & LANA BOYARIN,7805 ABERCORN ST,"SAVANNAH, GA     31406",CHATHAM,(912) 355-8717,6/30/2025,
5511694,Food Establishment Licenses,NOURIA 3219 SKIDAWAY ROAD,TONY EL-NEMR,3219 SKIDAWAY ROAD,"SAVANNAH, GA     31404",CHATHAM,(912) 354-9208,6/30/2026,
51620,Food Establishment Licenses,SANDFLY AMOCO,JIM SHEFFIELD,7362 SKIDAWAY RD,"SAVANNAH, GA     31406",CHATHAM,(912) 713-2228,6/30/2026,
4495949,Food Establishment Licenses,MOBIL 17,DAVESH PATEL,5796 OGEECHEE RD UNIT 101,"SAVANNAH, GA     31405",CHATHAM,(912) 298-6621,6/30/2023,
5203691,Food Establishment Licenses,"MORE THAN CAKES, LLC",MARQUITA IRVING,7060 HODGSON MEMORIAL DR,"SAVANNAH, GA     31406",CHATHAM,(912) 303-4246,6/30/2026,
27685,Food Establishment Licenses,THE KROGER COMPANY STORE #979,DAVE DILLON,1900 E VICTORY DR,"SAVANNAH, GA     31404",DEKALB,(770) 496-7524,6/30/2026,
26739,Food Establishment Licenses,CIRCLE K STORE INC. #2705159,BRIAN HANNASCH,435 JOHNNY MERCER BLVD,"SAVANNAH, GA     31410",CHATHAM,(912) 897-5430,6/30/2026,
4577424,Food Establishment Licenses,PAL'S MINI MART,VEERAL PATEL,2101 LOUIS MILLS BLVD,"SAVANNAH, GA     31405",CHATHAM,(912) 231-0078,6/30/2026,
5873729,Food Establishment Licenses,SUPREME PRODUCE @KROGER #979,DOROTHY NGUYEN,1900 E. VICTORY DR. STE 12,"SAVANNAH, GA     31404",CHATHAM,(972) 402-9498,6/30/2026,
31829,Food Establishment Licenses,VAISHNO INC,KIRIT PATEL,1223 E MONTGOMERY XRD,"SAVANNAH, GA     31406",CHATHAM,(912) 927-3504,6/30/2026,
1369492,Food Establishment Licenses,AFC SUSHI @PUBLIX #1186,JEFFERY SEILER,11701 ABERCORN ST,"SAVANNAH, GA     31419",CHATHAM,(912) 915-4112,6/30/2026,
54488,Food Establishment Licenses,FOOD LION #1181,SCOTT GENTRY,8914 WHITE BLUFF RD,"SAVANNAH, GA     31406",CHATHAM,(912) 925-0755,6/30/2026,
4409434,Food Establishment Licenses,AUSPICIOUS BAKING CO.,MARK EKSTROM,7360 SKIDAWAY RD UNIT J-1,"SAVANNAH, GA     31406",CHATHAM,912-235-2284,6/30/2026,
2994407,Food Establishment Licenses,COFFEE BLUFF MARINA,MARVIN METZGER,14915 COFFEE BLUFF RD,"SAVANNAH, GA     31419",CHATHAM,(912) 231-3628,6/30/2026,
30656,Food Establishment Licenses,THE KROGER COMPANY STORE #609,DAVE DILLON,495 JOHNNY MERCER BLVD,"SAVANNAH, GA     31410",DEKALB,(770) 496-7524,6/30/2026,
1475410,Food Establishment Licenses,THE CINNAMON BEAR COUNTRY STORE,MICHAEL SNAID,205 E RIVER ST,"SAVANNAH, GA     31401",CHATHAM,(912) 233-0871,6/30/2026,
30570,Food Establishment Licenses,DERST BAKING COMPANY LLC,LINDA JONES,1311 MILLS B LN,"SAVANNAH, GA     31405",CHATHAM,(912) 233-2235,6/30/2026,
36572,Food Establishment Licenses,DUBBERLY'S SEAFOOD,FRANK DUBBERLY,214 VERNONBURG RD,"SAVANNAH, GA     31419",CHATHAM,(912) 925-6433,6/30/2024,
5512172,Food Establishment Licenses,NOURIA 405 MLK JR BOULEVARD,TONY EL-NEMR,405 MLK JR. BLVD,"SAVANNAH, GA     31401",CHATHAM,(912) 236-3103,6/30/2026,
4577453,Food Establishment Licenses,HOPP N SHOPP,ZAHEER LAKADAWALA,4503 MONTGOMERY ST,"SAVANNAH, GA     31405",CHATHAM,(912) 744-4073,6/30/2024,
4162985,Food Establishment Licenses,WATERS CHEVRON,AMIT PATEL,5009 WATERS AVE,"SAVANNAH, GA     31404",CHATHAM,(912) 335-2881,6/30/2026,
91305,Food Establishment Licenses,WALGREENS #2171,G. WASSON,700 E DERENNE AVE,"SAVANNAH, GA     31405",CHATHAM,(912) 354-4853,6/30/2026,
1970404,Food Establishment Licenses,SHIV'S CONVENIENCE #1,DIPIXA PATEL,1899 SKIDAWAY RD,"SAVANNAH, GA     31404",CHATHAM,(912) 401-0610,6/30/2023,
3239968,Food Establishment Licenses,MDMACARONS INC,AMY/LAURA SHIPPY/HALE,5002 PAULSEN ST STE 108,"SAVANNAH, GA     31405",CHATHAM,(912) 596-6339,6/30/2026,
29286,Food Establishment Licenses,S & M FOOD MART,KAILESH PATEL,11711 LARGO DR,"SAVANNAH, GA     31419",CHATHAM,(912) 927-4517,6/30/2023,
1970424,Food Establishment Licenses,SAVANNAH RUM RUNNERS BAKERY,MEGGAN HARTLEY,324 W BOLTON ST,"SAVANNAH, GA     31401",CHATHAM,(912) 355-4177,6/30/2026,
5174761,Food Establishment Licenses,ADITI9 CORPORATION,AMISH PATEL,2200 HABERSHAM ST,"SAVANNAH, GA     31401",CHATHAM,(912) 232-1106,6/30/2026,
4919914,Food Establishment Licenses,BOB'S CONVENIENCE STORE,MITUL PATEL,3707 OGEECHEE RD,"SAVANNAH, GA     31405",CHATHAM,(912) 999-6685,6/30/2026,
4256475,Food Establishment Licenses,WALGREENS #19629,,4600 HABERSHAM ST,"SAVANNAH, GA     31405",CHATHAM,912-354-5083,6/30/2026,
4919488,Food Establishment Licenses,THE SAVANNAH CHEESE STRAW COMPANY,KATHRYN BURGESS,906 EAST 72ND STREET,"SAVANNAH, GA     31405",CHATHAM,(912) 495-5444,6/30/2026,
4987051,Food Establishment Licenses,PARTY OF HIVE,MARGARET LILLY,5002 PAULSEN ST # 108,"SAVANNAH, GA     31405",CHATHAM,(912) 856-0828,6/30/2026,
2472409,Food Establishment Licenses,SERVICE BREWING COMPANY,KEVIN RYAN,574 INDIAN ST,"SAVANNAH, GA     31402",CHATHAM,,6/30/2026,
3452421,Food Establishment Licenses,CORNER STOP,PREKSHA PATEL,2314 SKIDAWAY RD,"SAVANNAH, GA     31404",CHATHAM,(912) 349-4620,6/30/2025,
98572,Food Establishment Licenses,PARKER'S #29,GREGORY PARKER,10525 ABERCORN ST,"SAVANNAH, GA     31419",CHATHAM,(912) 921-1899,6/30/2026,
91023,Food Establishment Licenses,WALMART SUPERCENTER #605,TIM SKINNER,1955 E MONTGOMERY CROSSROADS,"SAVANNAH, GA     31406",CHATHAM,(912) 354-0335,6/30/2026,
4920121,Food Establishment Licenses,GIGI'S CUPCAKES,XIAORU SHI,225 W BROUGHTON ST,"SAVANNAH, GA     31401",CHATHAM,(912) 495-8886,6/30/2026,
57860,Food Establishment Licenses,CHUS BAY INC,SHAO CHU,1336 W BAY ST,"SAVANNAH, GA     31415",CHATHAM,(912) 234-1190,6/30/2026,
4987252,Food Establishment Licenses,HABERSHAM MARKET,ZINALBEN PATEL,1220 HABERSHAM ST,"SAVANNAH, GA     31401",CHATHAM,(912) 344-4260,6/30/2026,
26984,Food Establishment Licenses,BAKERS PRIDE INC,Al Lang,840 E DE RENNE AVE,"SAVANNAH, GA     31405",CHATHAM,(912) 355-1155,6/30/2025,
5204278,Food Establishment Licenses,PARKER'S KITCHEN #123,GREGORY PARKER,2500 FORT ARGYLE,"SAVANNAH, GA     31419",CHATHAM,(912) 446-4970,6/30/2026,
4920255,Food Establishment Licenses,UNFORGETTABLE BAKERY,BELINDA BAPTISTE,238 EISENHOWER DR,"SAVANNAH, GA     31406",CHATHAM,(912) 355-6160,6/30/2026,
1409306,Food Establishment Licenses,DOLLAR GENERAL STORE #4485,TODD VASOS,1180 KING GEORGE BLVD,"SAVANNAH, GA     31419",CHATHAM,(912) 244-4104,6/30/2026,
2041428,Food Establishment Licenses,WALGREENS #15611,,2109 E VICTORY DR,"SAVANNAH, GA     31404",LAKE,(912) 354-2603,6/30/2026,
2994423,Food Establishment Licenses,FARM TRUCK 912,TERI SCHELL,3124 E VICTORY DR,"SAVANNAH, GA     31404",CHATHAM,(912) 484-0279,10/8/2025,
93972,Food Establishment Licenses,ROSS DRESS FOR LESS #813,TODD SCHAFFLER,7805 ABERCORN ST STE 14B,"SAVANNAH, GA     31406",CHATHAM,(912) 352-1419,6/30/2026,
4896977,Food Establishment Licenses,GARDEN CITY CHEVRON,DIXAL PATEL,1210 US HWY 80,"SAVANNAH, GA     31408",CHATHAM,(912) 966-1288,6/30/2026,
5512096,Food Establishment Licenses,AUSPICIOUS BAKING CO. BREAD & BUTTER,MARK EKSTROM,104 BRYAN WOODS RD,"SAVANNAH, GA     31410",CHATHAM,(912) 247-2078,6/30/2026,
91182,Food Establishment Licenses,UNITED DISTRIBUTORS INC,DOUG HERTZ,770 KING GEORGE BLVD,"SAVANNAH, GA     31419",CHATHAM,(912) 305-2000,6/30/2026,
5874222,Food Establishment Licenses,HANMI ORIENTAL MARKET,MYUNGSEOK YOON,2 E DERENNE AVE,"SAVANNAH, GA     31405",CHATHAM,(912) 355-6411,6/30/2026,
4920156,Food Establishment Licenses,CHU'S III,DIPESH PATEL,1015 WATERS AVE,"SAVANNAH, GA     31404",CHATHAM,(912) 234-1973,6/30/2025,
1756425,Food Establishment Licenses,KRISHNA GROCERY,YOGINI PATEL,11 GATEWAY BLVD STE 27,"SAVANNAH, GA     31419",CHATHAM,(912) 925-1160,6/30/2026,
5510671,Food Establishment Licenses,"MAJ ICE COMPANY, LLC",MARY ANN GOODGAME,5630 OGEECHEE RD,"SAVANNAH, GA     31405",CHATHAM,(912) 507-9198,6/30/2026,
6028886,Food Establishment Licenses,YUMMI SUSHI @KROGER #609,,495 JOHNNY MERCER BLVD,"SAVANNAH, GA     31410",CHATHAM,(972) 402-9498,6/30/2026,
4897204,Food Establishment Licenses,EAST COAST WAREHOUSE AND DISTRIBUTION CORPORATION OF GA,JAMES OVERLEY & DANIEL HORGAN,521 MORGAN LAKES INDUSTRIAL BLVD,"SAVANNAH, GA     31407",CHATHAM,(912) 348-4016,6/30/2026,
1408651,Food Establishment Licenses,DOLLAR GENERAL STORE #12117,TODD VASOS,4628 OGEECHEE RD,"SAVANNAH, GA     31405",CHATHAM,(912) 201-0464,6/30/2026,
77030,Food Establishment Licenses,OGEECHEE CHEVRON,Rajesh Patel,3912 OGEECHEE RD,"SAVANNAH, GA     31405",CHATHAM,(912) 447-0730,6/30/2026,
99634,Food Establishment Licenses,THE HOME DEPOT #170,FRANK BLAKE,1901 E VICTORY DR,"SAVANNAH, GA     31404",CHATHAM,(912) 352-3562,6/30/2026,
4409855,Food Establishment Licenses,WALGREENS #21192,,300 W BROUGHTON ST,"SAVANNAH, GA     31401",CHATHAM,847-527-2334,6/30/2026,
4577455,Food Establishment Licenses,MILK MAID MADE,NATASHA CONYERS,915 MONTGOMERY ST UNIT A,"SAVANNAH, GA     31401",CHATHAM,(240) 687-8669,6/30/2023,
1369439,Food Establishment Licenses,CUP TO CUP COFFEE ROASTERS,JAMES SPANO,140 JOHNNY MERCER BLVD STE 14,"SAVANNAH, GA     31410",CHATHAM,(912) 856-5866,6/30/2026,
2795453,Food Establishment Licenses,LA TAPATIA,PILAR GUTIEREZ DE ALVARADO,5548 OGEECHEE RD STE I,"SAVANNAH, GA     31405",CHATHAM,(912) 358-0046,6/30/2026,
1335441,Food Establishment Licenses,JONES RED AND WHITE 2,MICHAEL JONES,3310 OGEECHEE RD,"SAVANNAH, GA     31405",CHATHAM,(912) 656-1234,6/30/2026,
4410292,Food Establishment Licenses,APPLIED INDUSTRIAL TECHNOLOGIES - DIXIE INC,NEIL SCHRIMSHER,1050 W LATHROP AVE,"SAVANNAH, GA     31415",CHATHAM,(912) 234-1371,6/30/2026,
4897400,Food Establishment Licenses,FIVE STAR FOOD SERVICE INC,SEAN ROGERS,10 BRASSELER BLVD,"SAVANNAH, GA     31419",CHATHAM,(912) 233-5200,6/30/2026,
2994444,Food Establishment Licenses,WHITAKER MARKET,VRAJESH PATEL,102 W 37TH ST,"SAVANNAH, GA     31401",CHATHAM,(912) 447-5629,6/30/2026,
4766965,Food Establishment Licenses,EISENHOWER BP,ROMIN PATEL,2010 EISENHOWER DR,"SAVANNAH, GA     31406",CHATHAM,(912) 352-8338,6/30/2026,
4986409,Food Establishment Licenses,"COLONIAL TERMINALS, INC",CHRISTIAN DEMERE,101 N LATHROP AVE,"SAVANNAH, GA     31415",CHATHAM,(912) 236-1331,6/30/2026,
1970432,Food Establishment Licenses,MAJ ICE COMPANY LLC,MARY ANN GOODGAME,198 E VICTORY DR,"SAVANNAH, GA     31405",CHATHAM,912-897-1700,6/30/2026,
1970466,Food Establishment Licenses,LOWERY SEAFOOD,ROBERT LOWERY,207 MAPMAKER LN,"SAVANNAH, GA     31410",CHATHAM,912-227-0856,4/30/2020,
4577454,Food Establishment Licenses,ISREALTY PROPERTIES,ASSAF GLEIZNER,1000 EISENHOWER DR,"SAVANNAH, GA     31406",CHATHAM,(912) 376-9928,6/30/2026,
5874021,Food Establishment Licenses,EVERPLATE LLC,STAVROS TSAKLAS,324 W BOLTON ST,"SAVANNAH, GA     31401",CHATHAM,(570) 468-4205,6/30/2026,
4323306,Food Establishment Licenses,PARKER'S #78,GREGORY PARKER,5906 OGEECHEE RD,"SAVANNAH, GA     31419",CHATHAM,(912) 658-3834,6/30/2026,
1491493,Food Establishment Licenses,DOLLAR GENERAL STORE #13629,TODD VASOS,1920 E PRESIDENTS ST,"SAVANNAH, GA     31404",CHATHAM,(912) 231-4787,6/30/2026,
5874074,Food Establishment Licenses,TROUPIAL,MARIA LAPREA,817 E 70TH ST,"SAVANNAH, GA     31405",CHATHAM,(912) 419-7727,6/30/2026,
4347408,Food Establishment Licenses,PRANVI LLC,KRUSHIL PATEL,206 E VICTORY DR,"SAVANNAH, GA     31405",CHATHAM,912-355-7196,6/30/2026,
1973064,Food Establishment Licenses,GULF STATES COLD STORAGE CO,JOHN CRISP,106 ELI WHITNEY BLVD,"SAVANNAH, GA     31408",CHATHAM,(912) 508-0739,12/31/2025,
2042386,Food Establishment Licenses,CVS PHARMACY #4261,,2055 E VICTORY DR,"SAVANNAH, GA     31404",CHATHAM,(912) 236-2465,6/30/2026,
4955708,Food Establishment Licenses,SAVANNAH HOCKEY COMPANY,JOASIS SMOKER,135 E 57TH ST,"SAVANNAH, GA     31405",CHATHAM,(912) 657-4241,6/30/2025,
4897085,Food Establishment Licenses,OGLETHORPE CHOCOLATES,DENISE NOKES,436 E OGLETHORPE AVE,"SAVANNAH, GA     31401",CHATHAM,(912) 712-3549,6/30/2024,
6028895,Food Establishment Licenses,SUPREME PRODUCE @KROGER #460,DOROTHY NGUYEN,7 DIAMOND CSWY 12,"SAVANNAH, GA     31406",CHATHAM,(972) 402-9498,6/30/2026,
5105745,Food Establishment Licenses,CHILES VERDES,JESUS HERNANDEZ,11812 MIDDLEGROUND RD STE 200,"SAVANNAH, GA     31419",CHATHAM,(912) 677-8786,6/30/2026,
2530502,Food Establishment Licenses,CHARLOTTE'S CONFECTIONS,CHARLOTTE DIXON,140 JOHNNY MERCER BLVD STE 15,"SAVANNAH, GA     31410",CHATHAM,(912) 657-2927,6/30/2026,
4322404,Food Establishment Licenses,RIVER STREET SWEETS,TIMOTHY STRICKLAND,3507 SKIDAWAY RD,"SAVANNAH, GA     31404",CHATHAM,912-999-7929,6/30/2026,
1970447,Food Establishment Licenses,TWO SMART COOKIES,WILLIAM HANNAN,6512 WHITE BLUFF RD,"SAVANNAH, GA     31405",CHATHAM,(912) 353-2253,6/30/2026,
3260405,Food Establishment Licenses,SHOP N GO 4,VINITKUMAR PATEL,2008 GROVE POINT RD,"SAVANNAH, GA     31419",CHATHAM,(912) 925-2511,6/30/2026,
82301,Food Establishment Licenses,WALGREENS #6098,G. WASSON,125 JOHNNY MERCER BLVD,"SAVANNAH, GA     31410",LAKE,(912) 897-8875,6/30/2026,
4576412,Food Establishment Licenses,THE HUB,PANKIL PATEL,4402 MONTGOMERY ST,"SAVANNAH, GA     31405",CHATHAM,912-436-6357,6/30/2026,
2795878,Food Establishment Licenses,DISCOUNT CORNER #3,SUMIT SAPKOTA,10401 ABERCORN ST,"SAVANNAH, GA     31419",CHATHAM,(912) 349-5914,6/30/2026,
5451461,Food Establishment Licenses,AMERICA'S SECOND HARVEST OF COASTAL GEORGIA,MARY JANE CROUCH,1380 CHATHAM PKWY,"SAVANNAH, GA     31404",CHATHAM,(912) 236-6750,6/30/2026,
5511566,Food Establishment Licenses,ALL THINGZ SWEET,VANESSA POWERS,5501 ABERCORN STREET UNIT C,"SAVANNAH, GA     31405",CHATHAM,(912) 658-3704,6/30/2026,
70859,Food Establishment Licenses,KRISPY KREME DOUGHNUT CORP #86,TONY THOMPSON,11506 ABERCORN ST,"SAVANNAH, GA     31419",CHATHAM,(912) 925-2981,6/30/2026,
5874441,Food Establishment Licenses,MARATHON,VIRAL PATADIYA,329 E MONTGOMERY CROSSROAD,"SAVANNAH, GA     31406",CHATHAM,(912) 349-5261,6/30/2026,
5511720,Food Establishment Licenses,NOURIA 7002 GA HIGHWAY 21,TONY EL-NEMR,7002 GA HIGHWAY 21,"SAVANNAH, GA     31407",CHATHAM,(912) 964-1593,6/30/2026,
5203987,Food Establishment Licenses,"FANCY NANCY'S, LLC",PAUL LAVALLE,1000 EISENHOWER,"SAVANNAH, GA     31406",CHATHAM,(347) 723-3159,6/30/2025,
5451435,Food Establishment Licenses,"SAVANNAH DISTRIBUTING CO., INC",HENRY MONSEES,11 INTERCHANGE DR,"SAVANNAH, GA     31402",CHATHAM,(912) 233-1167,6/30/2026,
95040,Food Establishment Licenses,THE KROGER COMPANY STORE #645,DAVE DILLON,5720 OGEECHEE RD,"SAVANNAH, GA     31405",CHATHAM,(912) 235-3420,6/30/2026,
1335442,Food Establishment Licenses,PARKER'S #35,GREGORY PARKER,5300 SKIDAWAY RD,"SAVANNAH, GA     31404",CHATHAM,(912) 354-7273,6/30/2026,
80266,Food Establishment Licenses,WALMART SUPERCENTER #635,TIM SKINNER,6000 OGEECHEE RD,"SAVANNAH, GA     31419",CHATHAM,(912) 921-0882,6/30/2026,
6028899,Food Establishment Licenses,YUMMI SUSHI @KROGER #645,,5720 OGEECHEE RD,"SAVANNAH, GA     31405",CHATHAM,(972) 402-9498,6/30/2026,
4896731,Food Establishment Licenses,NORTHERN TOOL AND EQUIPMENT CO.,RYAN KOTULA,7505 ABERCORN ST,"SAVANNAH, GA     31406",CHATHAM,(912) 235-0202,6/30/2025,
83836,Food Establishment Licenses,PARKER'S #22,GREGORY PARKER,325 MARTIN LUTHER KING JR BLVD,"SAVANNAH, GA     31401",CHATHAM,(912) 447-0023,6/30/2026,
87441,Food Establishment Licenses,PARKER'S #27,GREGORY PARKER,1910 E PRESIDENT ST,"SAVANNAH, GA     31404",CHATHAM,(912) 232-5602,6/30/2026,
2530401,Food Establishment Licenses,MABEL FRANCES POTTER'S CUPCAKE EMPORIUM,KAREN GIBSON,151 W BRYAN ST,"SAVANNAH, GA     31401",CHATHAM,912-341-8014,6/30/2022,
80162,Food Establishment Licenses,SAVANNAH CANDY KITCHEN,STAN STRICKLAND,318 W SAINT JULIAN ST,"SAVANNAH, GA     31401",CHATHAM,(912) 232-2639,6/30/2026,
3445573,Food Establishment Licenses,VIET HUONG ORIENTAL MARKET,HONG TRAN,7044 HODGSON MEMORIAL DR,"SAVANNAH, GA     31406",CHATHAM,(912) 335-7849,6/30/2026,
4576407,Food Establishment Licenses,AIRWAYS SHELL,ARPITABEN PATEL,294 CROSSROADS PKWY,"SAVANNAH, GA     31408",CHATHAM,912-965-0110,6/30/2026,
2041956,Food Establishment Licenses,OKEY TROPICAL MARKET,HELEN EMEH,7082 HODGSON MEMORIAL DR,"SAVANNAH, GA     31406",CHATHAM,(912) 484-6132,6/30/2026,
4256786,Food Establishment Licenses,GEODIS,"OZBURN-HESSEY HOLDING COMPANY, LLC",503 MORGAN LAKES INDUSTRIAL BLVD STE 100,"SAVANNAH, GA     31407",CHATHAM,(615) 504-5600,6/30/2026,
4789206,Food Establishment Licenses,CROOK FACTORY,GREG THORNTON,4117 MONTGOMERY STREET UNIT A & B,"SAVANNAH, GA     31405",CHATHAM,912 257 8608,6/30/2025,
27265,Food Establishment Licenses,PEPSI COLA BOTTLING CO OF SAVANNAH,BRIAN NURSE,4009 MONTGOMERY ST,"SAVANNAH, GA     31405",CHATHAM,(912) 231-2913,6/30/2024,
5105944,Food Establishment Licenses,RHOOT MAN BEVERAGE COMPANY,SIDNEY LANCE,7506 WHITE BLUFF RD UNIT C,"SAVANNAH, GA     31406",CHATHAM,(912) 414-1302,6/30/2026,
2796329,Food Establishment Licenses,"THE ICE HOUSE, LLC",ROBERT PRICE,2711 WHATLEY AVE,"SAVANNAH, GA     31404",CHATHAM,(912) 354-7877,6/30/2026,
29262,Food Establishment Licenses,SHYAM FOOD MART,HEMANT PATEL,2201 W BAY ST,"SAVANNAH, GA     31415",CHATHAM,(912) 232-7126,6/30/2026,
3452414,Food Establishment Licenses,BYRD COOKIE COMPANY,STEPHANIE LINDLEY,423 E RIVER ST,"SAVANNAH, GA     31401",CHATHAM,(912) 721-1566,6/30/2026,
2994449,Food Establishment Licenses,ZACK'S QUICK STOP,ZIAD ABDULLAH,2701 OGEECHEE RD,"SAVANNAH, GA     31405",CHATHAM,(912) 844-3381,6/30/2023,
4896941,Food Establishment Licenses,LILIAM S & A LLC,LILIAM AGUILAR,10 QUACCO RD,"SAVANNAH, GA     31419",CHATHAM,(201) 304-2361,6/30/2026,
2994432,Food Establishment Licenses,DISCOUNT CORNER,MUKESH PATEL,1 E DERENNE ST,"SAVANNAH, GA     31405",CHATHAM,(912) 355-0107,6/30/2026,
5609592,Food Establishment Licenses,NOURIA 14000 ABERCORN EXPRESSWAY,TONY EL-NEMR,14000 ABERCORN EXPRESSWAY,"SAVANNAH, GA     31419",CHATHAM,(912) 927-3430,6/30/2026,
5451766,Food Establishment Licenses,PARKER'S KITCHEN #122,GREGORY PARKER,2341 HIGHWAY 17,"SAVANNAH, GA     31407",CHATHAM,(912) 231-1001,6/30/2026,
5511785,Food Establishment Licenses,OLLIE'S BARGAN OUTLET #577,MARK BUTLER,7400 ABERCORN ST.,"SAVANNAH, GA     31406",CHATHAM,(912) 446-3825,6/30/2026,
6204222,Food Establishment Licenses,WATERS PANTRY,MITULKUMAR PATEL,2014 WATERS AVE,"SAVANNAH, GA     31404",CHATHAM,(912) 622-2004,6/30/2026,
1970454,Food Establishment Licenses,RIVER STREET SWEETS,PAM STRICKLAND,4515 HABERSHAM ST,"SAVANNAH, GA     31405",CHATHAM,(912) 201-3654,6/30/2026,
2350403,Food Establishment Licenses,WHOLE FOODS MARKET,ALBERT PERCIVAL,1815 VICTORY AVE STE A,"SAVANNAH, GA     31404",CHATHAM,(912) 358-5829,6/30/2026,
4897075,Food Establishment Licenses,MARGUERITE'S ORGANIC MIXES,MARGUERITE CUQUET,2514 ABERCORN ST STE 140,"SAVANNAH, GA     31405",CHATHAM,(912) 247-6484,6/30/2023,
4986708,Food Establishment Licenses,EDIBLE ARRANGEMENTS #1714,MEGAN DAHM,10010 ABERCORN ST,"SAVANNAH, GA     31406",CHATHAM,(912) 925-8742,6/30/2026,
6028897,Food Establishment Licenses,SUPREME PRODUCE @KROGER #697,DOROTHY NGUYEN,318 MALL BLVD STE 100,"SAVANNAH, GA     31406",CHATHAM,(972) 402-9498,6/30/2026,
4577433,Food Establishment Licenses,EAGLE MARKET,VINAY PATEL,2120 W BAY ST,"SAVANNAH, GA     31415",CHATHAM,(912) 231-3585,6/30/2026,
36904,Food Establishment Licenses,PRITAN INC,,5815 WATERS AVE,"SAVANNAH, GA     31404",CHATHAM,(912) 352-7816,6/30/2023,
28480,Food Establishment Licenses,SHADY'S FOOD STORE,GIRISH PATEL,2215 M L KING BLVD,"SAVANNAH, GA     31401",CHATHAM,(912) 232-5299,6/30/2026,
4956397,Food Establishment Licenses,"NHS U.S., LLC",JAY JONES,217 BOURNE BLVD,"SAVANNAH, GA     31408",CHATHAM,(912) 330-8504,6/30/2026,
6028896,Food Establishment Licenses,YUMMI SUSHI @KROGER #460,,7 DIAMOND CSWY,"SAVANNAH, GA     31406",CHATHAM,(972) 402-9498,6/30/2026,
4877225,Food Establishment Licenses,SAVANNAH MARKET,SHUBHAM PATEL,130 E VICTORY DR,"SAVANNAH, GA     31405",CHATHAM,(912) 201-9463,6/30/2026,
5608695,Food Establishment Licenses,NEIGHBORHOOD NECTAR,SADE SHOFIDIYA,1000 EISENHOWER DR STE J,"SAVANNAH, GA     31406",CHATHAM,(912) 373-6811,6/30/2026,
32786,Food Establishment Licenses,SANDFLY CONV #8,JIM SHEFFIELD,1 DIAMOND CSWY STE 11,"SAVANNAH, GA     31406",CHATHAM,(912) 353-7254,6/30/2026,
3530530,Food Establishment Licenses,LOTTERY MACHINE STORE,MUKESH PATEL,10520 ABERCORN ST STE C,"SAVANNAH, GA     31419",CHATHAM,(912) 201-1118,6/30/2023,
1408975,Food Establishment Licenses,SCHWAN'S HOME SERVICE TRUCK #512123,GREG FLACK,43 ARTLEY RD,"SAVANNAH, GA     31408",CHATHAM,(843) 556-4455,10/19/2018,
1408576,Food Establishment Licenses,DOLLAR GENERAL STORE #12727,TODD VASOS,11975 APACHE AVE,"SAVANNAH, GA     31419",CHATHAM,(912) 920-8380,6/30/2026,
50912,Food Establishment Licenses,BILLS MINI MART,BILL LAL,1550 DEAN FOREST RD,"SAVANNAH, GA     31408",CHATHAM,(912) 964-1279,6/30/2023,
59557,Food Establishment Licenses,THE KROGER COMPANY STORE #418,DAVE DILLON,311 E GWINNETT ST,"SAVANNAH, GA     31401",CHATHAM,(912) 231-2260,6/30/2026,
4108416,Food Establishment Licenses,ASHFORD TEA COMPANY,WAYNE ASHFORD,406 E OGELETHORPE AVE,"SAVANNAH, GA     31401",CHATHAM,(317) 513-7544,6/30/2026,
2854443,Food Establishment Licenses,THE HOME DEPOT DC #5150,FRANK BLAKE,125 CROSSROADS PKWY,"SAVANNAH, GA     31407",CHATHAM,(832) 221-2414,6/30/2026,
4109437,Food Establishment Licenses,PUMP N GO SKIDAWAY,MARCSH PATEL,2016 SKIDAWAY RD,"SAVANNAH, GA     31404",CHATHAM,912-349-7716,6/30/2024,
59787,Food Establishment Licenses,PUBLIX SUPER MARKET #522,WILLIAM CRENSHAW,5500 ABERCORN ST STE 2,"SAVANNAH, GA     31405",POLK,(912) 353-1260,6/30/2026,
5608814,Food Establishment Licenses,PAYLESS CASH & CARRY GROCERY,VANDANA RAMTEKE,502 W 54TH ST,"SAVANNAH, GA     31405",CHATHAM,(912) 798-9584,6/30/2026,
527958,Food Establishment Licenses,SAVANNAH BEE COMPANY,THOMAS DENNARD,211 JOHNNY MERCER BLVD,"SAVANNAH, GA     31410",CHATHAM,(912) 234-0688,6/30/2026,
2530435,Food Establishment Licenses,FLIRT WITH DESSERT,ASHLEY ROBBINS,205 JOHNNY MERCER BLVD STE G,"SAVANNAH, GA     31410",CHATHAM,(912) 661-2662,6/30/2026,
28246,Food Establishment Licenses,SIDHHI VINAYAK ENTERPRISE INC,HETAL PATEL,12500 WHITE BLUFF RD,"SAVANNAH, GA     31419",CHATHAM,(912) 961-1222,6/30/2024,
5175132,Food Establishment Licenses,SUNNY'S FLASH MART,SAMIR PATEL,7308 HWY 21,"SAVANNAH, GA     31407",CHATHAM,(912) 966-2276,6/30/2026,
4323038,Food Establishment Licenses,MITLA TORTILLERIA,GRACE NEWLAND,2744 LOUISVILLE RD,"SAVANNAH, GA     31415",CHATHAM,(912) 228-3118,6/30/2026,
1408854,Food Establishment Licenses,SPICES ETC,JAMES KELLEY JR.,2822 LIMERICK ST,"SAVANNAH, GA     31404",CHATHAM,(912) 748-4436,6/30/2026,
44218,Food Establishment Licenses,ISLAND FOOD MART,BHARTI PATEL,200 JOHNNY MERCER BLVD,"SAVANNAH, GA     31410",CHATHAM,(912) 898-1666,6/30/2025,
88585,Food Establishment Licenses,RICH'S MACY'S #66,DENNIS BRODERICK,7804 ABERCORN EXT,"SAVANNAH, GA     31406",CHATHAM,(912) 353-3601,6/30/2026,
5608811,Food Establishment Licenses,COUNTRY CONVENIENCE,DEEP PATEL,12403 WHITE BLUFF RD,"SAVANNAH, GA     31419",CHATHAM,(912) 856-4484,6/30/2026,
1408988,Food Establishment Licenses,"LOWE'S HOME CENTERS, LLC #403",ROBERT NIBLOCK,1114 ABERCORN ST,"SAVANNAH, GA     31419",CHATHAM,(912) 927-0000,6/30/2026,
4495761,Food Establishment Licenses,EAGLE MARKET #2,NAVNITBHAI PATEL,1050 KING GEORGE BLVD,"SAVANNAH, GA     31419",CHATHAM,912-335-8240,6/30/2026,
4987268,Food Establishment Licenses,TWISTED SUGAR,NOELLE BYBEE,151 BRYAN ST,"SAVANNAH, GA     31401",CHATHAM,(801) 814-4904,6/30/2025,
5874648,Food Establishment Licenses,SAVANNAH THRILLS ON WHEELS,CHARLOTTE MCGEE,1000 EISENHOWER DR STE J,"SAVANNAH, GA     31406",CHATHAM,(912) 800-1412,6/30/2026,
3452418,Food Establishment Licenses,CAPITAL GROCERY,JIGAR PATEL,2010 CAPITAL ST,"SAVANNAH, GA     31404",CHATHAM,(912) 233-2527,6/30/2025,
79570,Food Establishment Licenses,PARKER'S #21,GREGORY PARKER,1976 E VICTORY DR,"SAVANNAH, GA     31404",CHATHAM,(912) 233-8898,6/30/2026,
2944403,Food Establishment Licenses,FUELS-N-PANTRY,RATNESH LAL,1220 MONTGOMERY ST,"SAVANNAH, GA     31401",CHATHAM,(912) 447-5629,6/30/2026,
5512320,Food Establishment Licenses,NOURIA 4318 OGEECHEE ROAD,TONY EL-NEMR,4318 OGEECHEE RD,"SAVANNAH, GA     31405",CHATHAM,(912) 234-5294,6/30/2026,
1335431,Food Establishment Licenses,CHEN JACKIES SEAFOOD MARKET,HUI LIN CHEN,1117 E MONTGOMERY CROSSROADS,"SAVANNAH, GA     31406",CHATHAM,(912) 927-2266,12/31/2025,
4410148,Food Establishment Licenses,WHEATON BP,BIJAL PATEL,1300 WHEATON ST,"SAVANNAH, GA     31404",CHATHAM,760-267-1724,6/30/2025,
84815,Food Establishment Licenses,JACK'S GOURMET GATOR,JACK DOUGLAS,610 CHEVIS RD,"SAVANNAH, GA     31419",CHATHAM,(912) 925-4459,6/30/2026,
84815,Food Establishment Licenses,JACK'S GOURMET GATOR,JACK DOUGLAS,610 CHEVIS RD,"SAVANNAH, GA     31419",CHATHAM,(912) 925-4459,12/31/2025,
2994418,Food Establishment Licenses,BABY CAKES CONFECTIONERY,LOIS BROXTON,1701 1/2 BURROUGHS ST,"SAVANNAH, GA     31415",CHATHAM,(912) 436-5669,6/30/2025,
1335410,Food Establishment Licenses,DOLLAR GENERAL STORE #12313,TODD VASOS,43 W MONTGOMERY CROSSROADS SPC A,"SAVANNAH, GA     31406",CHATHAM,(912) 226-0590,6/30/2026,
70870,Food Establishment Licenses,CVS PHARMACY #4257,THOMAS MOFFATT,712 STEPHENSON AVE,"SAVANNAH, GA     31405",CHATHAM,(912) 354-7284,6/30/2026,
26741,Food Establishment Licenses,CIRCLE K STORES INC. #2707716,BRIAN HANNASCH,7716 HIGHWAY 80 EAST,"SAVANNAH, GA     31410",CHATHAM,(912) 897-0413,6/30/2026,
100200,Food Establishment Licenses,DOLLAR TREE STORE #1150,BOB SASSER,1915 E VICTORY DR STE F,"SAVANNAH, GA     31404",CHATHAM,(912) 352-2450,6/30/2026,
5873948,Food Establishment Licenses,HEALTH HARVEST,DELLA TOLBERT,324 W BOLTON ST,"SAVANNAH, GA     31401",CHATHAM,(678) 662-0314,6/30/2026,
5106330,Food Establishment Licenses,COLONIAL CHEMICAL SOLUTIONS,CLAYTON CHESHIRE,916 W LATHROP AVE,"SAVANNAH, GA     31415",CHATHAM,(912) 236-1331,6/30/2026,
5511107,Food Establishment Licenses,WHEATON MARKET,SAGAI RAJ SADASIVAN,1321 WHEATON STREET,"SAVANNAH, GA     31404",CHATHAM,(470) 626-4702,6/30/2026,
2794806,Food Establishment Licenses,DOLLAR GENERAL #15936,TODD VASOS,3111 SKIDAWAY RD,"SAVANNAH, GA     31404",CHATHAM,(912) 417-8592,6/30/2026,
4257083,Food Establishment Licenses,QUICK STOP #94,DIPEN PATEL,4801 OGEECHEE RD,"SAVANNAH, GA     31405",CHATHAM,912-441-1123,6/30/2026,
4109432,Food Establishment Licenses,YASHVI FOOD MART,ANKIT PATEL,165 MAIN ST,"SAVANNAH, GA     31408",CHATHAM,912-346-3216,6/30/2026,
3452435,Food Establishment Licenses,CIRCLE K STORE #1412,TOM HARMAN,4315 OGEECHEE RD,"SAVANNAH, GA     31405",CHATHAM,(912) 231-9300,6/30/2026,
2994412,Food Establishment Licenses,CHOCOLAT BY ADAM TURONI,ADAM TURONI,236 BULL ST,"SAVANNAH, GA     31401",CHATHAM,(912) 335-2068,6/30/2026,
5609356,Food Establishment Licenses,TYBEE OYSTER COMPANY,ALEXANDER SOLOMON,6705 JOHNNY MERCER BLVD,"SAVANNAH, GA     31410",CHATHAM,(912) 521-4430,6/30/2026,
54755,Food Establishment Licenses,PUBLIX SUPER MARKET #456,TODD JONES,155 JOHNNY MERCER BLVD,"SAVANNAH, GA     31410",CHATHAM,(912) 897-8100,6/30/2026,
5511705,Food Establishment Licenses,NOURIA 10 EISENHOWER DRIVE,TONY EL-NEMR,10 EISENHOWER DRIVE,"SAVANNAH, GA     31406",CHATHAM,(912) 940-0030,6/30/2026,
30246,Food Establishment Licenses,YASH FOOD MART,VINOD PATEL,701 W 37TH ST,"SAVANNAH, GA     31415",CHATHAM,(912) 790-7088,6/30/2026,
4409643,Food Establishment Licenses,RITA ANN'S,RITA MILES,217 SUGAR MILL DR,"SAVANNAH, GA     31419",CHATHAM,(912) 657-2991,6/30/2023,
30248,Food Establishment Licenses,BP FOODMART,MITUL PATEL,5806 WATERS AVE,"SAVANNAH, GA     31404",CHATHAM,(912) 691-0642,6/30/2026,
41357,Food Establishment Licenses,HONEYBAKED HAM COMPANY AND CAFE #1626,JOHN PEECKSEN,8608 ABERCORN ST D,"SAVANNAH, GA     31406",CHATHAM,(912) 920-7400,6/30/2025,
5310725,Food Establishment Licenses,TYBEE SEAFOOD MARKET LLC,MICHAEL ANDERSON,7878 US HWY 80 E,"SAVANNAH, GA     31410",CHATHAM,(912) 468-8121,6/30/2026,
4322655,Food Establishment Licenses,PUMP N PANTRY,JAYESH PATEL,5 GATEWAY BLVD S,"SAVANNAH, GA     31419",CHATHAM,760-267-1311,6/30/2025,
6028820,Food Establishment Licenses,HALE TEA CO,MEGAN MILLER,410 W JONES ST STE A,"SAVANNAH, GA     31401",CHATHAM,(301) 785-7803,6/30/2026,
94371,Food Establishment Licenses,THE FRESH MARKET #65,RONALD CRAIG CARLOCK,5525 ABERCORN ST,"SAVANNAH, GA     31405",CHATHAM,(912) 354-6075,6/30/2026,
97235,Food Establishment Licenses,SAM'S CLUB #8202,TIM SKINNER,1975 E MONTGOMERY CROSS,"SAVANNAH, GA     31406",CHATHAM,(912) 352-3330,6/30/2026,
4577452,Food Establishment Licenses,324 W BOLTON SHARED KITCHEN,,324 W BOLTON ST,"SAVANNAH, GA     31404",CHATHAM,(912) 355-4177,6/30/2026,
4371339,Food Establishment Licenses,SAVANNAH HEALTHY VENDING,THOMAS HACKER,1101 CHATHAM PKWY UNIT B 4,"SAVANNAH, GA     31408",CHATHAM,912-508-4883,6/30/2026,
5204029,Food Establishment Licenses,OGEECHEE MEAT MARKET,GARY MCCLUNE,6011 OGEECHEE RD,"SAVANNAH, GA     31419",CHATHAM,(912) 961-5223,6/30/2025,
4409671,Food Establishment Licenses,THUNDERBOLT MARATHON,MANJULA RAJAPAKSHA,3019 E VICTORY DR,"SAVANNAH, GA     31404",CHATHAM,(912) 352-8538,6/30/2026,
4767193,Food Establishment Licenses,WICKED CAKES OF SAVANNAH,ABBY LONGWATER,466 MONTGOMERY ST,"SAVANNAH, GA     31401",CHATHAM,912-298-0040,6/30/2026,
4409885,Food Establishment Licenses,LA GUADALUPANA MEAT MARKET,EDILMA MARTIN LOPEZ,6009 OGEECHEE RD,"SAVANNAH, GA     31419",CHATHAM,(912) 335-7430,6/30/2023,
5106070,Food Establishment Licenses,GIANT FOOD MART,PRAWESH KHADKA,1606 W GWINNETT ST,"SAVANNAH, GA     31415",CHATHAM,(912) 236-2945,6/30/2025,
5608989,Food Establishment Licenses,SAVANNAH SCONE COMPANY,ANDRIJA & ELIZABETH COPIC,713 E 65TH ST,"SAVANNAH, GA     31405",CHATHAM,(912) 388-0354,6/30/2026,
4347422,Food Establishment Licenses,ONE STOP SHOP,VINNY PATEL,1318 AUGUSTA AVE,"SAVANNAH, GA     31415",CHATHAM,912-238-2331,6/30/2026,
86459,Food Establishment Licenses,OGEECHEE MEAT MARKET,GARY MCCLUNE,6021 OGEECHEE RD,"SAVANNAH, GA     31419",CHATHAM,(912) 961-5223,6/30/2026,
4322416,Food Establishment Licenses,EL CHEAPO SAVANNAH,PRAKASH PATEL,9137 WHITE BLUFF RD,"SAVANNAH, GA     31402",CHATHAM,912-244-4152,6/30/2026,
4162924,Food Establishment Licenses,CRC GEORGIA LLC,RONALD MAINS JR.,988 BOURNE AVE,"SAVANNAH, GA     31408",CHATHAM,(912) 965-1112,6/30/2026,
5451644,Food Establishment Licenses,"EDIBLE JUICES, LLC",RAMONA GREEN,5002 PAULSEN ST,"SAVANNAH, GA     31405",CHATHAM,(912) 500-5366,6/30/2026,
4987235,Food Establishment Licenses,CHEVRON,MEGHANA PATEL,7203 ABERCORN ST,"SAVANNAH, GA     31406",CHATHAM,(912) 247-4557,6/30/2026,
27743,Food Establishment Licenses,NELSON QUALITY SHRIMP CO,GORDON NELSON,3516 OLD TYBEE RD,"SAVANNAH, GA     31410",CHATHAM,(912) 897-1123,6/30/2026,
27743,Food Establishment Licenses,NELSON QUALITY SHRIMP CO,GORDON NELSON,3516 OLD TYBEE RD,"SAVANNAH, GA     31410",CHATHAM,(912) 897-1123,12/31/2025,
37105776,Bird Dealers Licenses,PETSMART INC. #2351,PETSMART,1821 E Victory Dr,"Savannah , GA      31404",CHATHAM,623-587-2949,12/31/2026,
3799721,Bird Dealers Licenses,Everett's Aviary,Joyce Everett,347 Beaufort Rd,"Savannah , GA      31419",CHATHAM,912-308-6521,2/28/2026,
3762742,Bird Dealers Licenses,PETSMART #221,"PETSMART, INC.",11132 Abercorn St,"Savannah , GA      31419",CHATHAM,623-587-2949,8/31/2026,
50003177,Dairy Licenses,"LEOPOLD'S, INC",STRATTON LEOPOLD,502 E 37TH ST,"SAVANNAH, GA     31402",CHATHAM,,12/31/2050,
3799838,Bird Dealers Licenses,"Petco Animal Supplies Stores, Inc",General Manager,8108 Abercorn Street,"Savannah , GA      31406",CHATHAM,2102019096,7/31/2026,
37104523,Bird Dealers Licenses,TWEETERS N PEEPERS,JUDITH HARRIS,5901 Ogeechee Rd,"Savannah , GA      31419",CHATHAM,9129251777,4/28/2026,
3798556,Bird Dealers Licenses,PET SUPERMARKET #292,"PET SUPERMARKET, INC.",7805 Abercorn St Ste 17,"Savannah , GA      31406",CHATHAM,9123539392,3/31/2026,
55568188,Dairy Licenses,TALAHI TREATS,REBECCA FAUCETTE,5002 PAULSON STREET # 109,"SAVANNAH, GA     31405",CHATHAM,(912) 224-0530,12/31/2050,
55567797,Dairy Licenses,STARSHIP ICE CREAM LLC,STEVE PENATELLO,629 E BROAD ST,"SAVANNAH, GA     31401",CHATHAM,(912) 999-3899,12/31/2027,
55556404,Dairy Licenses,SAVANNAH SQUARE POPS,JUDD WIGGINS,347 MARTIN LUTHER KING Jr BLVD,"SAVANNAH, GA     31405",CHATHAM,(912) 999-7078,12/31/2027,
9292310,Fuel Pump Registration Licenses,KROGER # 697,,318 MALL BOULEVARD,"SAVANNAH, GA     31406",CHATHAM,912-200-9158,6/30/2026,
55556760,Dairy Licenses,SAVANNAH KLEEN,,205 OLEARY RD,"SAVANNAH, GA     31407",CHATHAM,(912) 964-4809,12/31/2027,
55567796,Dairy Licenses,"JALISCO FRESH, INC.",ELIAB RODRIGUEZ,1000 EISENHOWER DR STE B,"SAVANNAH, GA     31406",CHATHAM,(912) 484-0480,12/31/2027,
49889,Fuel Pump Registration Licenses,OGEECHEE CONVENIENCE,,6001 OGEECHEE RD,"SAVANNAH, GA     31419",CHATHAM,912-925-4305,6/30/2026,
899927,Fuel Pump Registration Licenses,ENMARK CORPORATE OFFICE,ACCOUNTS PAYABLE,1705 CHATHAM PARKWAY,"SAVANNAH, GA     31415",CHATHAM,912-236-1331/912-443-6567,6/30/2025,
36904,Fuel Pump Registration Licenses,PRITAN INC,,5815 WATERS AVE,"SAVANNAH, GA     31406",CHATHAM,912-352-7816,6/30/2026,
39725,Fuel Pump Registration Licenses,SAVANNAH CONVENIENCE INC,,6827 WATERS AVE,"SAVANNAH, GA     31406",CHATHAM,(912) 354-3294,6/30/2026,
9296342,Fuel Pump Registration Licenses,PARKER'S KITCHEN #123,,2500 FT. ARGYLE RD,"SAVANNAH, GA     31302",CHATHAM,912-446-4970,6/30/2026,
26741,Fuel Pump Registration Licenses,CIRCLE K #7716,,7716 HWY 80,"SAVANNAH, GA     31410",CHATHAM,912-897-4433,6/30/2026,
82332,Fuel Pump Registration Licenses,PARKERS 25,,3105 E VICTORY DR,"SAVANNAH, GA     31401",CHATHAM,912-231-1001,6/30/2026,
9296765,Fuel Pump Registration Licenses,NOURIA 14000 ABERCORN EXPRESSWAY,REBECCA SHURTLEFF,14000 ABERCORN STREET,"SAVANNAH, GA     31419",,508-309-2888,6/30/2026,
9296769,Fuel Pump Registration Licenses,NOURIA 3219 SKIDAWAY ROAD,REBECCA SHURTLEFF,3219 SKIDAWAY ROAD,"SAVANNAH, GA     31404",,508-309-2888,6/30/2026,
9293933,Fuel Pump Registration Licenses,PUMP N GO,,801 HARMON ST,"SAVANNAH, GA     31401",,912-425-1055,6/30/2026,
9296764,Fuel Pump Registration Licenses,NOURIA FERGUSON AVENUE,REBECCA SHURTLEFF,9801 FERGUSON AVENUE,"SAVANNAH, GA     31406",,508-309-2888,6/30/2026,
9293791,Fuel Pump Registration Licenses,ABERCORN BP,MOHIT BYAS,7204 ABERCORN ST,"SAVANNAH, GA     31406",CHATHAM,912 352-9888,6/30/2026,
9296848,Fuel Pump Registration Licenses,"Aum2019, Inc",Krunal Dhimmar,3618 Ogeechee Road,"Savannah, GA     31405",CHATHAM,912-233-8307,6/30/2026,
9292454,Fuel Pump Registration Licenses,WATERS CHEVRON,,5009 WATERS AVENUE,"SAVANNAH, GA     31404",CHATHAM,912-335-2881,6/30/2026,
36606,Fuel Pump Registration Licenses,POOR WILLIES # 19,,14001 ABERCORN ST,"SAVANNAH, GA     31406",CHATHAM,(912) 920-0842,6/30/2026,
9293951,Fuel Pump Registration Licenses,VICTORY STATION,ANDY PATEL,1102 EAST VICTORY DRIVE,"SAVANNAH, GA     31404",CHATHAM,912-236-7242,6/30/2025,
9296771,Fuel Pump Registration Licenses,NOURIA 405 MLK Jr. BOULEVARD,REBECCA SHURTLEFF,405 MLK Jr. BOULEVARD,"SAVANNAH, GA     31401",,508-309-2888,6/30/2026,
9293053,Fuel Pump Registration Licenses,ZACK'S QUICK STOP,,2701 OGEECHEE RD,"SAVANNAH, GA     31405",CHATHAM,912-349-2949,6/30/2026,
9295027,Fuel Pump Registration Licenses,TPG Marinas IOH LLC,Michelle Joyal,50 W. Bluff Drive,"Savannah, GA     31406",CHATHAM,912-354-8187,6/30/2026,
34374,Fuel Pump Registration Licenses,PUMP N PANTRY LLC,,102 W 37TH ST,"SAVANNAH, GA     31401",CHATHAM,912-691-1015,6/30/2026,
95612,Fuel Pump Registration Licenses,FOOD MART INC,,401 E MONTGOMERY XRD,"SAVANNAH, GA     31406",CHATHAM,,6/30/2026,
9292771,Fuel Pump Registration Licenses,COLONIAL FUEL AND LUBRICANT SERVICES,,1580 DEAN FOREST ROAD,"SAVANNAH, GA     31408",CHATHAM,912-681-2261,6/30/2026,
9292274,Fuel Pump Registration Licenses,BRADLEY CORNER,,1102 BRADLEY CORNER BLVD. SUITE B,"SAVANNAH, GA     31419",CHATHAM,912-925-0999,6/30/2026,
9292661,Fuel Pump Registration Licenses,KROGER FUEL CENTER # 609,,495 JOHNNY MERCER BLVD.,"SAVANNAH, GA     31610",CHATHAM,912-897-3532,6/30/2026,
79500,Fuel Pump Registration Licenses,ENMARK STATIONS INC 491,,3219 SKIDAWAY RD,"SAVANNAH, GA     31404",CHATHAM,912-354-9208,6/30/2025,
75926,Fuel Pump Registration Licenses,HOGANS MARINA,,36 WILIMINGTON ISLAND RD,"SAVANNAH, GA     31410",CHATHAM,912-897-3474,6/30/2024,
9293061,Fuel Pump Registration Licenses,PARKERS #62,,2175 BENTON BLVD,"SAVANNAH, GA     31407",CHATHAM,912-349-0091,6/30/2026,
90724,Fuel Pump Registration Licenses,ENMARK STATION 838,,3098 WATSON BLVD,"SAVANNAH, GA     31402",CHATHAM,478-953-8153,6/30/2025,
900266,Fuel Pump Registration Licenses,ENMARK STATION # 846,,210 JOHNNY MERCER BLVD,"SAVANNAH, GA     31410",CHATHAM,,6/30/2025,
95040,Fuel Pump Registration Licenses,KROGER FUEL CENTER # 645,,5720 OGEECHEE ROAD,"SAVANNAH, GA     31429",CHATHAM,912-235-3431,6/30/2026,
75577,Fuel Pump Registration Licenses,ENMARK STATION INC #10,,14000 ABERCORN ST,"SAVANNAH, GA     31419",CHATHAM,912-927-3430,6/30/2025,
9295144,Fuel Pump Registration Licenses,CHEVRON,JASMINE PATEL,8900 WHITE BLUFF RD,"SAVANNAH, GA     31406",,551-268-9294,6/30/2023,
9296770,Fuel Pump Registration Licenses,NOURIA 1316 EAST DERENNE AVENUE,REBECCA SHURTLEFF,1316 EAST DERENNE AVENUE,"SAVANNAH, GA     31406",,508-309-2888,6/30/2026,
33924,Fuel Pump Registration Licenses,NITI SHELL,,3618 OGEECHEE RD,"SAVANNAH, GA     31405",CHATHAM,912-233-8307,6/30/2025,
900535,Fuel Pump Registration Licenses,KROGER FUEL CENTER #979,,1900 E VICTORY DR,"SAVANNAH, GA     31404",CHATHAM,912-236-9324,6/30/2026,
9296773,Fuel Pump Registration Licenses,NOURIA 175 JOHNNY MERCER BOULEVARD,REBECCA SHURTLEFF,175 JOHNNY MERCER BOULEVARD,"SAVANNAH, GA     31410",,508-309-2888,6/30/2026,
79570,Fuel Pump Registration Licenses,PARKERS #21,,1976 E VICTORY DR,"SAVANNAH, GA     31401",CHATHAM,912-233-8898,6/30/2026,
64727,Fuel Pump Registration Licenses,ENMARK #185,,1316 DERENNE AVENUE,"SAVANNAH, GA     31405",CHATHAM,9123559326,6/30/2025,
9292418,Fuel Pump Registration Licenses,FUELS-N-PANTRY,,1220 MONTGOMERY STREET,"SAVANNAH, GA     31401",CHATHAM,(912) 447-5629,6/30/2026,
70720,Fuel Pump Registration Licenses,MEHUL INC./ GEMINI AMOCO,,4906 PAULSEN ST,"SAVANNAH, GA     31405",CHATHAM,912-354-2270,6/30/2026,
45199,Fuel Pump Registration Licenses,SHADY FOOD STORE,,2215 MLK JR. BLVD.,"SAVANNAH, GA     31401",CHATHAM,912-232-5299,6/30/2026,
9293932,Fuel Pump Registration Licenses,THUNDERBOLT MARATHON,,3019 E VICTORY DR,"SAVANNAH, GA     31404",CHATHAM,912-233-5930,6/30/2026,
34396,Fuel Pump Registration Licenses,MR. FUEL,SELINA TURNER,1504 DEAN FOREST RD,"SAVANNAH, GA     31408",,912-964-5280,6/30/2026,
45081,Fuel Pump Registration Licenses,ENMARK #600,,7406 WATERS AVE,"SAVANNAH, GA     31406",CHATHAM,9123527153,6/30/2025,
27052,Fuel Pump Registration Licenses,AKSHAR ENTERPRISE INC,,5402 LA ROCHE AVE,"SAVANNAH, GA     31406",CHATHAM,912-353-9001,6/30/2026,
900403,Fuel Pump Registration Licenses,LAZARETTO DEVELOPMENT,,4 HWY 80 OLD TYBEE RD,"SAVANNAH, GA     31405",CHATHAM,912-786-5554,6/30/2021,
9293052,Fuel Pump Registration Licenses,PUMP N GO OGHECHEE,,2320 OGEECHEE RD,"SAVANNAH, GA     31415",CHATHAM,912-712-3603,6/30/2026,
9294324,Fuel Pump Registration Licenses,MN PARESH INC,MIKE PATEL,2016 SKIDAWAY RD,"SAVANNAH, GA     31404",CHATHAM,912-484-6138,6/30/2026,
64046,Fuel Pump Registration Licenses,MISS JUDYS CHARTERS,,124 PALMETTO DR,"SAVANNAH, GA     31410",CHATHAM,912-897-4921,6/30/2026,
86575,Fuel Pump Registration Licenses,"PREM KRISTHNA, INC.",,502 W BAY STREET,"SAVANNAH, GA     31416",CHATHAM,912-495-9342,6/30/2026,
9293141,Fuel Pump Registration Licenses,MURPHY'S EXPRESS #8829,,"14080 ABERCORN ST,","SAVANNAH, GA     31419",CHATHAM,912-920-0606,6/30/2026,
900276,Fuel Pump Registration Licenses,DOWN TOWN CHEVRON,,147 MLK JR,"SAVANNAH, GA     31401",CHATHAM,,6/30/2026,
900376,Fuel Pump Registration Licenses,WEST BAY HOP-IN,,2419 WEST BAY ST,"SAVANNAH, GA     31415",CHATHAM,912-349-4160,6/30/2026,
45191,Fuel Pump Registration Licenses,BDG FOOD MART,,2511 SKIDAWAY RD,"SAVANNAH, GA     31402",CHATHAM,912-447-6773,6/30/2026,
9293921,Fuel Pump Registration Licenses,PUMP N GO,,201 E MONTGOMERY CROSSROADS,"SAVANNAH, GA     31406",CHATHAM,912-306-7360,6/30/2026,
54385,Fuel Pump Registration Licenses,ENMARK # 210,,106 OCILLA HWY,"SAVANNAH, GA     31402-9949",CHATHAM,229-423--5261,6/30/2025,
70721,Fuel Pump Registration Licenses,THE LANDINGS YACHT CLUB DELEGA,,2 MARINA DR,"SAVANNAH, GA     31411",CHATHAM,,6/30/2026,
9293920,Fuel Pump Registration Licenses,ABERCORN CHEVRON,,2606 ABERCORN ST,"SAVANNAH, GA     31401",CHATHAM,912-306-7360,6/30/2026,
50912,Fuel Pump Registration Licenses,BILLS MINI MART,,1550 DEAN FOREST RD,"SAVANNAH, GA     31408",CHATHAM,(912) 964-1279,6/30/2022,
9295748,Fuel Pump Registration Licenses,"GO OUTDOORS SAVANNAH TRS, LLC",MICHAEL HOUBRE,36 WILMINGTON ISLAND RD,"SAVANNAH, GA     31410",CHATHAM,865-588-0321,6/30/2026,
38425,Fuel Pump Registration Licenses,THE GAS PUMP,,1934 MILLS B LANE BLVD,"SAVANNAH, GA     31405",CHATHAM,912-234-8307,6/30/2024,
32704,Fuel Pump Registration Licenses,CIRCLE K #1862,,2 QUACCO RD,"SAVANNAH, GA     31405",CHATHAM,912-925-3134,6/30/2026,
32495,Fuel Pump Registration Licenses,B P M FOOD MART,,3701 BULL ST,"SAVANNAH, GA     31405",CHATHAM,000-000-0000,6/30/2026,
9294137,Fuel Pump Registration Licenses,Aashit Investments Inc.,Aashit Patel,1940 Mills B Lane (Unit-F),"Savannah, GA     31405",CHATHAM,19126591582,6/30/2024,
45230,Fuel Pump Registration Licenses,TUCKER & SONS,,902 MONTGOMERY ST,"SAVANNAH, GA     31401",CHATHAM,912-236-2954,6/30/2023,
77030,Fuel Pump Registration Licenses,OGEECHEE CHEVRON,,3912 OGEECHEE RD,"SAVANNAH, GA     31405",CHATHAM,(912) 447-0730,6/30/2026,
9293253,Fuel Pump Registration Licenses,QUICK STOP #92,,1450 W BAY ST,"SAVANNAH, GA     31415",CHATHAM,912-233-6063,6/30/2021,
9296767,Fuel Pump Registration Licenses,NOURIA 4318 OGEECHEE ROAD,REBECCA SHURTLEFF,4318 OGEECHEE ROAD,"SAVANNAH, GA     31406",,508-309-2888,6/30/2026,
900504,Fuel Pump Registration Licenses,PARKERS #35,,5300 SKIDAWAY RD,"SAVANNAH, GA     31404",CHATHAM,912-354-7273,6/30/2026,
29712,Fuel Pump Registration Licenses,SKIDAWAY CONVENIENCE,,3014 SKIDAWAY RD,"SAVANNAH, GA     31404",CHATHAM,912-354-9374,6/30/2026,
900277,Fuel Pump Registration Licenses,WATERS BP,,5806 WATERS AVE,"SAVANNAH, GA     31404",CHATHAM,912-691-0642,6/30/2026,
9296774,Fuel Pump Registration Licenses,NOURIA 10 EISENHOWER DRIVE,REBECCA SHURTLEFF,10 EISENHOWER DRIVE,"SAVANNAH, GA     31406",,508-309-2888,6/30/2026,
9292660,Fuel Pump Registration Licenses,HIGHLAND PARK BP,,1900 BENTON BLVD. SUITE # 103,"SAVANNAH, GA     31407",CHATHAM,(912) 348-3639,6/30/2026,
76177,Fuel Pump Registration Licenses,ONE STOP / VINNY ENTERPRISES INC.,,2100 MONTGOMERY STREET,"SAVANNAH, GA     31401",CHATHAM,912-414-4126,6/30/2026,
9296695,Fuel Pump Registration Licenses,Nick 2024 Inc,Nayankumar Patel,902 Pennsylvania Ave,"Savannah, Ga     31404",CHATHAM,912-232-8239,6/30/2025,
81646,Fuel Pump Registration Licenses,MURPHY USA #6684,,6004 OGEECHEE RD,"SAVANNAH, GA     31419",CHATHAM,9129204423,6/30/2026,
51539,Fuel Pump Registration Licenses,ENMARKET #255,,4318 OGEECHEE RD,"SAVANNAH, GA     31402",CHATHAM,912-236-1331,6/30/2025,
45082,Fuel Pump Registration Licenses,ENMARK #660,,175 JOHNNY MERCER BLVD,"SAVANNAH, GA     31410",CHATHAM,912-897-6769,6/30/2025,
51646,Fuel Pump Registration Licenses,CHUS CONVENIENCE MART #114,,12006 MIDDLEGROUND RD,"SAVANNAH, GA     31419",CHATHAM,(912) 925-9806,6/30/2026,
41841,Fuel Pump Registration Licenses,KEDIP FOOD MART,,1502 DEAN FOREST RD,"SAVANNAH, GA     31408",CHATHAM,912-964-5394,6/30/2021,
9294355,Fuel Pump Registration Licenses,HIGHLAND SHELL,JUSTIN MASTERS,485 JIMMY DELOACH PKWY,"SAVANNAH, GA     31408",CHATHAM,912-228-4419,6/30/2026,
900258,Fuel Pump Registration Licenses,SAVANNAH MARKET,,130 E. VICTORY DRIVE,"SAVANNAH, GA     31405",CHATHAM,912-201-9463,6/30/2025,
9296772,Fuel Pump Registration Licenses,NOURIA 210 JOHNNY MERCER BOULEVARD,REBECCA SHURTLEFF,210 JOHNNY MERCER BOULEVARD,"SAVANNAH, GA     31410",,508-309-2888,6/30/2026,
9295714,Fuel Pump Registration Licenses,VISHU MART LLC,SARVESH SHARMA,10004 ABERCORN ST,"SAVANNAH, GA     31406",CHATHAM,912-455-5450,6/30/2026,
9292229,Fuel Pump Registration Licenses,THE PARKER COMPANIES,,171 CROSSROADS PKWY,"SAVANNAH, GA     31407",CHATHAM,912-721-2885,6/30/2026,
29266,Fuel Pump Registration Licenses,PARKERS #22,,325 MARTIN LUTHER KING J,"SAVANNAH, GA     314011580",CHATHAM,912-447-0023,6/30/2026,
9294181,Fuel Pump Registration Licenses,OCEAN FUEL,DEE PATEL,5796 OGEECHEE RR STE 101,"SAVANNAH, GA     30405",,706-340-7223,6/30/2026,
68607,Fuel Pump Registration Licenses,VYOM LLC/TEXACO # 1,,5920 OGEECHEE RD,"SAVANNAH, GA     31419",CHATHAM,(912) 655-4779,6/30/2024,
35447,Fuel Pump Registration Licenses,EL CHEAPO #41,,1 GATEWAY BLVD,"SAVANNAH, GA     31419",CHATHAM,912-925-3526,6/30/2026,
76447,Fuel Pump Registration Licenses,AIRPORT AMOCO INC,,291 CROSSROADS PKWY,"SAVANNAH, GA     31408",CHATHAM,912-964-2244,6/30/2026,
41406,Fuel Pump Registration Licenses,TIME SAVER # 47,,1402 E BROAD ST,"SAVANNAH, GA     31401",CHATHAM,(912) 236-8947,6/30/2026,
32784,Fuel Pump Registration Licenses,VILLAGE STATION,,10 MEETING ST,"SAVANNAH, GA     31416",CHATHAM,912-598-0874,6/30/2026,
9296091,Fuel Pump Registration Licenses,Walthall Oil Company- Fuel Pro #2 Bourne Ave,Cullen Coker,520 Bourne Avenue,"Savannah, GA     31408",BIBB,478-781-1234,6/30/2024,
41978,Fuel Pump Registration Licenses,RAM FOOD MART,,1101 E MONTGOMERY CROSSROAD,"SAVANNAH, GA     31406",CHATHAM,912-961-0019,6/30/2026,
42431,Fuel Pump Registration Licenses,GATEWAY CHEVRON,,2 GATEWAY BLVD,"SAVANNAH, GA     31419",CHATHAM,(912) 920-8499,6/30/2023,
9296768,Fuel Pump Registration Licenses,NOURIA 4202 MONTGOMERY STREET,REBECCA SHURTLEFF,4202 MONTGOMERY STREET,"SAVANNAH, GA     31405",,508-309-2888,6/30/2026,
98408,Fuel Pump Registration Licenses,PARKERS #29,,10525 ABERCORN ST,"SAVANNAH, GA     31419",CHATHAM,912-921-1899,6/30/2026,
27201,Fuel Pump Registration Licenses,CHUS CONVENIENCE MART,,7726 JOHNNY MERCER BLVD,"SAVANNAH, GA     31410",CHATHAM,912-897-7795,6/30/2026,
31441,Fuel Pump Registration Licenses,PARKERS 13,,2004 BEECH ST,"SAVANNAH, GA     31401",CHATHAM,912-236-5774,6/30/2026,
86227,Fuel Pump Registration Licenses,COUNTRY CONVENIENCE #1,,12403 WHITE BLUFF RD,"SAVANNAH, GA     31419222",CHATHAM,,6/30/2025,
62526,Fuel Pump Registration Licenses,PUMP N PANTRY #19,,1816 MONTGOMERY ST,"SAVANNAH, GA     31401",CHATHAM,(912) 234-1444,6/30/2026,
29286,Fuel Pump Registration Licenses,YA DADA CORPORATION,,11711 LARGO DRIVE,"SAVANNAH, GA     31419",CHATHAM,912-927-4517,6/30/2026,
45080,Fuel Pump Registration Licenses,ENMARK,,4202 MONTGOMERY ST,"SAVANNAH, GA     31405",CHATHAM,0000000000,6/30/2025,
45079,Fuel Pump Registration Licenses,ENMARK,,405 MARTIN LUTHER KING JR BLVD,"SAVANNAH, GA     31402",CHATHAM,,6/30/2025,
44218,Fuel Pump Registration Licenses,ISLAND FOOD MART INC,,280 JOHNNY MERCER BLVD,"SAVANNAH, GA     314102156",CHATHAM,912-898-1666,6/30/2024,
28230,Fuel Pump Registration Licenses,PRITAM,,5316 AUGUSTA RD,"SAVANNAH, GA     31401",CHATHAM,912-965-0901,6/30/2022,
30258,Fuel Pump Registration Licenses,ASHIRVAD INC,,825 TIBET AVE,"SAVANNAH, GA     31406",CHATHAM,912-925-5767,6/30/2024,
42540,Fuel Pump Registration Licenses,JAI MARUTI FOOD MART INC.,,12424 WHITE BLUFF RD,"SAVANNAH, GA     31419",CHATHAM,912-920-8556,6/30/2026,
70028,Fuel Pump Registration Licenses,PARKWAY SHELL,,4 PARK OF COMMERCE,"SAVANNAH, GA     31405",CHATHAM,912-234-0025,6/30/2026,
59147,Fuel Pump Registration Licenses,HANDYLAND GATEWAY EXXON,,0 GATWAY BLVD.,"SAVANNAH, GA     31419",CHATHAM,912-921-0033,6/30/2026,
30468,Fuel Pump Registration Licenses,PO JOS STOP N GO,,1302 W GWINNETT ST,"SAVANNAH, GA     31401",CHATHAM,912-238-1932,6/30/2024,
30339,Fuel Pump Registration Licenses,GAS AND MORE,,4700 US HIGHWAY 80 EAST,"SAVANNAH, GA     31410",CHATHAM,912-898-4578,6/30/2026,
900225,Fuel Pump Registration Licenses,SHELL FOOD MART,,7361 SKIDAWAY ROAD,"SAVANNAH, GA     31406",CHATHAM,912-352-3317,6/30/2026,
51620,Fuel Pump Registration Licenses,SANDFLY AMOCO,,7362 SKIDAWAY RD,"SAVANNAH, GA     31406",CHATHAM,912-352-0570,6/30/2026,
31438,Fuel Pump Registration Licenses,PUMP N PANTRY #14,,329 MONTGOMERY XRD,"SAVANNAH, GA     31406",CHATHAM,(912) 925-2407,6/30/2026,
9296583,Fuel Pump Registration Licenses,CIRCLE K #2707265,,930 CHATHAM PKWY,"SAVANNAH, GA     31415",CHATHAM,912-744-0980,6/30/2026,
74295,Fuel Pump Registration Licenses,ENMARK STATION #834,,609 S HOUSTON LAKE RD,"SAVANNAH, GA     31402",CHATHAM,478-953-0853,6/30/2025,
97235,Fuel Pump Registration Licenses,SAM'S CLUB #8202,,1975 MONTGOMERY CROSSRD,"SAVANNAH, GA     31406",CHATHAM,912-353-8650,6/30/2026,
87441,Fuel Pump Registration Licenses,PARKERS #27,,1910 E PRESIDENT ST,"SAVANNAH, GA     31401",CHATHAM,912-231-1001,6/30/2026,
900223,Fuel Pump Registration Licenses,EISENHOWER BP,,2010 EISENHOWER DR,"SAVANNAH, GA     31406",CHATHAM,912-352-8338,6/30/2026,
42430,Fuel Pump Registration Licenses,S & S FOOD MART,,8001 WATERS AVE,"SAVANNAH, GA     31406",CHATHAM,(912) 354-6643,6/30/2026,
32494,Fuel Pump Registration Licenses,SAMAL INC.,,1114 ABERCORN ST,"SAVANNAH, GA     31401",CHATHAM,912-234-6623,6/30/2026,
30462,Fuel Pump Registration Licenses,DISCOUNT CORNER 2,,1521 E ANDERSON ST,"SAVANNAH, GA     31401",CHATHAM,912-233-1002,6/30/2026,
9292555,Fuel Pump Registration Licenses,WALMART #4530,,10530 ABERCORN ST,"SAVANNAH, GA     31419",,479-277-8354,6/30/2026,
900215,Fuel Pump Registration Licenses,SIDHHI VINAYAK ENTERPRISES/ALLEN OIL # 11,,12500 WHITE BLUFF RD,"SAVANNAH, GA     31419",CHATHAM,912-961-1222,6/30/2026,
71687,Fuel Pump Registration Licenses,PARKERS #19,,222 DRAYTON ST,"SAVANNAH, GA     31401",CHATHAM,912-231-1001,6/30/2026,
28009,Fuel Pump Registration Licenses,QUICK STOP #109,,4407 HABERSHAM ST,"SAVANNAH, GA     31405",CHATHAM,(912) 353-7712,6/30/2026,
9294427,Fuel Pump Registration Licenses,EAGLE MARKET #2,SAM PATEL,1050 KING GEORGE BLVD,"SAVANNAH, GA     31419",,912-722-8771,6/30/2021,
900259,Fuel Pump Registration Licenses,SAI BP,,1603 E. VICTORY DRIVE,"SAVANNAH, GA     31404",CHATHAM,912-691-0639,6/30/2026,
95197,Fuel Pump Registration Licenses,SHREEJI CONVENIENCE MART,,10325 ABERCORN ST.,"SAVANNAH, GA     31406",CHATHAM,912-925-0205,6/30/2026,
9293014,Fuel Pump Registration Licenses,SAVANNAH ORIGINAL 7-11 #6,,703 WHEATON ST,"SAVANNAH, GA     31401",CHATHAM,912-355-8063,6/30/2026,
900523,Fuel Pump Registration Licenses,SHOP-N-GO,,728 W OGLETHORPE AVE,"SAVANNAH, GA     31401",CHATHAM,912-238-2878,6/30/2026,
9295087,Fuel Pump Registration Licenses,"Bob's Convenience, LLC",Mike Patel,3707 Ogeechee Rd,"Savannah, GA     31405",CHATHAM,912-272-7441,6/30/2022,
9294975,Fuel Pump Registration Licenses,SPSS BROTHER CORP dba MIKES TIME SAVER,BOBBY SINGH,3713 MONTGOMERY STREET,"SAVANNAH, GA     31405",CHATHAM,516-721-9443,6/30/2026,
32703,Fuel Pump Registration Licenses,SAND FLY BP / ALLEN OIL # 3,,5411 WHITE BLUFF RD,"SAVANNAH, GA     31405",CHATHAM,912-356-8391,6/30/2023,
35825,Fuel Pump Registration Licenses,LUCKY'S CONVENIENCE MART,,8408 WHITE BLUFF RD,"SAVANNAH, GA     31406",CHATHAM,(912) 777-4469,6/30/2026,
70929,Fuel Pump Registration Licenses,GATEWAY TEXACO,,3 GATEWAY BLVD WEST,"SAVANNAH, GA     31402",CHATHAM,912-961-6257,6/30/2026,
9293705,Fuel Pump Registration Licenses,PARKERS #78,JOSH COHEN,5906 OGEECHEE RD,"SAVANNAH, GA     31419",CHATHAM,912-658-3834,6/30/2026,
9296094,Fuel Pump Registration Licenses,Enmark Stations Inc.,Angie Bivens,10 Eisenhower Drive,"Savannah, GA     31405",CHATHAM,912-236-1331,6/30/2025,
82773,Fuel Pump Registration Licenses,GATEWAY AMOCO OF SAVANNAH INC,,5 GATEWAY BLVD S,"SAVANNAH, GA     31417",CHATHAM,912-927-3000,6/30/2026,
9296092,Fuel Pump Registration Licenses,Walthall Oil Company - Fuel Pro #3 - Tremont,Cullen Coker,3006 Tremont Road,"Savannah, GA     31405",BIBB,478-781-1234,6/30/2024,
9292710,Fuel Pump Registration Licenses,CIRCLE K #1412,,4315 OGEECHEE RD,"SAVANNAH, GA     31405",CHATHAM,912-231-9300,6/30/2026,
31829,Fuel Pump Registration Licenses,VAISHNO INC,,1223 E MONTGOMERY XRD,"SAVANNAH, GA     31406",CHATHAM,912-927-3504,6/30/2026,
9295494,Fuel Pump Registration Licenses,PARKER'S #88,JOSH COHEN,21 E. DERENNE AVE,"SAVANNAH, GA     31401",CHATHAM,912-724-0098,6/30/2026,
79916,Fuel Pump Registration Licenses,ABERCORN BP,,10401 ABERCORN ST,"SAVANNAH, GA     31419",CHATHAM,912-961-5585,6/30/2026,
900375,Fuel Pump Registration Licenses,SHOP N GO #3,,2008 GROVE POINT RD,"SAVANNAH, GA     31419",CHATHAM,912-925-2511,6/30/2026,
69256,Fuel Pump Registration Licenses,AIRPORT SHELL,,294 CROSSROADS PKWY,"SAVANNAH, GA     31408",CHATHAM,912-965-0110,6/30/2026,
45155,Fuel Pump Registration Licenses,LANDINGS HARBOR MARINA,,600 PRIEST LANDING DR,"SAVANNAH, GA     31411",CHATHAM,912-598-1901,6/30/2026,
45896,Fuel Pump Registration Licenses,ENMARK #280,,715 E OGLETHORPE HWY,"SAVANNAH, GA     31402-9949",CHATHAM,912-876-2202,6/30/2025,
0510366,Fuel Pump Registration Licenses,THUNDERBOLT FISHERMAN'S SEAFOOD INC.,,3110 RIVER DRIVE,"SAVANNAH, GA     31404",CHATHAM,912-354-0417,6/30/2023,
26838,Fuel Pump Registration Licenses,DISCOUNT CORNER,,1 E DERENNE AVE,"SAVANNAH, GA     31401",CHATHAM,912-355-0107,6/30/2026,
9296766,Fuel Pump Registration Licenses,NOURIA 7406 WATERS AVENUE,REBECCA SHURTLEFF,7406 WATERS AVENUE,"SAVANNAH, GA     31406",,508-309-2888,6/30/2026,
32786,Fuel Pump Registration Licenses,"SANDFLY, INC.",,1 DIAMOND CAUSEWAY,"SAVANNAH, GA     31406",CHATHAM,912-353-7254,6/30/2026,
35126,Fuel Pump Registration Licenses,CIRCLE K 5346,,2404 DEAN FOREST RD,"SAVANNAH, GA     31408",CHATHAM,912-966-5484,6/30/2026,
